{
  "version": 0.6,
  "generator": "Overpass API 0.7.57 93a4d346",
  "osm3s": {
    "copyright": "The data included in this document is from www.openstreetmap.org. The data is made available under ODbL."
  },
  "elements": [

{
  "type": "node",
  "id": 4995720153,
  "lat": 38.5406616,
  "lon": -28.6240554,
  "tags": {
    "access": "yes",
    "addr:country": "PT",
    "capacity": "2",
    "construction:amenity": "charging_station",
    "name": "Largo do Bispo",
    "network": "none",
    "opening_hours": "24/7",
    "operator": "unknown",
    "parking:fee": "no",
    "socket:type2": "2"
  }
},
{
  "type": "node",
  "id": 6635524353,
  "lat": 40.6610315,
  "lon": -7.9029511,
  "tags": {
    "access": "yes",
    "addr:country": "PT",
    "authentication:membership_card": "yes",
    "authentication:none": "no",
    "capacity": "2",
    "construction:amenity": "charging_station",
    "email": "mobilidade-eletrica@edp.pt",
    "fee": "yes",
    "motorcar": "yes",
    "name": "VIS-00053",
    "network": "Mobi.E",
    "opening_hours": "24/7",
    "operator": "EDP Comercial",
    "parking:fee": "no",
    "phone": "+351 800 222 222",
    "ref": "VIS-00053",
    "socket:type2": "2",
    "socket:type2:current": "16",
    "socket:type2:output": "3.7kW",
    "socket:type2:voltage": "230",
    "website": "https://www.mobie.pt"
  }
},
{
  "type": "node",
  "id": 8011154800,
  "lat": 38.7560651,
  "lon": -9.2044763,
  "tags": {
    "access": "yes",
    "addr:city": "Lisboa",
    "addr:country": "PT",
    "addr:street": "Calçada do Tojal",
    "authentication:membership_card": "yes",
    "authentication:none": "no",
    "capacity": "2",
    "construction:amenity": "charging_station",
    "email": "suporte@mobiletric.com",
    "fee": "yes",
    "motorcar": "yes",
    "name": "LSB-00090",
    "network": "Mobi.E",
    "opening_hours": "24/7",
    "operator": "Mobiletric",
    "parking:fee": "no",
    "phone": "+351 800 210 204",
    "ref": "LSB-00090",
    "socket:chademo": "1",
    "socket:chademo:current": "120",
    "socket:chademo:output": "50kW",
    "socket:chademo:voltage": "500",
    "socket:type2_cable": "1",
    "socket:type2_cable:current": "63",
    "socket:type2_cable:output": "43kW",
    "socket:type2_cable:voltage": "400",
    "socket:type2_combo": "1",
    "socket:type2_combo:current": "125",
    "socket:type2_combo:output": "50kW",
    "socket:type2_combo:voltage": "500",
    "website": "https://www.mobie.pt"
  }
},
{
  "type": "node",
  "id": 8078271553,
  "lat": 40.5440248,
  "lon": -7.2163197,
  "tags": {
    "access": "yes",
    "addr:country": "PT",
    "authentication:membership_card": "yes",
    "authentication:none": "no",
    "capacity": "2",
    "construction:amenity": "charging_station",
    "email": "mobilidade.electricacrc@galp.com",
    "fee": "yes",
    "motorcar": "yes",
    "name": "GRD-00008",
    "network": "Mobi.E",
    "opening_hours": "24/7",
    "operator": "Galp Geste",
    "parking:fee": "no",
    "phone": "+351 800 249 249",
    "ref": "GRD-00008",
    "socket:chademo": "1",
    "socket:chademo:current": "120",
    "socket:chademo:output": "50kW",
    "socket:chademo:voltage": "500",
    "socket:type2_cable": "1",
    "socket:type2_cable:current": "63",
    "socket:type2_cable:output": "43kW",
    "socket:type2_cable:voltage": "400",
    "socket:type2_combo": "1",
    "socket:type2_combo:current": "125",
    "socket:type2_combo:output": "50kW",
    "socket:type2_combo:voltage": "500",
    "website": "https://www.mobie.pt"
  }
},
{
  "type": "node",
  "id": 8200130058,
  "lat": 37.1242844,
  "lon": -8.3350718,
  "tags": {
    "access": "yes",
    "addr:city": "Pêra",
    "addr:country": "PT",
    "addr:street": "EN 125",
    "authentication:membership_card": "yes",
    "authentication:none": "no",
    "capacity": "2",
    "construction:amenity": "charging_station",
    "email": "mobilidade.electricacrc@galp.com",
    "fee": "yes",
    "motorcar": "yes",
    "name": "SLV-XXXXX",
    "network": "Mobi.E",
    "opening_hours": "24/7",
    "operator": "Galp Geste",
    "parking:fee": "no",
    "phone": "+351 800 249 249",
    "ref": "SLV-XXXXX",
    "socket:chademo": "1",
    "socket:chademo:current": "120",
    "socket:chademo:output": "50kW",
    "socket:chademo:voltage": "500",
    "socket:type2_cable": "1",
    "socket:type2_cable:current": "63",
    "socket:type2_cable:output": "43kW",
    "socket:type2_cable:voltage": "400",
    "socket:type2_combo": "1",
    "socket:type2_combo:current": "125",
    "socket:type2_combo:output": "50kW",
    "socket:type2_combo:voltage": "500",
    "website": "https://www.mobie.pt"
  }
},
{
  "type": "node",
  "id": 8206970204,
  "lat": 37.1305664,
  "lon": -8.5452968,
  "tags": {
    "access": "yes",
    "addr:city": "Portimão",
    "addr:country": "PT",
    "addr:street": "Avenida São Lourenço da Barrosa (V6)",
    "authentication:membership_card": "yes",
    "authentication:none": "no",
    "capacity": "2",
    "construction:amenity": "charging_station",
    "email": "mobilidade.electricacrc@galp.com",
    "fee": "yes",
    "motorcar": "yes",
    "name": "PTM-XXXXX",
    "network": "Mobi.E",
    "opening_hours": "24/7",
    "operator": "Galp Geste",
    "parking:fee": "no",
    "phone": "+351 800 249 249",
    "ref": "PTM-XXXXX",
    "socket:chademo": "1",
    "socket:chademo:current": "120",
    "socket:chademo:output": "50kW",
    "socket:chademo:voltage": "500",
    "socket:type2_cable": "1",
    "socket:type2_cable:current": "63",
    "socket:type2_cable:output": "43kW",
    "socket:type2_cable:voltage": "400",
    "socket:type2_combo": "1",
    "socket:type2_combo:current": "125",
    "socket:type2_combo:output": "50kW",
    "socket:type2_combo:voltage": "500",
    "website": "https://www.mobie.pt"
  }
},
{
  "type": "node",
  "id": 8207151870,
  "lat": 38.8422583,
  "lon": -7.5875483,
  "tags": {
    "access": "yes",
    "addr:city": "Estremoz",
    "addr:country": "PT",
    "addr:street": "Rua de Santo André",
    "authentication:membership_card": "yes",
    "authentication:none": "no",
    "capacity": "2",
    "construction:amenity": "charging_station",
    "fee": "yes",
    "motorcar": "yes",
    "name": "ETZ-00002",
    "network": "Mobi.E",
    "opening_hours": "24/7",
    "operator": "Mobi.E",
    "parking:fee": "no",
    "ref": "ETZ-00002",
    "socket:chademo": "1",
    "socket:chademo:current": "120",
    "socket:chademo:output": "50kW",
    "socket:chademo:voltage": "500",
    "socket:type2_cable": "1",
    "socket:type2_cable:current": "63",
    "socket:type2_cable:output": "43kW",
    "socket:type2_cable:voltage": "400",
    "socket:type2_combo": "1",
    "socket:type2_combo:current": "125",
    "socket:type2_combo:output": "50kW",
    "socket:type2_combo:voltage": "500",
    "website": "https://www.mobie.pt"
  }
},
{
  "type": "node",
  "id": 8207177857,
  "lat": 38.6313095,
  "lon": -9.1185524,
  "tags": {
    "access": "yes",
    "addr:city": "Amora",
    "addr:country": "PT",
    "authentication:membership_card": "yes",
    "authentication:none": "no",
    "capacity": "1",
    "construction:amenity": "charging_station",
    "email": "electric@prioenergy.com",
    "fee": "yes",
    "motorcar": "yes",
    "name": "SXL-00003",
    "network": "Mobi.E",
    "opening_hours": "24/7",
    "operator": "Prio.E",
    "parking:fee": "no",
    "phone": "+351 800 450 111",
    "ref": "SXL-00003",
    "socket:chademo": "1",
    "socket:chademo:current": "120",
    "socket:chademo:output": "50kW",
    "socket:chademo:voltage": "500",
    "socket:type2_combo": "1",
    "socket:type2_combo:current": "125",
    "socket:type2_combo:output": "50kW",
    "socket:type2_combo:voltage": "500",
    "website": "https://www.mobie.pt"
  }
},
{
  "type": "node",
  "id": 8207182589,
  "lat": 38.6304043,
  "lon": -9.1767101,
  "tags": {
    "access": "yes",
    "addr:city": "Almada",
    "addr:country": "PT",
    "addr:street": "Estrada Quinta da Carcereira",
    "authentication:membership_card": "yes",
    "authentication:none": "no",
    "capacity": "2",
    "construction:amenity": "charging_station",
    "email": "mobilidade.electricacrc@galp.com",
    "fee": "yes",
    "motorcar": "yes",
    "name": "ALM-XXXXX",
    "network": "Mobi.E",
    "opening_hours": "24/7",
    "operator": "Galp Geste",
    "parking:fee": "no",
    "phone": "+351 800 249 249",
    "ref": "ALM-XXXXX",
    "socket:chademo": "1",
    "socket:chademo:current": "120",
    "socket:chademo:output": "50kW",
    "socket:chademo:voltage": "500",
    "socket:type2_cable": "1",
    "socket:type2_cable:current": "63",
    "socket:type2_cable:output": "43kW",
    "socket:type2_cable:voltage": "400",
    "socket:type2_combo": "1",
    "socket:type2_combo:current": "125",
    "socket:type2_combo:output": "50kW",
    "socket:type2_combo:voltage": "500",
    "website": "https://www.mobie.pt"
  }
},
{
  "type": "node",
  "id": 8207453605,
  "lat": 38.7989485,
  "lon": -9.1971472,
  "tags": {
    "access": "yes",
    "addr:city": "Odivelas",
    "addr:country": "PT",
    "addr:street": "Avenida das Acácias",
    "authentication:membership_card": "yes",
    "authentication:none": "no",
    "capacity": "1",
    "construction:amenity": "charging_station",
    "email": "electric@prioenergy.com",
    "fee": "yes",
    "motorcar": "yes",
    "name": "ODV-00004",
    "network": "Mobi.E",
    "opening_hours": "24/7",
    "operator": "Prio.E",
    "parking:fee": "no",
    "phone": "+351 800 450 111",
    "ref": "ODV-00004",
    "socket:chademo": "1",
    "socket:chademo:current": "120",
    "socket:chademo:output": "50kW",
    "socket:chademo:voltage": "500",
    "socket:type2_combo": "1",
    "socket:type2_combo:current": "125",
    "socket:type2_combo:output": "50kW",
    "socket:type2_combo:voltage": "500",
    "website": "https://www.mobie.pt"
  }
},
{
  "type": "node",
  "id": 8207710325,
  "lat": 38.6937564,
  "lon": -9.2176782,
  "tags": {
    "access": "yes",
    "addr:city": "Lisboa",
    "addr:country": "PT",
    "addr:street": "Avenida da Índia",
    "authentication:membership_card": "yes",
    "authentication:none": "no",
    "capacity": "2",
    "construction:amenity": "charging_station",
    "email": "mobilidade.electricacrc@galp.com",
    "fee": "yes",
    "motorcar": "yes",
    "name": "LSB-00310",
    "network": "Mobi.E",
    "opening_hours": "24/7",
    "operator": "Galp Geste",
    "parking:fee": "no",
    "phone": "+351 800 249 249",
    "ref": "LSB-00310",
    "socket:chademo": "1",
    "socket:chademo:current": "120",
    "socket:chademo:output": "50kW",
    "socket:chademo:voltage": "500",
    "socket:type2_cable": "1",
    "socket:type2_cable:current": "63",
    "socket:type2_cable:output": "43kW",
    "socket:type2_cable:voltage": "400",
    "socket:type2_combo": "1",
    "socket:type2_combo:current": "125",
    "socket:type2_combo:output": "50kW",
    "socket:type2_combo:voltage": "500",
    "website": "https://www.mobie.pt"
  }
},
{
  "type": "node",
  "id": 8220947976,
  "lat": 38.7139502,
  "lon": -9.2252782,
  "tags": {
    "access": "yes",
    "addr:city": "Algés",
    "addr:country": "PT",
    "addr:street": "Alameda Fernão Lopes",
    "authentication:membership_card": "yes",
    "authentication:none": "no",
    "capacity": "2",
    "construction:amenity": "charging_station",
    "email": "suporte@mobiletric.com",
    "fee": "yes",
    "motorcar": "yes",
    "name": "OER-00062",
    "network": "Mobi.E",
    "opening_hours": "24/7",
    "operator": "Mobiletric",
    "parking:fee": "no",
    "phone": "+351 800 210 204",
    "ref": "OER-00062",
    "socket:chademo": "1",
    "socket:chademo:current": "120",
    "socket:chademo:output": "50kW",
    "socket:chademo:voltage": "500",
    "socket:type2_cable": "1",
    "socket:type2_cable:current": "63",
    "socket:type2_cable:output": "43kW",
    "socket:type2_cable:voltage": "400",
    "socket:type2_combo": "1",
    "socket:type2_combo:current": "125",
    "socket:type2_combo:output": "50kW",
    "socket:type2_combo:voltage": "500",
    "website": "https://www.mobie.pt"
  }
},
{
  "type": "node",
  "id": 8220947977,
  "lat": 38.7116993,
  "lon": -9.2255075,
  "tags": {
    "access": "yes",
    "addr:city": "Algés",
    "addr:country": "PT",
    "addr:street": "Avenida General Norton de Matos",
    "authentication:membership_card": "yes",
    "authentication:none": "no",
    "capacity": "1",
    "construction:amenity": "charging_station",
    "email": "mobilidade.electricacrc@galp.com",
    "fee": "yes",
    "motorcar": "yes",
    "name": "OER-00084 - Parque de Miraflores",
    "network": "Mobi.E",
    "opening_hours": "24/7",
    "operator": "Galp Power",
    "parking:fee": "no",
    "phone": "+351 800 249 249",
    "ref": "OER-00084",
    "socket:chademo": "1",
    "socket:chademo:current": "120",
    "socket:chademo:output": "50kW",
    "socket:chademo:voltage": "500",
    "socket:type2_combo": "1",
    "socket:type2_combo:current": "350",
    "socket:type2_combo:output": "160kW",
    "socket:type2_combo:voltage": "920",
    "website": "https://www.mobie.pt"
  }
},
{
  "type": "node",
  "id": 8221001002,
  "lat": 38.7162735,
  "lon": -9.2404728,
  "tags": {
    "access": "yes",
    "addr:city": "Linda-a-Velha",
    "addr:country": "PT",
    "addr:street": "Avenida 25 de Abril de 1974",
    "authentication:membership_card": "yes",
    "authentication:none": "no",
    "capacity": "2",
    "construction:amenity": "charging_station",
    "email": "mobilidade.electricacrc@galp.com",
    "fee": "yes",
    "motorcar": "yes",
    "name": "OER-XXXXX",
    "network": "Mobi.E",
    "opening_hours": "24/7",
    "operator": "Galp Geste",
    "parking:fee": "no",
    "phone": "+351 800 249 249",
    "ref": "OER-XXXXX",
    "socket:chademo": "1",
    "socket:chademo:current": "120",
    "socket:chademo:output": "50kW",
    "socket:chademo:voltage": "500",
    "socket:type2_cable": "1",
    "socket:type2_cable:current": "63",
    "socket:type2_cable:output": "43kW",
    "socket:type2_cable:voltage": "400",
    "socket:type2_combo": "1",
    "socket:type2_combo:current": "125",
    "socket:type2_combo:output": "50kW",
    "socket:type2_combo:voltage": "500",
    "website": "https://www.mobie.pt"
  }
},
{
  "type": "node",
  "id": 8221024155,
  "lat": 38.7157924,
  "lon": -9.2403030,
  "tags": {
    "access": "yes",
    "addr:city": "Linda-a-Velha",
    "addr:country": "PT",
    "addr:street": "Avenida 25 de Abril de 1974",
    "authentication:membership_card": "yes",
    "authentication:none": "no",
    "capacity": "1",
    "construction:amenity": "charging_station",
    "email": "suporte@mobiletric.com",
    "fee": "yes",
    "motorcar": "yes",
    "name": "OER-00033",
    "network": "Mobi.E",
    "opening_hours": "24/7",
    "operator": "Mobiletric",
    "parking:fee": "no",
    "phone": "+351 800 210 204",
    "ref": "OER-00033",
    "socket:chademo": "1",
    "socket:chademo:current": "120",
    "socket:chademo:output": "50kW",
    "socket:chademo:voltage": "500",
    "socket:type2_combo": "1",
    "socket:type2_combo:current": "350",
    "socket:type2_combo:output": "160kW",
    "socket:type2_combo:voltage": "920",
    "website": "https://www.mobie.pt"
  }
},
{
  "type": "node",
  "id": 8222780285,
  "lat": 38.7316172,
  "lon": -9.2781894,
  "tags": {
    "access": "yes",
    "addr:city": "Barcarena",
    "addr:country": "PT",
    "addr:street": "Largo 5 de Outubro",
    "authentication:membership_card": "yes",
    "authentication:none": "no",
    "capacity": "2",
    "construction:amenity": "charging_station",
    "email": "suporte@mobiletric.com",
    "fee": "yes",
    "motorcar": "yes",
    "name": "OER-00078 - Junta de Freguesia de Barcarena",
    "network": "Mobi.E",
    "opening_hours": "24/7",
    "operator": "Mobiletric",
    "parking:fee": "no",
    "phone": "+351 800 210 204",
    "ref": "OER-00078",
    "socket:chademo": "1",
    "socket:chademo:current": "120",
    "socket:chademo:output": "50kW",
    "socket:chademo:voltage": "500",
    "socket:type2_cable": "1",
    "socket:type2_cable:current": "63",
    "socket:type2_cable:output": "43kW",
    "socket:type2_cable:voltage": "400",
    "socket:type2_combo": "1",
    "socket:type2_combo:current": "125",
    "socket:type2_combo:output": "50kW",
    "socket:type2_combo:voltage": "500",
    "website": "https://www.mobie.pt"
  }
},
{
  "type": "node",
  "id": 8222805987,
  "lat": 38.7413266,
  "lon": -9.3057491,
  "tags": {
    "access": "yes",
    "addr:city": "Porto Salvo",
    "addr:country": "PT",
    "addr:street": "Avenida Professor Doutor Cavaco Silva",
    "authentication:membership_card": "yes",
    "authentication:none": "no",
    "capacity": "2",
    "construction:amenity": "charging_station",
    "email": "suporte@mobiletric.com",
    "fee": "yes",
    "motorcar": "yes",
    "name": "OER-00058",
    "network": "Mobi.E",
    "opening_hours": "24/7",
    "operator": "Mobiletric",
    "parking:fee": "no",
    "phone": "+351 800 210 204",
    "ref": "OER-00058",
    "socket:chademo": "1",
    "socket:chademo:current": "120",
    "socket:chademo:output": "50kW",
    "socket:chademo:voltage": "500",
    "socket:type2_cable": "1",
    "socket:type2_cable:current": "63",
    "socket:type2_cable:output": "43kW",
    "socket:type2_cable:voltage": "400",
    "socket:type2_combo": "1",
    "socket:type2_combo:current": "125",
    "socket:type2_combo:output": "50kW",
    "socket:type2_combo:voltage": "500",
    "website": "https://www.mobie.pt"
  }
},
{
  "type": "node",
  "id": 8222811020,
  "lat": 38.7388118,
  "lon": -9.3041341,
  "tags": {
    "access": "yes",
    "addr:city": "Oeiras",
    "addr:country": "PT",
    "addr:street": "Praça Central do Tagus Park",
    "authentication:membership_card": "yes",
    "authentication:none": "no",
    "capacity": "2",
    "construction:amenity": "charging_station",
    "email": "apoio.cliente@kmlowcost.com",
    "fee": "yes",
    "motorcar": "yes",
    "name": "OER-00017",
    "network": "Mobi.E",
    "opening_hours": "24/7",
    "operator": "KLC",
    "parking:fee": "no",
    "phone": "+351 800 296 929",
    "ref": "OER-00017",
    "socket:chademo": "1",
    "socket:chademo:current": "120",
    "socket:chademo:output": "50kW",
    "socket:chademo:voltage": "500",
    "socket:type2_cable": "1",
    "socket:type2_cable:current": "63",
    "socket:type2_cable:output": "43kW",
    "socket:type2_cable:voltage": "400",
    "socket:type2_combo": "1",
    "socket:type2_combo:current": "125",
    "socket:type2_combo:output": "50kW",
    "socket:type2_combo:voltage": "500",
    "website": "https://www.mobie.pt"
  }
},
{
  "type": "node",
  "id": 8222847552,
  "lat": 38.7196890,
  "lon": -9.4414312,
  "tags": {
    "access": "yes",
    "addr:city": "Malveira da Serra",
    "addr:country": "PT",
    "addr:street": "Birre",
    "authentication:membership_card": "yes",
    "authentication:none": "no",
    "capacity": "2",
    "construction:amenity": "charging_station",
    "email": "mobilidade.electricacrc@galp.com",
    "fee": "yes",
    "motorcar": "yes",
    "name": "CSC-XXXXX - Galp Estrada da Malveira da Serra",
    "network": "Mobi.E",
    "opening_hours": "24/7",
    "operator": "Galp Geste",
    "parking:fee": "no",
    "phone": "+351 800 249 249",
    "ref": "CSC-XXXXX",
    "socket:chademo": "1",
    "socket:chademo:current": "120",
    "socket:chademo:output": "50kW",
    "socket:chademo:voltage": "500",
    "socket:type2_cable": "1",
    "socket:type2_cable:current": "63",
    "socket:type2_cable:output": "43kW",
    "socket:type2_cable:voltage": "400",
    "socket:type2_combo": "1",
    "socket:type2_combo:current": "125",
    "socket:type2_combo:output": "50kW",
    "socket:type2_combo:voltage": "500",
    "website": "https://www.mobie.pt"
  }
},
{
  "type": "node",
  "id": 8222940114,
  "lat": 38.7118683,
  "lon": -9.2976354,
  "tags": {
    "access": "yes",
    "addr:city": "Paço de Arcos",
    "addr:country": "PT",
    "authentication:membership_card": "yes",
    "authentication:none": "no",
    "capacity": "2",
    "construction:amenity": "charging_station",
    "email": "mobilidade.electricacrc@galp.com",
    "fee": "yes",
    "motorcar": "yes",
    "name": "OER-00072 - Quinta da Fonte Nascente",
    "network": "Mobi.E",
    "opening_hours": "24/7",
    "operator": "Galp Power",
    "parking:fee": "no",
    "phone": "+351 800 249 249",
    "ref": "OER-00072",
    "socket:chademo": "1",
    "socket:chademo:current": "120",
    "socket:chademo:output": "50kW",
    "socket:chademo:voltage": "500",
    "socket:type2_cable": "1",
    "socket:type2_cable:current": "63",
    "socket:type2_cable:output": "43kW",
    "socket:type2_cable:voltage": "400",
    "socket:type2_combo": "1",
    "socket:type2_combo:current": "125",
    "socket:type2_combo:output": "50kW",
    "socket:type2_combo:voltage": "500",
    "website": "https://www.mobie.pt"
  }
},
{
  "type": "node",
  "id": 8223097866,
  "lat": 38.6954239,
  "lon": -9.3024964,
  "tags": {
    "access": "yes",
    "addr:city": "Oeiras",
    "addr:country": "PT",
    "addr:street": "Praceta de Manica",
    "authentication:membership_card": "yes",
    "authentication:none": "no",
    "capacity": "2",
    "construction:amenity": "charging_station",
    "email": "mobilidade.electricacrc@galp.com",
    "fee": "yes",
    "motorcar": "yes",
    "name": "OER-00071",
    "network": "Mobi.E",
    "opening_hours": "24/7",
    "operator": "Galp Power",
    "parking:fee": "no",
    "phone": "+351 800 249 249",
    "ref": "OER-00071",
    "socket:chademo": "1",
    "socket:chademo:current": "120",
    "socket:chademo:output": "50kW",
    "socket:chademo:voltage": "500",
    "socket:type2_cable": "1",
    "socket:type2_cable:current": "63",
    "socket:type2_cable:output": "43kW",
    "socket:type2_cable:voltage": "400",
    "socket:type2_combo": "1",
    "socket:type2_combo:current": "125",
    "socket:type2_combo:output": "50kW",
    "socket:type2_combo:voltage": "500",
    "website": "https://www.mobie.pt"
  }
},
{
  "type": "node",
  "id": 8223157567,
  "lat": 38.6762928,
  "lon": -9.3207369,
  "tags": {
    "access": "yes",
    "addr:city": "Oeiras",
    "addr:country": "PT",
    "authentication:membership_card": "yes",
    "authentication:none": "no",
    "capacity": "2",
    "construction:amenity": "charging_station",
    "email": "mobilidade.electricacrc@galp.com",
    "fee": "yes",
    "motorcar": "yes",
    "name": "OER-00075 - Marina de Oeiras",
    "network": "Mobi.E",
    "opening_hours": "24/7",
    "operator": "Galp Power",
    "parking:fee": "no",
    "phone": "+351 800 249 249",
    "ref": "OER-00075",
    "socket:chademo": "1",
    "socket:chademo:current": "120",
    "socket:chademo:output": "50kW",
    "socket:chademo:voltage": "500",
    "socket:type2_cable": "1",
    "socket:type2_cable:current": "63",
    "socket:type2_cable:output": "43kW",
    "socket:type2_cable:voltage": "400",
    "socket:type2_combo": "1",
    "socket:type2_combo:current": "125",
    "socket:type2_combo:output": "50kW",
    "socket:type2_combo:voltage": "500",
    "website": "https://www.mobie.pt"
  }
},
{
  "type": "node",
  "id": 8224954914,
  "lat": 40.2220956,
  "lon": -8.4306818,
  "tags": {
    "access": "yes",
    "addr:city": "Coimbra",
    "addr:country": "PT",
    "addr:street": "Circular Externa",
    "authentication:membership_card": "yes",
    "authentication:none": "no",
    "capacity": "2",
    "construction:amenity": "charging_station",
    "email": "mobilidade.electricacrc@galp.com",
    "fee": "yes",
    "motorcar": "yes",
    "name": "CBR-XXXXX",
    "network": "Mobi.E",
    "opening_hours": "24/7",
    "operator": "Galp Geste",
    "parking:fee": "no",
    "phone": "+351 800 249 249",
    "ref": "CBR-XXXXX",
    "socket:chademo": "1",
    "socket:chademo:current": "120",
    "socket:chademo:output": "50kW",
    "socket:chademo:voltage": "500",
    "socket:type2_cable": "1",
    "socket:type2_cable:current": "63",
    "socket:type2_cable:output": "43kW",
    "socket:type2_cable:voltage": "400",
    "socket:type2_combo": "1",
    "socket:type2_combo:current": "125",
    "socket:type2_combo:output": "50kW",
    "socket:type2_combo:voltage": "500",
    "website": "https://www.mobie.pt"
  }
},
{
  "type": "node",
  "id": 8224976509,
  "lat": 40.1954194,
  "lon": -8.4086877,
  "tags": {
    "access": "yes",
    "addr:city": "Coimbra",
    "addr:country": "PT",
    "addr:street": "Avenida Mendes Silva",
    "authentication:membership_card": "yes",
    "authentication:none": "no",
    "capacity": "2",
    "construction:amenity": "charging_station",
    "email": "mobilidade.electricacrc@galp.com",
    "fee": "yes",
    "motorcar": "yes",
    "name": "CBR-XXXXX",
    "network": "Mobi.E",
    "opening_hours": "24/7",
    "operator": "Galp Geste",
    "parking:fee": "no",
    "phone": "+351 800 249 249",
    "ref": "CBR-XXXXX",
    "socket:chademo": "1",
    "socket:chademo:current": "120",
    "socket:chademo:output": "50kW",
    "socket:chademo:voltage": "500",
    "socket:type2_cable": "1",
    "socket:type2_cable:current": "63",
    "socket:type2_cable:output": "43kW",
    "socket:type2_cable:voltage": "400",
    "socket:type2_combo": "1",
    "socket:type2_combo:current": "125",
    "socket:type2_combo:output": "50kW",
    "socket:type2_combo:voltage": "500",
    "website": "https://www.mobie.pt"
  }
},
{
  "type": "node",
  "id": 8225142689,
  "lat": 40.6299074,
  "lon": -7.3580423,
  "tags": {
    "access": "yes",
    "addr:city": "Celorico da Beira",
    "addr:country": "PT",
    "authentication:membership_card": "yes",
    "authentication:none": "no",
    "capacity": "2",
    "construction:amenity": "charging_station",
    "email": "mobilidade.electricacrc@galp.com",
    "fee": "yes",
    "motorcar": "yes",
    "name": "CLB-00002",
    "network": "Mobi.E",
    "opening_hours": "24/7",
    "operator": "Galp Geste",
    "parking:fee": "no",
    "phone": "+351 800 249 249",
    "ref": "CLB-00002",
    "socket:chademo": "1",
    "socket:chademo:current": "120",
    "socket:chademo:output": "50kW",
    "socket:chademo:voltage": "500",
    "socket:type2_cable": "1",
    "socket:type2_cable:current": "63",
    "socket:type2_cable:output": "43kW",
    "socket:type2_cable:voltage": "400",
    "socket:type2_combo": "1",
    "socket:type2_combo:current": "125",
    "socket:type2_combo:output": "50kW",
    "socket:type2_combo:voltage": "500",
    "website": "https://www.mobie.pt"
  }
},
{
  "type": "node",
  "id": 8225142690,
  "lat": 40.6295471,
  "lon": -7.3569104,
  "tags": {
    "access": "yes",
    "addr:city": "Celorico da Beira",
    "addr:country": "PT",
    "authentication:membership_card": "yes",
    "authentication:none": "no",
    "capacity": "2",
    "construction:amenity": "charging_station",
    "email": "mobilidade.electricacrc@galp.com",
    "fee": "yes",
    "motorcar": "yes",
    "name": "CLB-00001",
    "network": "Mobi.E",
    "opening_hours": "24/7",
    "operator": "Galp Geste",
    "parking:fee": "no",
    "phone": "+351 800 249 249",
    "ref": "CLB-00001",
    "socket:chademo": "1",
    "socket:chademo:current": "120",
    "socket:chademo:output": "50kW",
    "socket:chademo:voltage": "500",
    "socket:type2_cable": "1",
    "socket:type2_cable:current": "63",
    "socket:type2_cable:output": "43kW",
    "socket:type2_cable:voltage": "400",
    "socket:type2_combo": "1",
    "socket:type2_combo:current": "125",
    "socket:type2_combo:output": "50kW",
    "socket:type2_combo:voltage": "500",
    "website": "https://www.mobie.pt"
  }
},
{
  "type": "node",
  "id": 8225244922,
  "lat": 40.6056996,
  "lon": -8.6627989,
  "tags": {
    "access": "yes",
    "addr:city": "Ílhavo",
    "addr:country": "PT",
    "addr:street": "Rua Vasco da Gama",
    "authentication:membership_card": "yes",
    "authentication:none": "no",
    "capacity": "2",
    "construction:amenity": "charging_station",
    "email": "mobilidade-eletrica@edp.pt",
    "fee": "yes",
    "motorcar": "yes",
    "name": "ILH-XXXXX",
    "network": "Mobi.E",
    "opening_hours": "24/7",
    "operator": "EDP Comercial",
    "parking:fee": "no",
    "phone": "+351 800 222 222",
    "ref": "ILH-XXXXX",
    "socket:chademo": "1",
    "socket:chademo:current": "120",
    "socket:chademo:output": "50kW",
    "socket:chademo:voltage": "500",
    "socket:type2_cable": "1",
    "socket:type2_cable:current": "63",
    "socket:type2_cable:output": "43kW",
    "socket:type2_cable:voltage": "400",
    "socket:type2_combo": "1",
    "socket:type2_combo:current": "125",
    "socket:type2_combo:output": "50kW",
    "socket:type2_combo:voltage": "500",
    "website": "https://www.mobie.pt"
  }
},
{
  "type": "node",
  "id": 8225295433,
  "lat": 40.6649576,
  "lon": -8.6109370,
  "tags": {
    "access": "yes",
    "addr:city": "Cacia",
    "addr:country": "PT",
    "addr:street": "Avenida da Europa",
    "authentication:membership_card": "yes",
    "authentication:none": "no",
    "capacity": "2",
    "construction:amenity": "charging_station",
    "email": "mobilidade.electricacrc@galp.com",
    "fee": "yes",
    "motorcar": "yes",
    "name": "AVR-00014",
    "network": "Mobi.E",
    "opening_hours": "24/7",
    "operator": "Galp Geste",
    "parking:fee": "no",
    "phone": "+351 800 249 249",
    "ref": "AVR-00014",
    "socket:chademo": "1",
    "socket:chademo:current": "120",
    "socket:chademo:output": "50kW",
    "socket:chademo:voltage": "500",
    "socket:type2_cable": "1",
    "socket:type2_cable:current": "63",
    "socket:type2_cable:output": "43kW",
    "socket:type2_cable:voltage": "400",
    "socket:type2_combo": "1",
    "socket:type2_combo:current": "125",
    "socket:type2_combo:output": "50kW",
    "socket:type2_combo:voltage": "500",
    "website": "https://www.mobie.pt"
  }
},
{
  "type": "node",
  "id": 8227799063,
  "lat": 41.1472290,
  "lon": -8.5311694,
  "tags": {
    "access": "yes",
    "addr:city": "São Cosme",
    "addr:country": "PT",
    "addr:street": "Avenida General Humberto Delgado",
    "authentication:membership_card": "yes",
    "authentication:none": "no",
    "capacity": "2",
    "construction:amenity": "charging_station",
    "email": "mobilidade.electricacrc@galp.com",
    "fee": "yes",
    "motorcar": "yes",
    "name": "GDM-XXXXX",
    "network": "Mobi.E",
    "opening_hours": "24/7",
    "operator": "Galp Geste",
    "parking:fee": "no",
    "phone": "+351 800 249 249",
    "ref": "GDM-XXXXX",
    "socket:chademo": "1",
    "socket:chademo:current": "120",
    "socket:chademo:output": "50kW",
    "socket:chademo:voltage": "500",
    "socket:type2_cable": "1",
    "socket:type2_cable:current": "63",
    "socket:type2_cable:output": "43kW",
    "socket:type2_cable:voltage": "400",
    "socket:type2_combo": "1",
    "socket:type2_combo:current": "125",
    "socket:type2_combo:output": "50kW",
    "socket:type2_combo:voltage": "500",
    "website": "https://www.mobie.pt"
  }
},
{
  "type": "node",
  "id": 8228833519,
  "lat": 41.1630538,
  "lon": -8.6235484,
  "tags": {
    "access": "yes",
    "addr:city": "Porto",
    "addr:country": "PT",
    "addr:street": "Rua 9 de Julho",
    "authentication:membership_card": "yes",
    "authentication:none": "no",
    "capacity": "2",
    "construction:amenity": "charging_station",
    "email": "suporte@mobiletric.com",
    "fee": "yes",
    "motorcar": "yes",
    "name": "PRT-00036/37",
    "network": "Mobi.E",
    "opening_hours": "24/7",
    "operator": "Mobiletric",
    "parking:fee": "no",
    "phone": "+351 800 210 204",
    "ref": "PRT-00036;PRT-00037",
    "socket:chademo": "2",
    "socket:chademo:current": "120",
    "socket:chademo:output": "50kW",
    "socket:chademo:voltage": "500",
    "socket:type2_combo": "2",
    "socket:type2_combo:current": "125",
    "socket:type2_combo:output": "50kW",
    "socket:type2_combo:voltage": "500",
    "website": "https://www.mobie.pt"
  }
},
{
  "type": "node",
  "id": 8228854413,
  "lat": 41.1720597,
  "lon": -8.6783461,
  "tags": {
    "access": "yes",
    "addr:city": "Matosinhos",
    "addr:country": "PT",
    "addr:street": "Estrada Exterior da Circunvalação",
    "authentication:membership_card": "yes",
    "authentication:none": "no",
    "capacity": "2",
    "construction:amenity": "charging_station",
    "email": "mobilidade.electricacrc@galp.com",
    "fee": "yes",
    "motorcar": "yes",
    "name": "MTS-00031",
    "network": "Mobi.E",
    "opening_hours": "24/7",
    "operator": "Galp Geste",
    "parking:fee": "no",
    "phone": "+351 800 249 249",
    "ref": "MTS-00031",
    "socket:chademo": "1",
    "socket:chademo:current": "120",
    "socket:chademo:output": "50kW",
    "socket:chademo:voltage": "500",
    "socket:type2_cable": "1",
    "socket:type2_cable:current": "63",
    "socket:type2_cable:output": "43kW",
    "socket:type2_cable:voltage": "400",
    "socket:type2_combo": "1",
    "socket:type2_combo:current": "125",
    "socket:type2_combo:output": "50kW",
    "socket:type2_combo:voltage": "500",
    "website": "https://www.mobie.pt"
  }
},
{
  "type": "node",
  "id": 8231825991,
  "lat": 41.2553151,
  "lon": -8.6544491,
  "tags": {
    "access": "yes",
    "addr:city": "Maia",
    "addr:country": "PT",
    "addr:street": "Rua Conselheiro Luís Magalhães",
    "authentication:membership_card": "yes",
    "authentication:none": "no",
    "capacity": "2",
    "construction:amenity": "charging_station",
    "email": "mobilidade.electricacrc@galp.com",
    "fee": "yes",
    "motorcar": "yes",
    "name": "MAI-XXXXX",
    "network": "Mobi.E",
    "opening_hours": "24/7",
    "operator": "Galp Geste",
    "parking:fee": "no",
    "phone": "+351 800 249 249",
    "ref": "MAI-XXXXX",
    "socket:chademo": "1",
    "socket:chademo:current": "120",
    "socket:chademo:output": "50kW",
    "socket:chademo:voltage": "500",
    "socket:type2_cable": "1",
    "socket:type2_cable:current": "63",
    "socket:type2_cable:output": "43kW",
    "socket:type2_cable:voltage": "400",
    "socket:type2_combo": "1",
    "socket:type2_combo:current": "125",
    "socket:type2_combo:output": "50kW",
    "socket:type2_combo:voltage": "500",
    "website": "https://www.mobie.pt"
  }
},
{
  "type": "node",
  "id": 8231827474,
  "lat": 41.2201582,
  "lon": -8.6875170,
  "tags": {
    "access": "yes",
    "addr:city": "Perafita",
    "addr:country": "PT",
    "addr:street": "Avenida Mário Brito",
    "authentication:membership_card": "yes",
    "authentication:none": "no",
    "capacity": "2",
    "construction:amenity": "charging_station",
    "email": "mobilidade.electricacrc@galp.com",
    "fee": "yes",
    "motorcar": "yes",
    "name": "MTS-00032",
    "network": "Mobi.E",
    "opening_hours": "24/7",
    "operator": "Galp Geste",
    "parking:fee": "no",
    "phone": "+351 800 249 249",
    "ref": "MTS-00032",
    "socket:chademo": "1",
    "socket:chademo:current": "120",
    "socket:chademo:output": "50kW",
    "socket:chademo:voltage": "500",
    "socket:type2_cable": "1",
    "socket:type2_cable:current": "63",
    "socket:type2_cable:output": "43kW",
    "socket:type2_cable:voltage": "400",
    "socket:type2_combo": "1",
    "socket:type2_combo:current": "125",
    "socket:type2_combo:output": "50kW",
    "socket:type2_combo:voltage": "500",
    "website": "https://www.mobie.pt"
  }
},
{
  "type": "node",
  "id": 8231863152,
  "lat": 41.2644186,
  "lon": -8.5646313,
  "tags": {
    "access": "yes",
    "addr:city": "Trofa",
    "addr:country": "PT",
    "authentication:membership_card": "yes",
    "authentication:none": "no",
    "capacity": "2",
    "construction:amenity": "charging_station",
    "email": "mobilidade.electricacrc@galp.com",
    "fee": "yes",
    "motorcar": "yes",
    "name": "TRF-00002",
    "network": "Mobi.E",
    "opening_hours": "24/7",
    "operator": "Galp Geste",
    "parking:fee": "no",
    "phone": "+351 800 249 249",
    "ref": "TRF-00002",
    "socket:chademo": "1",
    "socket:chademo:current": "120",
    "socket:chademo:output": "50kW",
    "socket:chademo:voltage": "500",
    "socket:type2_cable": "1",
    "socket:type2_cable:current": "63",
    "socket:type2_cable:output": "43kW",
    "socket:type2_cable:voltage": "400",
    "socket:type2_combo": "1",
    "socket:type2_combo:current": "125",
    "socket:type2_combo:output": "50kW",
    "socket:type2_combo:voltage": "500",
    "website": "https://www.mobie.pt"
  }
},
{
  "type": "node",
  "id": 8231935093,
  "lat": 41.4514238,
  "lon": -8.3013149,
  "tags": {
    "access": "yes",
    "addr:city": "Guimarães",
    "addr:country": "PT",
    "addr:street": "Circular Urbana de Guimarães",
    "authentication:membership_card": "yes",
    "authentication:none": "no",
    "capacity": "2",
    "construction:amenity": "charging_station",
    "email": "mobilidade.electricacrc@galp.com",
    "fee": "yes",
    "motorcar": "yes",
    "name": "GMR-00017",
    "network": "Mobi.E",
    "opening_hours": "24/7",
    "operator": "Galp Geste",
    "parking:fee": "no",
    "phone": "+351 800 249 249",
    "ref": "GMR-00017",
    "socket:chademo": "1",
    "socket:chademo:current": "120",
    "socket:chademo:output": "50kW",
    "socket:chademo:voltage": "500",
    "socket:type2_cable": "1",
    "socket:type2_cable:current": "63",
    "socket:type2_cable:output": "43kW",
    "socket:type2_cable:voltage": "400",
    "socket:type2_combo": "1",
    "socket:type2_combo:current": "125",
    "socket:type2_combo:output": "50kW",
    "socket:type2_combo:voltage": "500",
    "website": "https://www.mobie.pt"
  }
},
{
  "type": "node",
  "id": 8231973083,
  "lat": 41.5520095,
  "lon": -8.4091249,
  "tags": {
    "access": "yes",
    "addr:city": "Braga",
    "addr:country": "PT",
    "addr:street": "Avenida João Paulo II",
    "authentication:membership_card": "yes",
    "authentication:none": "no",
    "capacity": "2",
    "construction:amenity": "charging_station",
    "email": "mobilidade.electricacrc@galp.com",
    "fee": "yes",
    "motorcar": "yes",
    "name": "BRG-00027",
    "network": "Mobi.E",
    "opening_hours": "24/7",
    "operator": "Galp Geste",
    "parking:fee": "no",
    "phone": "+351 800 249 249",
    "ref": "BRG-00027",
    "socket:chademo": "1",
    "socket:chademo:current": "120",
    "socket:chademo:output": "50kW",
    "socket:chademo:voltage": "500",
    "socket:type2_cable": "1",
    "socket:type2_cable:current": "63",
    "socket:type2_cable:output": "43kW",
    "socket:type2_cable:voltage": "400",
    "socket:type2_combo": "1",
    "socket:type2_combo:current": "125",
    "socket:type2_combo:output": "50kW",
    "socket:type2_combo:voltage": "500",
    "website": "https://www.mobie.pt"
  }
},
{
  "type": "node",
  "id": 8232073281,
  "lat": 41.6056885,
  "lon": -8.5509038,
  "tags": {
    "access": "yes",
    "addr:city": "Barcelos",
    "addr:country": "PT",
    "addr:street": "A 3",
    "authentication:membership_card": "yes",
    "authentication:none": "no",
    "capacity": "2",
    "construction:amenity": "charging_station",
    "email": "propel@cepsa.com",
    "fee": "yes",
    "motorcar": "yes",
    "name": "BCL-00001",
    "network": "Mobi.E",
    "opening_hours": "24/7",
    "operator": "Propel-Cepsa",
    "parking:fee": "no",
    "phone": "+351 800 500 504",
    "ref": "BCL-00001",
    "socket:chademo": "1",
    "socket:chademo:current": "120",
    "socket:chademo:output": "50kW",
    "socket:chademo:voltage": "500",
    "socket:type2_cable": "1",
    "socket:type2_cable:current": "63",
    "socket:type2_cable:output": "43kW",
    "socket:type2_cable:voltage": "400",
    "socket:type2_combo": "1",
    "socket:type2_combo:current": "125",
    "socket:type2_combo:output": "50kW",
    "socket:type2_combo:voltage": "500",
    "website": "https://www.mobie.pt"
  }
},
{
  "type": "node",
  "id": 8232073283,
  "lat": 41.6041356,
  "lon": -8.5495895,
  "tags": {
    "access": "yes",
    "addr:country": "PT",
    "authentication:app": "yes",
    "authentication:membership_card": "yes",
    "authentication:none": "no",
    "capacity": "2",
    "construction:amenity": "charging_station",
    "fee": "yes",
    "motorcar": "yes",
    "name": "BCL-00010/11 - Ionity A3 S>N",
    "network": "Mobi.E",
    "opening_hours": "24/7",
    "operator": "Ionity",
    "parking:fee": "no",
    "ref": "BCL-00010;BCL-00011",
    "socket:type2_combo": "2",
    "socket:type2_combo:current": "500",
    "socket:type2_combo:output": "350kW",
    "socket:type2_combo:voltage": "920",
    "website": "https://www.mobie.pt"
  }
},
{
  "type": "node",
  "id": 8232073284,
  "lat": 41.6039972,
  "lon": -8.5498604,
  "tags": {
    "access": "yes",
    "addr:city": "Barcelos",
    "addr:country": "PT",
    "addr:street": "A 3",
    "authentication:membership_card": "yes",
    "authentication:none": "no",
    "capacity": "2",
    "construction:amenity": "charging_station",
    "email": "propel@cepsa.com",
    "fee": "yes",
    "motorcar": "yes",
    "name": "BCL-00002",
    "network": "Mobi.E",
    "opening_hours": "24/7",
    "operator": "Propel-Cepsa",
    "parking:fee": "no",
    "phone": "+351 800 500 504",
    "ref": "BCL-00002",
    "socket:chademo": "1",
    "socket:chademo:current": "120",
    "socket:chademo:output": "50kW",
    "socket:chademo:voltage": "500",
    "socket:type2_cable": "1",
    "socket:type2_cable:current": "63",
    "socket:type2_cable:output": "43kW",
    "socket:type2_cable:voltage": "400",
    "socket:type2_combo": "1",
    "socket:type2_combo:current": "125",
    "socket:type2_combo:output": "50kW",
    "socket:type2_combo:voltage": "500",
    "website": "https://www.mobie.pt"
  }
},
{
  "type": "node",
  "id": 8232149106,
  "lat": 41.6832710,
  "lon": -8.8093856,
  "tags": {
    "access": "yes",
    "addr:city": "Viana do Castelo",
    "addr:country": "PT",
    "addr:street": "Avenida Primeiro de Maio",
    "authentication:membership_card": "yes",
    "authentication:none": "no",
    "capacity": "2",
    "construction:amenity": "charging_station",
    "email": "mobilidade-eletrica@edp.pt",
    "fee": "yes",
    "motorcar": "yes",
    "name": "VCT-00016",
    "network": "Mobi.E",
    "opening_hours": "24/7",
    "operator": "EDP Comercial",
    "parking:fee": "no",
    "phone": "+351 800 222 222",
    "ref": "VCT-00016",
    "socket:chademo": "1",
    "socket:chademo:current": "120",
    "socket:chademo:output": "50kW",
    "socket:chademo:voltage": "500",
    "socket:type2_cable": "1",
    "socket:type2_cable:current": "63",
    "socket:type2_cable:output": "43kW",
    "socket:type2_cable:voltage": "400",
    "socket:type2_combo": "1",
    "socket:type2_combo:current": "125",
    "socket:type2_combo:output": "50kW",
    "socket:type2_combo:voltage": "500",
    "website": "https://www.mobie.pt"
  }
},
{
  "type": "node",
  "id": 8234878471,
  "lat": 38.7173290,
  "lon": -9.2380656,
  "tags": {
    "access": "yes",
    "addr:city": "Linda-a-Velha",
    "addr:country": "PT",
    "addr:street": "Rua Alexandre Herculano",
    "authentication:membership_card": "yes",
    "authentication:none": "no",
    "capacity": "2",
    "construction:amenity": "charging_station",
    "email": "mobilidade.electricacrc@galp.com",
    "fee": "yes",
    "motorcar": "yes",
    "name": "OER-00073 - Central Park",
    "network": "Mobi.E",
    "opening_hours": "24/7",
    "operator": "Galp Power",
    "parking:fee": "no",
    "phone": "+351 800 249 249",
    "ref": "OER-00073",
    "socket:chademo": "1",
    "socket:chademo:current": "120",
    "socket:chademo:output": "50kW",
    "socket:chademo:voltage": "500",
    "socket:type2_cable": "1",
    "socket:type2_cable:current": "63",
    "socket:type2_cable:output": "43kW",
    "socket:type2_cable:voltage": "400",
    "socket:type2_combo": "1",
    "socket:type2_combo:current": "125",
    "socket:type2_combo:output": "50kW",
    "socket:type2_combo:voltage": "500",
    "website": "https://www.mobie.pt"
  }
},
{
  "type": "node",
  "id": 8234917575,
  "lat": 38.7612993,
  "lon": -9.2794561,
  "tags": {
    "access": "yes",
    "addr:city": "Belas",
    "addr:country": "PT",
    "addr:street": "Avenida José Régio",
    "authentication:membership_card": "yes",
    "authentication:none": "no",
    "capacity": "2",
    "construction:amenity": "charging_station",
    "email": "mobilidade.electricacrc@galp.com",
    "fee": "yes",
    "motorcar": "yes",
    "name": "SNT-XXXXX",
    "network": "Mobi.E",
    "opening_hours": "24/7",
    "operator": "Galp Power",
    "parking:fee": "no",
    "phone": "+351 800 249 249",
    "ref": "SNT-XXXXX",
    "socket:chademo": "1",
    "socket:chademo:current": "120",
    "socket:chademo:output": "50kW",
    "socket:chademo:voltage": "500",
    "socket:type2_cable": "1",
    "socket:type2_cable:current": "63",
    "socket:type2_cable:output": "43kW",
    "socket:type2_cable:voltage": "400",
    "socket:type2_combo": "1",
    "socket:type2_combo:current": "125",
    "socket:type2_combo:output": "50kW",
    "socket:type2_combo:voltage": "500",
    "website": "https://www.mobie.pt"
  }
},
{
  "type": "node",
  "id": 8234959780,
  "lat": 40.5438566,
  "lon": -7.2155942,
  "tags": {
    "access": "yes",
    "addr:country": "PT",
    "addr:street": "A 23",
    "authentication:membership_card": "yes",
    "authentication:none": "no",
    "capacity": "2",
    "construction:amenity": "charging_station",
    "email": "mobilidade.electricacrc@galp.com",
    "fee": "yes",
    "motorcar": "yes",
    "name": "GRD-00007",
    "network": "Mobi.E",
    "opening_hours": "24/7",
    "operator": "Galp Geste",
    "parking:fee": "no",
    "phone": "+351 800 249 249",
    "ref": "GRD-00007",
    "socket:chademo": "1",
    "socket:chademo:current": "120",
    "socket:chademo:output": "50kW",
    "socket:chademo:voltage": "500",
    "socket:type2_cable": "1",
    "socket:type2_cable:current": "63",
    "socket:type2_cable:output": "43kW",
    "socket:type2_cable:voltage": "400",
    "socket:type2_combo": "1",
    "socket:type2_combo:current": "125",
    "socket:type2_combo:output": "50kW",
    "socket:type2_combo:voltage": "500",
    "website": "https://www.mobie.pt"
  }
},
{
  "type": "node",
  "id": 8255594126,
  "lat": 40.3584732,
  "lon": -6.9688860,
  "tags": {
    "access": "yes",
    "addr:country": "PT",
    "capacity": "2",
    "construction:amenity": "charging_station",
    "name": "Centro de Negócios Transfronteiriço",
    "network": "none",
    "operator": "Centro de Negócios Transfronteiriço",
    "socket:type2": "2",
    "socket:type2:current": "32",
    "socket:type2:output": "22kW",
    "socket:type2:voltage": "400"
  }
},
{
  "type": "node",
  "id": 8270035097,
  "lat": 37.1856891,
  "lon": -8.4416525,
  "tags": {
    "access": "yes",
    "addr:country": "PT",
    "authentication:membership_card": "yes",
    "authentication:none": "no",
    "capacity": "2",
    "construction:amenity": "charging_station",
    "email": "apoio.cliente@kmlowcost.com",
    "fee": "yes",
    "motorcar": "yes",
    "name": "SLV-00002",
    "network": "Mobi.E",
    "opening_hours": "24/7",
    "operator": "KLC",
    "parking:fee": "no",
    "phone": "+351 800 296 929",
    "ref": "SLV-00002",
    "socket:type2": "2",
    "socket:type2:current": "32",
    "socket:type2:output": "22kW",
    "socket:type2:voltage": "400",
    "website": "https://www.mobie.pt"
  }
},
{
  "type": "node",
  "id": 8270299204,
  "lat": 37.0234219,
  "lon": -7.8473468,
  "tags": {
    "access": "yes",
    "addr:country": "PT",
    "authentication:membership_card": "yes",
    "authentication:none": "no",
    "capacity": "2",
    "construction:amenity": "charging_station",
    "email": "mobilidade-eletrica@edp.pt",
    "fee": "yes",
    "maxstay": "unlimited",
    "motorcar": "yes",
    "name": "OLH-00002",
    "network": "Mobi.E",
    "opening_hours": "24/7",
    "operator": "EDP Comercial",
    "parking:fee": "no",
    "phone": "+351 800 222 222",
    "ref": "OLH-00002",
    "socket:type2": "2",
    "socket:type2:current": "32",
    "socket:type2:output": "22kW",
    "socket:type2:voltage": "400",
    "website": "https://www.mobie.pt"
  }
},
{
  "type": "node",
  "id": 8270337363,
  "lat": 37.1905709,
  "lon": -7.4174654,
  "tags": {
    "access": "yes",
    "addr:country": "PT",
    "authentication:membership_card": "yes",
    "authentication:none": "no",
    "capacity": "2",
    "construction:amenity": "charging_station",
    "email": "mobilidade.electricacrc@galp.com",
    "fee": "yes",
    "motorcar": "yes",
    "name": "VRS-00002",
    "network": "Mobi.E",
    "opening_hours": "24/7",
    "operator": "Galp Power",
    "parking:fee": "no",
    "phone": "+351 800 249 249",
    "ref": "VRS-00002",
    "socket:type2": "2",
    "socket:type2:current": "32",
    "socket:type2:output": "22kW",
    "socket:type2:voltage": "400",
    "website": "https://www.mobie.pt"
  }
},
{
  "type": "node",
  "id": 8270360530,
  "lat": 37.7465023,
  "lon": -25.2457184,
  "tags": {
    "access": "yes",
    "addr:country": "PT",
    "authentication:membership_card": "yes",
    "authentication:none": "no",
    "capacity": "2",
    "construction:amenity": "charging_station",
    "fee": "yes",
    "motorcar": "yes",
    "name": "PVC-XXXXX",
    "network": "Mobi.E",
    "opening_hours": "24/7",
    "operator": "Mobi.E",
    "parking:fee": "no",
    "ref": "PVC-XXXXX",
    "socket:type2": "2",
    "socket:type2:current": "32",
    "socket:type2:output": "22kW",
    "socket:type2:voltage": "400",
    "website": "https://www.mobie.pt"
  }
},
{
  "type": "node",
  "id": 8279648612,
  "lat": 38.6624293,
  "lon": -9.1633084,
  "tags": {
    "access": "yes",
    "addr:country": "PT",
    "authentication:membership_card": "yes",
    "authentication:none": "no",
    "capacity": "2",
    "construction:amenity": "charging_station",
    "email": "mobilidade-eletrica@edp.pt",
    "fee": "yes",
    "motorcar": "yes",
    "name": "ALM-00039 - McDonalds",
    "network": "Mobi.E",
    "opening_hours": "24/7",
    "operator": "EDP Comercial",
    "parking:fee": "no",
    "phone": "+351 800 222 222",
    "ref": "ALM-00039",
    "socket:type2": "2",
    "socket:type2:current": "32",
    "socket:type2:output": "22kW",
    "socket:type2:voltage": "400",
    "website": "https://www.mobie.pt"
  }
},
{
  "type": "node",
  "id": 8280527327,
  "lat": 38.6772570,
  "lon": -8.4552374,
  "tags": {
    "access": "yes",
    "addr:country": "PT",
    "authentication:membership_card": "yes",
    "authentication:none": "no",
    "capacity": "2",
    "construction:amenity": "charging_station",
    "email": "mobilidade.electricacrc@galp.com",
    "fee": "yes",
    "motorcar": "yes",
    "name": "VND-00001",
    "network": "Mobi.E",
    "opening_hours": "24/7",
    "operator": "Galp Power",
    "parking:fee": "no",
    "phone": "+351 800 249 249",
    "ref": "VND-00001",
    "socket:type2": "2",
    "socket:type2:current": "32",
    "socket:type2:output": "22kW",
    "socket:type2:voltage": "400",
    "website": "https://www.mobie.pt"
  }
},
{
  "type": "node",
  "id": 8286317371,
  "lat": 40.5722778,
  "lon": -8.4430368,
  "tags": {
    "access": "yes",
    "addr:country": "PT",
    "authentication:membership_card": "yes",
    "authentication:none": "no",
    "capacity": "2",
    "construction:amenity": "charging_station",
    "email": "mobilidade.electricacrc@galp.com",
    "fee": "yes",
    "motorcar": "yes",
    "name": "AGD-00004",
    "network": "Mobi.E",
    "opening_hours": "24/7",
    "operator": "Galp Power",
    "parking:fee": "no",
    "phone": "+351 800 249 249",
    "ref": "AGD-00004",
    "socket:type2": "2",
    "socket:type2:current": "32",
    "socket:type2:output": "22kW",
    "socket:type2:voltage": "400",
    "website": "https://www.mobie.pt"
  }
},
{
  "type": "node",
  "id": 8286363089,
  "lat": 40.6504095,
  "lon": -8.6147833,
  "tags": {
    "access": "yes",
    "addr:country": "PT",
    "authentication:membership_card": "yes",
    "authentication:none": "no",
    "capacity": "2",
    "construction:amenity": "charging_station",
    "email": "ajuda@powerdot.pt",
    "fee": "yes",
    "motorcar": "yes",
    "name": "AVR-00011",
    "network": "Mobi.E",
    "opening_hours": "24/7",
    "operator": "Powerdot",
    "parking:fee": "no",
    "phone": "+351 800 180 292",
    "ref": "AVR-00011",
    "socket:type2": "2",
    "socket:type2:current": "32",
    "socket:type2:output": "22kW",
    "socket:type2:voltage": "400",
    "website": "https://www.mobie.pt"
  }
},
{
  "type": "node",
  "id": 8286412765,
  "lat": 40.6630482,
  "lon": -8.6121601,
  "tags": {
    "access": "yes",
    "addr:city": "Aveiro",
    "addr:country": "PT",
    "authentication:membership_card": "yes",
    "authentication:none": "no",
    "capacity": "2",
    "construction:amenity": "charging_station",
    "email": "apoio.cliente@kmlowcost.com",
    "fee": "yes",
    "motorcar": "yes",
    "name": "AVR-00013 - Lidl",
    "network": "Mobi.E",
    "opening_hours": "24/7",
    "operator": "KLC",
    "parking:fee": "no",
    "phone": "+351 800 296 929",
    "ref": "AVR-00013",
    "socket:chademo": "1",
    "socket:chademo:current": "120",
    "socket:chademo:output": "50kW",
    "socket:chademo:voltage": "500",
    "socket:type2_cable": "1",
    "socket:type2_cable:current": "63",
    "socket:type2_cable:output": "43kW",
    "socket:type2_cable:voltage": "400",
    "socket:type2_combo": "1",
    "socket:type2_combo:current": "125",
    "socket:type2_combo:output": "50kW",
    "socket:type2_combo:voltage": "500",
    "website": "https://www.mobie.pt"
  }
},
{
  "type": "node",
  "id": 8287579559,
  "lat": 40.9577399,
  "lon": -7.2613446,
  "tags": {
    "access": "yes",
    "addr:country": "PT",
    "authentication:membership_card": "yes",
    "authentication:none": "no",
    "capacity": "2",
    "construction:amenity": "charging_station",
    "email": "mobilidade-eletrica@edp.pt",
    "fee": "yes",
    "motorcar": "yes",
    "name": "MED-00002 - Intermarché",
    "network": "Mobi.E",
    "opening_hours": "24/7",
    "operator": "EDP Comercial",
    "parking:fee": "no",
    "phone": "+351 800 222 222",
    "ref": "MED-00002",
    "socket:type2": "2",
    "socket:type2:current": "32",
    "socket:type2:output": "22kW",
    "socket:type2:voltage": "400",
    "website": "https://www.mobie.pt"
  }
},
{
  "type": "node",
  "id": 8289259774,
  "lat": 38.2116845,
  "lon": -7.8020817,
  "tags": {
    "access": "yes",
    "addr:country": "PT",
    "amenity": "charging_station",
    "authentication:membership_card": "yes",
    "authentication:none": "no",
    "capacity": "2",
    "construction:amenity": "charging_station",
    "email": "ajuda@powerdot.pt",
    "fee": "yes",
    "motorcar": "yes",
    "name": "VDG-00001",
    "network": "Mobi.E",
    "opening_hours": "24/7",
    "operator": "Powerdot",
    "parking:fee": "no",
    "phone": "+351 800 180 292",
    "ref": "VDG-90001",
    "socket:type2": "2",
    "socket:type2:current": "32",
    "socket:type2:output": "22kW",
    "socket:type2:voltage": "400",
    "website": "https://www.mobie.pt"
  }
},
{
  "type": "node",
  "id": 8289337270,
  "lat": 38.6570002,
  "lon": -9.0674999,
  "tags": {
    "access": "yes",
    "addr:country": "PT",
    "authentication:membership_card": "yes",
    "authentication:none": "no",
    "capacity": "2",
    "construction:amenity": "charging_station",
    "email": "mobilidade-eletrica@edp.pt",
    "fee": "yes",
    "motorcar": "yes",
    "name": "BRR-00001",
    "network": "Mobi.E",
    "opening_hours": "24/7",
    "operator": "EDP Comercial",
    "parking:fee": "no",
    "phone": "+351 800 222 222",
    "ref": "BRR-00001",
    "socket:type2": "2",
    "socket:type2:current": "32",
    "socket:type2:output": "22kW",
    "socket:type2:voltage": "400",
    "website": "https://www.mobie.pt"
  }
},
{
  "type": "node",
  "id": 8289337323,
  "lat": 38.6363872,
  "lon": -9.1024156,
  "tags": {
    "access": "yes",
    "addr:country": "PT",
    "authentication:membership_card": "yes",
    "authentication:none": "no",
    "capacity": "2",
    "construction:amenity": "charging_station",
    "email": "ajuda@powerdot.pt",
    "fee": "yes",
    "motorcar": "yes",
    "name": "SXL-00001",
    "network": "Mobi.E",
    "opening_hours": "24/7",
    "operator": "Powerdot",
    "parking:fee": "no",
    "phone": "+351 800 180 292",
    "ref": "SXL-00001",
    "socket:type2": "2",
    "socket:type2:current": "32",
    "socket:type2:output": "22kW",
    "socket:type2:voltage": "400",
    "website": "https://www.mobie.pt"
  }
},
{
  "type": "node",
  "id": 8289959235,
  "lat": 39.4159178,
  "lon": -7.4559174,
  "tags": {
    "access": "yes",
    "addr:country": "PT",
    "authentication:membership_card": "yes",
    "authentication:none": "no",
    "capacity": "2",
    "construction:amenity": "charging_station",
    "email": "suporte@evpower.pt",
    "fee": "yes",
    "motorcar": "yes",
    "name": "CVD-00002",
    "network": "Mobi.E",
    "opening_hours": "24/7",
    "operator": "EV Power",
    "parking:fee": "no",
    "phone": "+351 800 254 565",
    "ref": "CVD-00002",
    "socket:type2": "2",
    "socket:type2:current": "16",
    "socket:type2:output": "11kW",
    "socket:type2:voltage": "400",
    "website": "https://www.mobie.pt"
  }
},
{
  "type": "node",
  "id": 8294833213,
  "lat": 38.7257985,
  "lon": -9.2418321,
  "tags": {
    "access": "yes",
    "addr:country": "PT",
    "authentication:membership_card": "yes",
    "authentication:none": "no",
    "capacity": "1",
    "construction:amenity": "charging_station",
    "fee": "yes",
    "motorcar": "yes",
    "name": "OER-XXXXX",
    "network": "Mobi.E",
    "opening_hours": "24/7",
    "operator": "unknown",
    "parking:fee": "no",
    "ref": "OER-XXXXX",
    "socket:type2": "1",
    "socket:type2:current": "32",
    "socket:type2:output": "22kW",
    "socket:type2:voltage": "400",
    "website": "https://www.mobie.pt"
  }
},
{
  "type": "node",
  "id": 8298190295,
  "lat": 38.7600810,
  "lon": -9.1824433,
  "tags": {
    "access": "yes",
    "addr:country": "PT",
    "authentication:membership_card": "yes",
    "authentication:none": "no",
    "capacity": "2",
    "construction:amenity": "charging_station",
    "email": "apoio.cliente@kmlowcost.com",
    "fee": "yes",
    "motorcar": "yes",
    "name": "LSB-00026",
    "network": "Mobi.E",
    "opening_hours": "24/7",
    "operator": "KLC",
    "parking:fee": "no",
    "phone": "+351 800 296 929",
    "ref": "LSB-90026",
    "socket:type2": "2",
    "socket:type2:current": "32",
    "socket:type2:output": "22kW",
    "socket:type2:voltage": "400",
    "website": "https://www.mobie.pt"
  }
},
{
  "type": "node",
  "id": 8301187795,
  "lat": 38.7212550,
  "lon": -9.1610406,
  "tags": {
    "access": "customers",
    "addr:country": "PT",
    "authentication:membership_card": "yes",
    "authentication:none": "no",
    "capacity": "1",
    "construction:amenity": "charging_station",
    "email": "ajuda@powerdot.pt",
    "fee": "yes",
    "motorcar": "yes",
    "name": "LSB-00220",
    "network": "Mobi.E",
    "opening_hours": "24/7",
    "operator": "Powerdot",
    "parking:fee": "no",
    "phone": "+351 800 180 292",
    "ref": "LSB-00220",
    "socket:type2": "1",
    "socket:type2:current": "32",
    "socket:type2:output": "7.4kW",
    "socket:type2:voltage": "230",
    "website": "https://www.mobie.pt"
  }
},
{
  "type": "node",
  "id": 8308913922,
  "lat": 38.7107428,
  "lon": -9.2998356,
  "tags": {
    "access": "customers",
    "addr:country": "PT",
    "authentication:membership_card": "yes",
    "authentication:none": "no",
    "capacity": "9",
    "construction:amenity": "charging_station",
    "email": "apoio.cliente@kmlowcost.com",
    "fee": "yes",
    "motorcar": "yes",
    "name": "OER-00046/47/48/49/50/51/52/53/54",
    "network": "Mobi.E",
    "opening_hours": "24/7",
    "operator": "KLC",
    "parking:fee": "no",
    "phone": "+351 800 296 929",
    "ref": "OER-00046;OER-00047;OER-00048;OER-00049;OER-00050;OER-00051;OER-00052;OER-00053;OER-00054",
    "socket:type2": "9",
    "socket:type2:current": "32",
    "socket:type2:output": "22kW",
    "socket:type2:voltage": "400",
    "website": "https://www.mobie.pt"
  }
},
{
  "type": "node",
  "id": 8308930719,
  "lat": 38.7440383,
  "lon": -9.2671663,
  "tags": {
    "access": "yes",
    "addr:country": "PT",
    "authentication:membership_card": "yes",
    "authentication:none": "no",
    "capacity": "1",
    "construction:amenity": "charging_station",
    "fee": "yes",
    "name": "OER-XXXXX",
    "network": "unknown",
    "opening_hours": "24/7",
    "operator": "unknown",
    "parking:fee": "no",
    "ref": "OER-XXXXX",
    "socket:type2": "1",
    "socket:type2:current": "32",
    "socket:type2:output": "22kW",
    "socket:type2:voltage": "400"
  }
},
{
  "type": "node",
  "id": 8308938783,
  "lat": 38.7138037,
  "lon": -9.2260480,
  "tags": {
    "access": "yes",
    "addr:country": "PT",
    "authentication:membership_card": "yes",
    "authentication:none": "no",
    "capacity": "1",
    "construction:amenity": "charging_station",
    "fee": "yes",
    "name": "OER-XXXXX",
    "network": "unknown",
    "opening_hours": "24/7",
    "operator": "unknown",
    "parking:fee": "no",
    "ref": "OER-XXXXX",
    "socket:type2": "1",
    "socket:type2:current": "32",
    "socket:type2:output": "22kW",
    "socket:type2:voltage": "400"
  }
},
{
  "type": "node",
  "id": 8308978354,
  "lat": 38.7595168,
  "lon": -9.1585348,
  "tags": {
    "access": "yes",
    "addr:country": "PT",
    "authentication:membership_card": "yes",
    "authentication:none": "no",
    "capacity": "4",
    "construction:amenity": "charging_station",
    "email": "mobilidade-eletrica@edp.pt",
    "fee": "yes",
    "location": "underground",
    "motorcar": "yes",
    "name": "LSB-XXXXX - Parque Estacionamento SABA Campo Grande",
    "network": "Mobi.E",
    "opening_hours": "24/7",
    "operator": "EDP Comercial",
    "parking:fee": "yes",
    "phone": "+351 800 222 222",
    "ref": "LSB-XXXXX",
    "socket:type2": "4",
    "socket:type2:current": "32",
    "socket:type2:output": "7.4kW",
    "socket:type2:voltage": "230",
    "website": "https://www.mobie.pt"
  }
},
{
  "type": "node",
  "id": 8309422368,
  "lat": 40.6461826,
  "lon": -8.7318634,
  "tags": {
    "access": "yes",
    "addr:country": "PT",
    "authentication:membership_card": "yes",
    "authentication:none": "no",
    "capacity": "10",
    "construction:amenity": "charging_station",
    "fee": "yes",
    "motorcar": "yes",
    "name": "ILH-XXXXX",
    "network": "Mobi.E",
    "opening_hours": "24/7",
    "operator": "unknown",
    "parking:fee": "no",
    "ref": "ILH-XXXXX",
    "socket:type2": "10",
    "socket:type2:current": "32",
    "socket:type2:output": "22kW",
    "socket:type2:voltage": "400",
    "website": "https://www.mobie.pt"
  }
},
{
  "type": "node",
  "id": 8309447898,
  "lat": 40.4752531,
  "lon": -8.6704832,
  "tags": {
    "access": "yes",
    "addr:country": "PT",
    "authentication:membership_card": "yes",
    "authentication:none": "no",
    "capacity": "2",
    "construction:amenity": "charging_station",
    "email": "ajuda@powerdot.pt",
    "fee": "yes",
    "motorcar": "yes",
    "name": "VGS-00002",
    "network": "Mobi.E",
    "opening_hours": "24/7",
    "operator": "Powerdot",
    "parking:fee": "no",
    "phone": "+351 800 180 292",
    "ref": "VGS-00002",
    "socket:type2": "2",
    "socket:type2:current": "32",
    "socket:type2:output": "22kW",
    "socket:type2:voltage": "400",
    "website": "https://www.mobie.pt"
  }
},
{
  "type": "node",
  "id": 8309476991,
  "lat": 41.1589572,
  "lon": -8.6302495,
  "tags": {
    "access": "yes",
    "addr:country": "PT",
    "authentication:membership_card": "yes",
    "authentication:none": "no",
    "capacity": "6",
    "construction:amenity": "charging_station",
    "email": "mobilidade-eletrica@edp.pt",
    "fee": "yes",
    "location": "underground",
    "motorcar": "yes",
    "name": "PRT-00040/41/42 - Parque Estacionamento SABA Casa da Música",
    "network": "Mobi.E",
    "opening_hours": "24/7",
    "operator": "EDP Comercial",
    "parking:fee": "yes",
    "phone": "+351 800 222 222",
    "ref": "PRT-00040;PRT-00041;PRT-00042",
    "socket:type2": "6",
    "socket:type2:current": "32",
    "socket:type2:output": "22kW",
    "socket:type2:voltage": "400",
    "website": "https://www.mobie.pt"
  }
},
{
  "type": "node",
  "id": 8309480651,
  "lat": 41.0422458,
  "lon": -8.6322203,
  "tags": {
    "access": "yes",
    "addr:country": "PT",
    "authentication:membership_card": "yes",
    "authentication:none": "no",
    "capacity": "2",
    "construction:amenity": "charging_station",
    "fee": "yes",
    "motorcar": "yes",
    "name": "VNG-XXXXX - Intermarché",
    "network": "Mobi.E",
    "opening_hours": "24/7",
    "operator": "unknown",
    "parking:fee": "no",
    "ref": "VNG-XXXXX",
    "socket:type2": "2",
    "socket:type2:current": "32",
    "socket:type2:output": "22kW",
    "socket:type2:voltage": "400",
    "website": "https://www.mobie.pt"
  }
},
{
  "type": "node",
  "id": 8309551644,
  "lat": 41.2675506,
  "lon": -8.0735417,
  "tags": {
    "access": "yes",
    "addr:country": "PT",
    "authentication:membership_card": "yes",
    "authentication:none": "no",
    "capacity": "2",
    "construction:amenity": "charging_station",
    "email": "apoio.cliente@kmlowcost.com",
    "fee": "yes",
    "motorcar": "yes",
    "name": "AMT-00002",
    "network": "Mobi.E",
    "opening_hours": "24/7",
    "operator": "KLC",
    "parking:fee": "no",
    "phone": "+351 800 296 929",
    "ref": "AMT-00002",
    "socket:type2": "2",
    "socket:type2:current": "32",
    "socket:type2:output": "22kW",
    "socket:type2:voltage": "400",
    "website": "https://www.mobie.pt"
  }
},
{
  "type": "node",
  "id": 8309572509,
  "lat": 41.3499197,
  "lon": -8.7476680,
  "tags": {
    "access": "yes",
    "addr:country": "PT",
    "authentication:membership_card": "yes",
    "authentication:none": "no",
    "capacity": "2",
    "construction:amenity": "charging_station",
    "email": "mobilidade-eletrica@edp.pt",
    "fee": "yes",
    "motorcar": "yes",
    "name": "VCD-00004",
    "network": "Mobi.E",
    "opening_hours": "24/7",
    "operator": "EDP Comercial",
    "parking:fee": "no",
    "phone": "+351 800 222 222",
    "ref": "VCD-00004",
    "socket:type2": "2",
    "socket:type2:current": "32",
    "socket:type2:output": "22kW",
    "socket:type2:voltage": "400",
    "website": "https://www.mobie.pt"
  }
},
{
  "type": "node",
  "id": 8313020065,
  "lat": 42.0269535,
  "lon": -8.6410341,
  "tags": {
    "access": "yes",
    "addr:country": "PT",
    "authentication:membership_card": "yes",
    "authentication:none": "no",
    "capacity": "2",
    "construction:amenity": "charging_station",
    "email": "mobilidade.electricacrc@galp.com",
    "fee": "yes",
    "motorcar": "yes",
    "name": "VLN-00002",
    "network": "Mobi.E",
    "opening_hours": "24/7",
    "operator": "Galp Power",
    "parking:fee": "no",
    "phone": "+351 800 249 249",
    "ref": "VLN-00002",
    "socket:type2": "2",
    "socket:type2:current": "32",
    "socket:type2:output": "22kW",
    "socket:type2:voltage": "400",
    "website": "https://www.mobie.pt"
  }
},
{
  "type": "node",
  "id": 8313046071,
  "lat": 41.8773594,
  "lon": -8.8372977,
  "tags": {
    "access": "yes",
    "addr:country": "PT",
    "authentication:membership_card": "yes",
    "authentication:none": "no",
    "capacity": "2",
    "construction:amenity": "charging_station",
    "email": "mobilidade-eletrica@edp.pt",
    "fee": "yes",
    "motorcar": "yes",
    "name": "CMN-00001",
    "network": "Mobi.E",
    "opening_hours": "24/7",
    "operator": "EDP Comercial",
    "parking:fee": "no",
    "phone": "+351 800 222 222",
    "ref": "CMN-00001",
    "socket:type2": "2",
    "socket:type2:current": "32",
    "socket:type2:output": "22kW",
    "socket:type2:voltage": "400",
    "website": "https://www.mobie.pt"
  }
},
{
  "type": "node",
  "id": 8322482750,
  "lat": 41.1945167,
  "lon": -8.2970729,
  "tags": {
    "access": "yes",
    "addr:city": "Penafiel",
    "addr:country": "PT",
    "authentication:membership_card": "yes",
    "authentication:none": "no",
    "capacity": "2",
    "construction:amenity": "charging_station",
    "email": "mobilidade.electricacrc@galp.com",
    "fee": "yes",
    "motorcar": "yes",
    "name": "PNF-00009",
    "network": "Mobi.E",
    "opening_hours": "24/7",
    "operator": "Galp Power",
    "parking:fee": "no",
    "phone": "+351 800 249 249",
    "ref": "PNF-00009",
    "socket:chademo": "1",
    "socket:chademo:current": "120",
    "socket:chademo:output": "50kW",
    "socket:chademo:voltage": "500",
    "socket:type2_cable": "1",
    "socket:type2_cable:current": "63",
    "socket:type2_cable:output": "43kW",
    "socket:type2_cable:voltage": "400",
    "socket:type2_combo": "1",
    "socket:type2_combo:current": "125",
    "socket:type2_combo:output": "50kW",
    "socket:type2_combo:voltage": "500",
    "website": "https://www.mobie.pt"
  }
},
{
  "type": "node",
  "id": 8362478493,
  "lat": 33.0572787,
  "lon": -16.3388700,
  "tags": {
    "access": "yes",
    "addr:country": "PT",
    "authentication:membership_card": "yes",
    "authentication:none": "no",
    "capacity": "2",
    "construction:amenity": "charging_station",
    "fee": "yes",
    "motorcar": "yes",
    "name": "PST-XXXXX",
    "network": "Mobi.E",
    "opening_hours": "24/7",
    "operator": "Mobi.E",
    "parking:fee": "no",
    "ref": "PST-XXXXX",
    "socket:type2": "2",
    "socket:type2:current": "32",
    "socket:type2:output": "7.4kW",
    "socket:type2:voltage": "230",
    "website": "https://www.mobie.pt"
  }
},
{
  "type": "node",
  "id": 8362638399,
  "lat": 39.7489263,
  "lon": -8.8052275,
  "tags": {
    "access": "yes",
    "addr:country": "PT",
    "authentication:membership_card": "yes",
    "authentication:none": "no",
    "capacity": "3",
    "construction:amenity": "charging_station",
    "email": "ev_portugal@maksu.com",
    "fee": "yes",
    "motorcar": "yes",
    "name": "LRA-00025/26/27 - Parque Estacionamento Maringá",
    "network": "Mobi.E",
    "opening_hours": "24/7",
    "operator": "Maksu Services",
    "parking:fee": "yes",
    "phone": "+351 800 910 124",
    "ref": "LRA-00025;LRA-00026;LRA-00027",
    "socket:type2": "3",
    "socket:type2:current": "32",
    "socket:type2:output": "22kW",
    "socket:type2:voltage": "400",
    "website": "https://www.mobie.pt"
  }
},
{
  "type": "node",
  "id": 8379189409,
  "lat": 37.0745274,
  "lon": -8.1233422,
  "tags": {
    "access": "yes",
    "addr:country": "PT",
    "authentication:membership_card": "yes",
    "authentication:none": "no",
    "capacity": "2",
    "construction:amenity": "charging_station",
    "email": "suporte@evpower.pt",
    "fee": "yes",
    "motorcar": "yes",
    "name": "LLE-XXXXX",
    "network": "Mobi.E",
    "opening_hours": "24/7",
    "operator": "EV Power",
    "parking:fee": "no",
    "phone": "+351 800 254 565",
    "ref": "LLE-XXXXX",
    "socket:type2": "2",
    "socket:type2:current": "32",
    "socket:type2:output": "22kW",
    "socket:type2:voltage": "400",
    "website": "https://www.mobie.pt"
  }
},
{
  "type": "node",
  "id": 8379226900,
  "lat": 38.8923021,
  "lon": -9.0446596,
  "tags": {
    "access": "yes",
    "addr:city": "Alverca do Ribatejo",
    "addr:country": "PT",
    "authentication:membership_card": "yes",
    "authentication:none": "no",
    "capacity": "2",
    "construction:amenity": "charging_station",
    "email": "mobilidade.electricacrc@galp.com",
    "fee": "yes",
    "motorcar": "yes",
    "name": "VFX-XXXXX",
    "network": "Mobi.E",
    "opening_hours": "24/7",
    "operator": "Galp Power",
    "parking:fee": "no",
    "phone": "+351 800 249 249",
    "ref": "VFX-XXXXX",
    "socket:chademo": "1",
    "socket:chademo:current": "120",
    "socket:chademo:output": "50kW",
    "socket:chademo:voltage": "500",
    "socket:type2_cable": "1",
    "socket:type2_cable:current": "63",
    "socket:type2_cable:output": "43kW",
    "socket:type2_cable:voltage": "400",
    "socket:type2_combo": "1",
    "socket:type2_combo:current": "125",
    "socket:type2_combo:output": "50kW",
    "socket:type2_combo:voltage": "500",
    "website": "https://www.mobie.pt"
  }
},
{
  "type": "node",
  "id": 8385455670,
  "lat": 38.7447161,
  "lon": -9.3041217,
  "tags": {
    "access": "yes",
    "addr:city": "Porto Salvo",
    "addr:country": "PT",
    "authentication:membership_card": "yes",
    "authentication:none": "no",
    "capacity": "1",
    "construction:amenity": "charging_station",
    "email": "suporte@mobiletric.com",
    "fee": "yes",
    "motorcar": "yes",
    "name": "OER-00088 - Tagus Park",
    "network": "Mobi.E",
    "opening_hours": "24/7",
    "operator": "Mobiletric",
    "parking:fee": "no",
    "phone": "+351 800 210 204",
    "ref": "OER-00088",
    "socket:chademo": "1",
    "socket:chademo:current": "120",
    "socket:chademo:output": "50kW",
    "socket:chademo:voltage": "500",
    "socket:type2_combo": "1",
    "socket:type2_combo:current": "350",
    "socket:type2_combo:output": "160kW",
    "socket:type2_combo:voltage": "920",
    "website": "https://www.mobie.pt"
  }
},
{
  "type": "node",
  "id": 8385464249,
  "lat": 38.7263169,
  "lon": -9.2430559,
  "tags": {
    "access": "yes",
    "addr:city": "Carnaxide",
    "addr:country": "PT",
    "authentication:membership_card": "yes",
    "authentication:none": "no",
    "capacity": "1",
    "construction:amenity": "charging_station",
    "email": "suporte@mobiletric.com",
    "fee": "yes",
    "motorcar": "yes",
    "name": "OER-00089 - Centro Cívico de Carnaxide",
    "network": "Mobi.E",
    "opening_hours": "24/7",
    "operator": "Mobiletric",
    "parking:fee": "no",
    "phone": "+351 800 210 204",
    "ref": "OER-00089",
    "socket:chademo": "1",
    "socket:chademo:current": "120",
    "socket:chademo:output": "50kW",
    "socket:chademo:voltage": "500",
    "socket:type2_combo": "1",
    "socket:type2_combo:current": "350",
    "socket:type2_combo:output": "160kW",
    "socket:type2_combo:voltage": "920",
    "website": "https://www.mobie.pt"
  }
},
{
  "type": "node",
  "id": 8385478021,
  "lat": 38.6870858,
  "lon": -9.3122870,
  "tags": {
    "access": "yes",
    "addr:country": "PT",
    "addr:street": "Avenida do Brasil",
    "authentication:membership_card": "yes",
    "authentication:none": "no",
    "capacity": "2",
    "construction:amenity": "charging_station",
    "email": "suporte@mobiletric.com",
    "fee": "yes",
    "motorcar": "yes",
    "name": "OER-XXXXX - Estação de Santo Amaro de Oeiras",
    "network": "Mobi.E",
    "opening_hours": "24/7",
    "operator": "Mobiletric",
    "parking:fee": "no",
    "phone": "+351 800 210 204",
    "ref": "OER-XXXXX",
    "socket:chademo": "1",
    "socket:chademo:current": "120",
    "socket:chademo:output": "50kW",
    "socket:chademo:voltage": "500",
    "socket:type2_cable": "1",
    "socket:type2_cable:current": "63",
    "socket:type2_cable:output": "43kW",
    "socket:type2_cable:voltage": "400",
    "socket:type2_combo": "1",
    "socket:type2_combo:current": "125",
    "socket:type2_combo:output": "50kW",
    "socket:type2_combo:voltage": "500",
    "website": "https://www.mobie.pt"
  }
},
{
  "type": "node",
  "id": 8397159084,
  "lat": 38.7711895,
  "lon": -9.1261813,
  "tags": {
    "access": "yes",
    "addr:country": "PT",
    "authentication:membership_card": "yes",
    "authentication:none": "no",
    "capacity": "6",
    "construction:amenity": "charging_station",
    "email": "mobilidade.electricacrc@galp.com",
    "fee": "yes",
    "motorcar": "yes",
    "name": "LSB-00347/348/349 - Aeroporto Parque P6",
    "network": "Mobi.E",
    "opening_hours": "24/7",
    "operator": "Galp Power",
    "parking:fee": "no",
    "phone": "+351 800 249 249",
    "ref": "LSB-00347;LSB-00348;LSB-00349",
    "socket:type2": "6",
    "socket:type2:current": "16",
    "socket:type2:output": "3.7kW",
    "socket:type2:voltage": "230",
    "website": "https://www.mobie.pt"
  }
},
{
  "type": "node",
  "id": 8397159085,
  "lat": 38.7710909,
  "lon": -9.1283083,
  "tags": {
    "access": "yes",
    "addr:country": "PT",
    "authentication:membership_card": "yes",
    "authentication:none": "no",
    "capacity": "4",
    "construction:amenity": "charging_station",
    "email": "mobilidade.electricacrc@galp.com",
    "fee": "yes",
    "motorcar": "yes",
    "name": "LSB-00341/342 - Aeroporto Parque P2",
    "network": "Mobi.E",
    "opening_hours": "24/7",
    "operator": "Galp Power",
    "parking:fee": "no",
    "phone": "+351 800 249 249",
    "ref": "LSB-00341;LSB-00342",
    "socket:type2": "4",
    "socket:type2:current": "32",
    "socket:type2:output": "22kW",
    "socket:type2:voltage": "400",
    "website": "https://www.mobie.pt"
  }
},
{
  "type": "node",
  "id": 8397185634,
  "lat": 39.5190138,
  "lon": -8.6882021,
  "tags": {
    "access": "yes",
    "addr:country": "PT",
    "authentication:membership_card": "yes",
    "authentication:none": "no",
    "capacity": "2",
    "construction:amenity": "charging_station",
    "email": "suporte@mobiletric.com",
    "fee": "yes",
    "motorcar": "yes",
    "name": "ACN-00003 - Intermarché",
    "network": "Mobi.E",
    "opening_hours": "24/7",
    "operator": "Mobiletric",
    "parking:fee": "no",
    "phone": "+351 800 210 204",
    "ref": "ACN-00003",
    "socket:type2": "2",
    "socket:type2:current": "32",
    "socket:type2:output": "22kW",
    "socket:type2:voltage": "400",
    "website": "https://www.mobie.pt"
  }
},
{
  "type": "node",
  "id": 8397323490,
  "lat": 40.5778264,
  "lon": -8.4463915,
  "tags": {
    "access": "yes",
    "addr:country": "PT",
    "authentication:membership_card": "yes",
    "authentication:none": "no",
    "capacity": "2",
    "construction:amenity": "charging_station",
    "fee": "yes",
    "motorcar": "yes",
    "name": "AGD-00003",
    "network": "Mobi.E",
    "opening_hours": "24/7",
    "operator": "sunenergy",
    "parking:fee": "no",
    "ref": "AGD-00003",
    "socket:type2": "2",
    "socket:type2:current": "32",
    "socket:type2:output": "22kW",
    "socket:type2:voltage": "400",
    "website": "https://www.mobie.pt"
  }
},
{
  "type": "node",
  "id": 8399410969,
  "lat": 40.4207894,
  "lon": -7.7043477,
  "tags": {
    "access": "yes",
    "addr:country": "PT",
    "authentication:membership_card": "yes",
    "authentication:none": "no",
    "capacity": "2",
    "construction:amenity": "charging_station",
    "email": "ajuda@powerdot.pt",
    "fee": "yes",
    "motorcar": "yes",
    "name": "SEI-00001",
    "network": "Mobi.E",
    "opening_hours": "24/7",
    "operator": "Powerdot",
    "parking:fee": "no",
    "phone": "+351 800 180 292",
    "ref": "SEI-00001",
    "socket:type2": "2",
    "socket:type2:current": "32",
    "socket:type2:output": "22kW",
    "socket:type2:voltage": "400",
    "website": "https://www.mobie.pt"
  }
},
{
  "type": "node",
  "id": 8406136876,
  "lat": 40.6438683,
  "lon": -7.3870584,
  "tags": {
    "access": "yes",
    "addr:country": "PT",
    "authentication:membership_card": "yes",
    "authentication:none": "no",
    "capacity": "2",
    "construction:amenity": "charging_station",
    "email": "mobilidade-eletrica@edp.pt",
    "fee": "yes",
    "motorcar": "yes",
    "name": "CLB-00008 - Intermarché",
    "network": "Mobi.E",
    "opening_hours": "24/7",
    "operator": "EDP Comercial",
    "parking:fee": "no",
    "phone": "+351 800 222 222",
    "ref": "CLB-00008",
    "socket:type2": "2",
    "socket:type2:current": "32",
    "socket:type2:output": "22kW",
    "socket:type2:voltage": "400",
    "website": "https://www.mobie.pt"
  }
},
{
  "type": "node",
  "id": 8408172093,
  "lat": 41.3434760,
  "lon": -8.5569530,
  "tags": {
    "access": "yes",
    "addr:city": "Trofa",
    "addr:country": "PT",
    "addr:street": "Rua Dom Pedro V",
    "authentication:membership_card": "yes",
    "authentication:none": "no",
    "capacity": "2",
    "construction:amenity": "charging_station",
    "email": "mobilidade.electricacrc@galp.com",
    "fee": "yes",
    "motorcar": "yes",
    "name": "TRF-XXXXX",
    "network": "Mobi.E",
    "opening_hours": "24/7",
    "operator": "Galp Geste",
    "parking:fee": "no",
    "phone": "+351 800 249 249",
    "ref": "TRF-XXXXX",
    "socket:chademo": "1",
    "socket:chademo:current": "120",
    "socket:chademo:output": "50kW",
    "socket:chademo:voltage": "500",
    "socket:type2_cable": "1",
    "socket:type2_cable:current": "63",
    "socket:type2_cable:output": "43kW",
    "socket:type2_cable:voltage": "400",
    "socket:type2_combo": "1",
    "socket:type2_combo:current": "125",
    "socket:type2_combo:output": "50kW",
    "socket:type2_combo:voltage": "500",
    "website": "https://www.mobie.pt"
  }
},
{
  "type": "node",
  "id": 8413309492,
  "lat": 41.2081822,
  "lon": -8.6883456,
  "tags": {
    "access": "customers",
    "addr:country": "PT",
    "amenity:wikipedia": "en:Tesla Supercharger",
    "authentication:none": "no",
    "brand": "Tesla Supercharger",
    "brand:wikidata": "Q17089620",
    "brand:wikipedia": "en:Tesla Supercharger",
    "capacity": "12",
    "construction:amenity": "charging_station",
    "fee": "yes",
    "motorcar": "yes",
    "name": "Matosinhos Supercharger",
    "network": "Tesla",
    "note": "V3",
    "opening_hours": "24/7",
    "operator": "Tesla",
    "parking:fee": "no",
    "socket:tesla_supercharger_ccs": "12",
    "socket:tesla_supercharger_ccs:output": "250 kW"
  }
},
{
  "type": "node",
  "id": 8440779645,
  "lat": 41.5680899,
  "lon": -8.3815620,
  "tags": {
    "access": "yes",
    "addr:city": "Braga",
    "addr:country": "PT",
    "addr:street": "Rua Infante Dom Henrique",
    "authentication:membership_card": "yes",
    "authentication:none": "no",
    "capacity": "2",
    "construction:amenity": "charging_station",
    "email": "ajuda@powerdot.pt",
    "fee": "yes",
    "motorcar": "yes",
    "name": "BRG-00028",
    "network": "Mobi.E",
    "opening_hours": "24/7",
    "operator": "Powerdot",
    "parking:fee": "no",
    "phone": "+351 800 180 292",
    "ref": "BRG-00028",
    "socket:chademo": "1",
    "socket:chademo:current": "120",
    "socket:chademo:output": "50kW",
    "socket:chademo:voltage": "500",
    "socket:type2_cable": "1",
    "socket:type2_cable:current": "63",
    "socket:type2_cable:output": "43kW",
    "socket:type2_cable:voltage": "400",
    "socket:type2_combo": "1",
    "socket:type2_combo:current": "125",
    "socket:type2_combo:output": "50kW",
    "socket:type2_combo:voltage": "500",
    "website": "https://www.mobie.pt"
  }
},
{
  "type": "node",
  "id": 8445321004,
  "lat": 38.7823546,
  "lon": -9.1932707,
  "tags": {
    "access": "yes",
    "addr:city": "Odivelas",
    "addr:country": "PT",
    "authentication:membership_card": "yes",
    "authentication:none": "no",
    "capacity": "2",
    "construction:amenity": "charging_station",
    "email": "ajuda@powerdot.pt",
    "fee": "yes",
    "motorcar": "yes",
    "name": "ODV-00008",
    "network": "Mobi.E",
    "opening_hours": "24/7",
    "operator": "Powerdot",
    "parking:fee": "no",
    "phone": "+351 800 180 292",
    "ref": "ODV-00008",
    "socket:chademo": "1",
    "socket:chademo:current": "120",
    "socket:chademo:output": "50kW",
    "socket:chademo:voltage": "500",
    "socket:type2_cable": "1",
    "socket:type2_cable:current": "63",
    "socket:type2_cable:output": "43kW",
    "socket:type2_cable:voltage": "400",
    "socket:type2_combo": "1",
    "socket:type2_combo:current": "125",
    "socket:type2_combo:output": "50kW",
    "socket:type2_combo:voltage": "500",
    "website": "https://www.mobie.pt"
  }
},
{
  "type": "node",
  "id": 8450481852,
  "lat": 37.6531670,
  "lon": -8.2250830,
  "tags": {
    "access": "yes",
    "addr:country": "PT",
    "authentication:membership_card": "yes",
    "authentication:none": "no",
    "capacity": "2",
    "construction:amenity": "charging_station",
    "email": "apoio.cliente@kmlowcost.com",
    "fee": "yes",
    "motorcar": "yes",
    "name": "ORQ-00001",
    "network": "Mobi.E",
    "opening_hours": "24/7",
    "operator": "KLC",
    "parking:fee": "no",
    "phone": "+351 800 296 929",
    "ref": "ORQ-00001",
    "socket:type2": "2",
    "socket:type2:current": "32",
    "socket:type2:output": "22kW",
    "socket:type2:voltage": "400",
    "website": "https://www.mobie.pt"
  }
},
{
  "type": "node",
  "id": 8477321982,
  "lat": 41.4457092,
  "lon": -8.1655350,
  "tags": {
    "access": "yes",
    "addr:city": "Fafe",
    "addr:country": "PT",
    "authentication:membership_card": "yes",
    "authentication:none": "no",
    "capacity": "2",
    "construction:amenity": "charging_station",
    "email": "apoio.cliente@kmlowcost.com",
    "fee": "yes",
    "motorcar": "yes",
    "name": "FAF-00005 - Pingo Doce",
    "network": "Mobi.E",
    "opening_hours": "24/7",
    "operator": "KLC",
    "parking:fee": "no",
    "phone": "+351 800 296 929",
    "ref": "FAF-00005",
    "socket:chademo": "1",
    "socket:chademo:current": "120",
    "socket:chademo:output": "50kW",
    "socket:chademo:voltage": "500",
    "socket:type2_cable": "1",
    "socket:type2_cable:current": "63",
    "socket:type2_cable:output": "43kW",
    "socket:type2_cable:voltage": "400",
    "socket:type2_combo": "1",
    "socket:type2_combo:current": "125",
    "socket:type2_combo:output": "50kW",
    "socket:type2_combo:voltage": "500",
    "website": "https://www.mobie.pt"
  }
},
{
  "type": "node",
  "id": 8486651154,
  "lat": 40.5138525,
  "lon": -8.4873003,
  "tags": {
    "access": "yes",
    "addr:city": "Oliveira do Bairro",
    "addr:country": "PT",
    "authentication:membership_card": "yes",
    "authentication:none": "no",
    "capacity": "2",
    "construction:amenity": "charging_station",
    "email": "ajuda@powerdot.pt",
    "fee": "yes",
    "motorcar": "yes",
    "name": "OBR-00002 - Intermarché",
    "network": "Mobi.E",
    "opening_hours": "24/7",
    "operator": "Powerdot",
    "parking:fee": "no",
    "phone": "+351 800 180 292",
    "ref": "OBR-00002",
    "socket:chademo": "1",
    "socket:chademo:current": "120",
    "socket:chademo:output": "50kW",
    "socket:chademo:voltage": "500",
    "socket:type2_cable": "1",
    "socket:type2_cable:current": "63",
    "socket:type2_cable:output": "43kW",
    "socket:type2_cable:voltage": "400",
    "socket:type2_combo": "1",
    "socket:type2_combo:current": "125",
    "socket:type2_combo:output": "50kW",
    "socket:type2_combo:voltage": "500",
    "website": "https://www.mobie.pt"
  }
},
{
  "type": "node",
  "id": 8486759711,
  "lat": 38.7147650,
  "lon": -9.2256920,
  "tags": {
    "access": "yes",
    "addr:country": "PT",
    "authentication:membership_card": "yes",
    "authentication:none": "no",
    "capacity": "2",
    "construction:amenity": "charging_station",
    "email": "ajuda@powerdot.pt",
    "fee": "yes",
    "motorcar": "yes",
    "name": "OER-00063 - Miraflores Premium",
    "network": "Mobi.E",
    "opening_hours": "24/7",
    "operator": "Powerdot",
    "parking:fee": "yes",
    "phone": "+351 800 180 292",
    "ref": "OER-00063",
    "socket:type2": "2",
    "socket:type2:current": "32",
    "socket:type2:output": "7.4kW",
    "socket:type2:voltage": "230",
    "website": "https://www.mobie.pt"
  }
},
{
  "type": "node",
  "id": 8486791114,
  "lat": 40.4035590,
  "lon": -8.1292470,
  "tags": {
    "access": "yes",
    "addr:country": "PT",
    "authentication:membership_card": "yes",
    "authentication:none": "no",
    "capacity": "2",
    "construction:amenity": "charging_station",
    "email": "ajuda@powerdot.pt",
    "fee": "yes",
    "motorcar": "yes",
    "name": "SCD-00002 - Intermaché",
    "network": "Mobi.E",
    "opening_hours": "24/7",
    "operator": "Powerdot",
    "parking:fee": "no",
    "phone": "+351 800 180 292",
    "ref": "SCD-00002",
    "socket:type2": "2",
    "socket:type2:current": "32",
    "socket:type2:output": "22kW",
    "socket:type2:voltage": "400",
    "website": "https://www.mobie.pt"
  }
},
{
  "type": "node",
  "id": 8497383440,
  "lat": 41.2668470,
  "lon": -8.2904670,
  "tags": {
    "access": "yes",
    "addr:city": "Lousada",
    "addr:country": "PT",
    "addr:street": "Rua do Comércio",
    "authentication:membership_card": "yes",
    "authentication:none": "no",
    "capacity": "2",
    "construction:amenity": "charging_station",
    "email": "mobilidade.electricacrc@galp.com",
    "fee": "yes",
    "motorcar": "yes",
    "name": "LOU-XXXXX - Galp",
    "network": "Mobi.E",
    "opening_hours": "24/7",
    "operator": "Galp Power",
    "parking:fee": "no",
    "phone": "+351 800 249 249",
    "ref": "LOU-XXXXX",
    "socket:chademo": "1",
    "socket:chademo:current": "120",
    "socket:chademo:output": "50kW",
    "socket:chademo:voltage": "500",
    "socket:type2_cable": "1",
    "socket:type2_cable:current": "63",
    "socket:type2_cable:output": "43kW",
    "socket:type2_cable:voltage": "400",
    "socket:type2_combo": "1",
    "socket:type2_combo:current": "125",
    "socket:type2_combo:output": "50kW",
    "socket:type2_combo:voltage": "500",
    "website": "https://www.mobie.pt"
  }
},
{
  "type": "node",
  "id": 8513200747,
  "lat": 39.8064962,
  "lon": -7.5155403,
  "tags": {
    "access": "customers",
    "addr:country": "PT",
    "amenity:wikipedia": "en:Tesla Supercharger",
    "authentication:none": "no",
    "brand": "Tesla Supercharger",
    "brand:wikidata": "Q17089620",
    "brand:wikipedia": "en:Tesla Supercharger",
    "capacity": "8",
    "construction:amenity": "charging_station",
    "fee": "yes",
    "motorcar": "yes",
    "name": "Castelo Branco Supercharger",
    "network": "Tesla",
    "note": "V3",
    "opening_hours": "24/7",
    "operator": "Tesla",
    "parking:fee": "no",
    "socket:tesla_supercharger_ccs": "8",
    "socket:tesla_supercharger_ccs:output": "250 kW"
  }
},
{
  "type": "node",
  "id": 8522435566,
  "lat": 38.7118521,
  "lon": -9.2977059,
  "tags": {
    "access": "yes",
    "addr:country": "PT",
    "authentication:membership_card": "yes",
    "authentication:none": "no",
    "capacity": "1",
    "construction:amenity": "charging_station",
    "fee": "yes",
    "motorcar": "yes",
    "name": "OER-XXXXX",
    "network": "Mobi.E",
    "opening_hours": "24/7",
    "operator": "unknown",
    "parking:fee": "no",
    "ref": "OER-XXXXX",
    "socket:type2": "1",
    "socket:type2:current": "32",
    "socket:type2:output": "22kW",
    "socket:type2:voltage": "400",
    "website": "https://www.mobie.pt"
  }
},
{
  "type": "node",
  "id": 8536726565,
  "lat": 38.5300062,
  "lon": -8.8342930,
  "tags": {
    "access": "private",
    "addr:city": "Setúbal",
    "addr:country": "PT",
    "authentication:membership_card": "yes",
    "authentication:none": "no",
    "capacity": "2",
    "construction:amenity": "charging_station",
    "email": "geral.pt@helexia.eu",
    "fee": "yes",
    "name": "STB-XXXXX",
    "network": "Mobi.E",
    "opening_hours": "24/7",
    "operator": "Helexia II",
    "parking:fee": "no",
    "phone": "+351 800 100 303",
    "ref": "STB-XXXXX",
    "socket:chademo": "1",
    "socket:chademo:current": "120",
    "socket:chademo:output": "50kW",
    "socket:chademo:voltage": "500",
    "socket:type2_cable": "1",
    "socket:type2_cable:current": "63",
    "socket:type2_cable:output": "43kW",
    "socket:type2_cable:voltage": "400",
    "socket:type2_combo": "1",
    "socket:type2_combo:current": "125",
    "socket:type2_combo:output": "50kW",
    "socket:type2_combo:voltage": "500",
    "website": "https://www.mobie.pt"
  }
},
{
  "type": "node",
  "id": 8634952659,
  "lat": 38.8143438,
  "lon": -9.1878879,
  "tags": {
    "access": "yes",
    "addr:city": "Ramada",
    "addr:country": "PT",
    "addr:street": "Avenida Augusto Hilário",
    "authentication:membership_card": "yes",
    "authentication:none": "no",
    "capacity": "1",
    "construction:amenity": "charging_station",
    "fee": "yes",
    "motorcar": "yes",
    "name": "ODV-XXXXX - BP",
    "network": "Mobi.E",
    "opening_hours": "24/7",
    "operator": "unknown",
    "parking:fee": "no",
    "ref": "ODV-XXXXX",
    "socket:chademo": "1",
    "socket:chademo:current": "120",
    "socket:chademo:output": "50kW",
    "socket:chademo:voltage": "500",
    "socket:type2_cable": "1",
    "socket:type2_cable:current": "63",
    "socket:type2_cable:output": "43kW",
    "socket:type2_cable:voltage": "400",
    "socket:type2_combo": "1",
    "socket:type2_combo:current": "125",
    "socket:type2_combo:output": "50kW",
    "socket:type2_combo:voltage": "500",
    "website": "https://www.mobie.pt"
  }
},
{
  "type": "node",
  "id": 8681256182,
  "lat": 38.7625570,
  "lon": -9.1289640,
  "tags": {
    "access": "yes",
    "addr:city": "Lisboa",
    "addr:country": "PT",
    "addr:street": "Rotunda do Relógio",
    "authentication:membership_card": "yes",
    "authentication:none": "no",
    "capacity": "2",
    "construction:amenity": "charging_station",
    "email": "manutencaors@repsol.com",
    "fee": "yes",
    "motorcar": "yes",
    "name": "LSB-00335 - Repsol Rotunda do Relógio",
    "network": "Mobi.E",
    "opening_hours": "24/7",
    "operator": "Repsol",
    "parking:fee": "no",
    "phone": "+351 800 226 624",
    "ref": "LSB-00335",
    "socket:chademo": "1",
    "socket:chademo:current": "120",
    "socket:chademo:output": "50kW",
    "socket:chademo:voltage": "500",
    "socket:type2_cable": "1",
    "socket:type2_cable:current": "63",
    "socket:type2_cable:output": "43kW",
    "socket:type2_cable:voltage": "400",
    "socket:type2_combo": "1",
    "socket:type2_combo:current": "125",
    "socket:type2_combo:output": "50kW",
    "socket:type2_combo:voltage": "500",
    "website": "https://www.mobie.pt"
  }
},
{
  "type": "node",
  "id": 8719792738,
  "lat": 41.1926490,
  "lon": -8.7055770,
  "tags": {
    "access": "yes",
    "addr:city": "Leça da Palmeira",
    "addr:country": "PT",
    "addr:street": "Avenida da Liberdade",
    "authentication:membership_card": "yes",
    "authentication:none": "no",
    "capacity": "2",
    "construction:amenity": "charging_station",
    "email": "mobilidade-eletrica@edp.pt",
    "fee": "yes",
    "motorcar": "yes",
    "name": "MTS-XXXXX - McDonald's",
    "network": "Mobi.E",
    "opening_hours": "24/7",
    "operator": "EDP Comercial",
    "parking:fee": "no",
    "phone": "+351 800 222 222",
    "ref": "MTS-XXXXX",
    "socket:chademo": "1",
    "socket:chademo:current": "120",
    "socket:chademo:output": "50kW",
    "socket:chademo:voltage": "500",
    "socket:type2_cable": "1",
    "socket:type2_cable:current": "63",
    "socket:type2_cable:output": "43kW",
    "socket:type2_cable:voltage": "400",
    "socket:type2_combo": "1",
    "socket:type2_combo:current": "125",
    "socket:type2_combo:output": "50kW",
    "socket:type2_combo:voltage": "500",
    "website": "https://www.mobie.pt"
  }
},
{
  "type": "node",
  "id": 8730840559,
  "lat": 38.7563930,
  "lon": -9.1552480,
  "tags": {
    "access": "yes",
    "addr:city": "Lisboa",
    "addr:country": "PT",
    "addr:street": "Campo Grande",
    "authentication:membership_card": "yes",
    "authentication:none": "no",
    "capacity": "1",
    "construction:amenity": "charging_station",
    "email": "suporte@mobiletric.com",
    "fee": "yes",
    "motorcar": "yes",
    "name": "LSB-00351 - Faculdade de Ciências",
    "network": "Mobi.E",
    "opening_hours": "24/7",
    "operator": "Mobiletric",
    "parking:fee": "no",
    "phone": "+351 800 210 204",
    "ref": "LSB-00351",
    "socket:chademo": "1",
    "socket:chademo:current": "200",
    "socket:chademo:output": "100kW",
    "socket:chademo:voltage": "500",
    "socket:type2_combo": "1",
    "socket:type2_combo:current": "200",
    "socket:type2_combo:output": "180kW",
    "socket:type2_combo:voltage": "920",
    "website": "https://www.mobie.pt"
  }
},
{
  "type": "node",
  "id": 8733708461,
  "lat": 38.5659859,
  "lon": -9.0375829,
  "tags": {
    "access": "yes",
    "addr:city": "Quinta do Conde",
    "addr:country": "PT",
    "addr:street": "Avenida Norton de Matos",
    "authentication:membership_card": "yes",
    "authentication:none": "no",
    "capacity": "2",
    "construction:amenity": "charging_station",
    "email": "apoio.cliente@kmlowcost.com",
    "fee": "yes",
    "motorcar": "yes",
    "name": "SSB-00005 - Lidl",
    "network": "Mobi.E",
    "opening_hours": "24/7",
    "operator": "KLC",
    "parking:fee": "no",
    "phone": "+351 800 296 929",
    "ref": "SSB-00005",
    "socket:chademo": "1",
    "socket:chademo:current": "120",
    "socket:chademo:output": "50kW",
    "socket:chademo:voltage": "500",
    "socket:type2_cable": "1",
    "socket:type2_cable:current": "63",
    "socket:type2_cable:output": "43kW",
    "socket:type2_cable:voltage": "400",
    "socket:type2_combo": "1",
    "socket:type2_combo:current": "125",
    "socket:type2_combo:output": "50kW",
    "socket:type2_combo:voltage": "500",
    "website": "https://www.mobie.pt"
  }
},
{
  "type": "node",
  "id": 8733708462,
  "lat": 38.5388380,
  "lon": -8.8906850,
  "tags": {
    "access": "yes",
    "addr:city": "Setúbal",
    "addr:country": "PT",
    "addr:street": "Avenida de Moçambique",
    "authentication:membership_card": "yes",
    "authentication:none": "no",
    "capacity": "2",
    "construction:amenity": "charging_station",
    "email": "apoio.cliente@kmlowcost.com",
    "fee": "yes",
    "motorcar": "yes",
    "name": "STB-00018 - Lidl",
    "network": "Mobi.E",
    "opening_hours": "24/7",
    "operator": "KLC",
    "parking:fee": "no",
    "phone": "+351 800 296 929",
    "ref": "STB-00018",
    "socket:chademo": "1",
    "socket:chademo:current": "120",
    "socket:chademo:output": "50kW",
    "socket:chademo:voltage": "500",
    "socket:type2_cable": "1",
    "socket:type2_cable:current": "63",
    "socket:type2_cable:output": "43kW",
    "socket:type2_cable:voltage": "400",
    "socket:type2_combo": "1",
    "socket:type2_combo:current": "125",
    "socket:type2_combo:output": "50kW",
    "socket:type2_combo:voltage": "500",
    "website": "https://www.mobie.pt"
  }
},
{
  "type": "node",
  "id": 8733712596,
  "lat": 38.5976844,
  "lon": -9.1409647,
  "tags": {
    "access": "yes",
    "addr:city": "Belverde",
    "addr:country": "PT",
    "addr:street": "Avenida do Mar",
    "authentication:membership_card": "yes",
    "authentication:none": "no",
    "capacity": "2",
    "construction:amenity": "charging_station",
    "email": "apoio.cliente@kmlowcost.com",
    "fee": "yes",
    "motorcar": "yes",
    "name": "SXL-00015 - Lidl",
    "network": "Mobi.E",
    "opening_hours": "24/7",
    "operator": "KLC",
    "parking:fee": "no",
    "phone": "+351 800 296 929",
    "ref": "SXL-00015",
    "socket:chademo": "1",
    "socket:chademo:current": "120",
    "socket:chademo:output": "50kW",
    "socket:chademo:voltage": "500",
    "socket:type2_cable": "1",
    "socket:type2_cable:current": "63",
    "socket:type2_cable:output": "43kW",
    "socket:type2_cable:voltage": "400",
    "socket:type2_combo": "1",
    "socket:type2_combo:current": "125",
    "socket:type2_combo:output": "50kW",
    "socket:type2_combo:voltage": "500",
    "website": "https://www.mobie.pt"
  }
},
{
  "type": "node",
  "id": 8733712597,
  "lat": 38.0058010,
  "lon": -7.8710280,
  "tags": {
    "access": "yes",
    "addr:city": "Beja",
    "addr:country": "PT",
    "authentication:membership_card": "yes",
    "authentication:none": "no",
    "capacity": "2",
    "construction:amenity": "charging_station",
    "email": "apoio.cliente@kmlowcost.com",
    "fee": "yes",
    "motorcar": "yes",
    "name": "BJA-00012 - Lidl",
    "network": "Mobi.E",
    "opening_hours": "24/7",
    "operator": "KLC",
    "parking:fee": "no",
    "phone": "+351 800 296 929",
    "ref": "BJA-00012",
    "socket:chademo": "1",
    "socket:chademo:current": "120",
    "socket:chademo:output": "50kW",
    "socket:chademo:voltage": "500",
    "socket:type2_cable": "1",
    "socket:type2_cable:current": "63",
    "socket:type2_cable:output": "43kW",
    "socket:type2_cable:voltage": "400",
    "socket:type2_combo": "1",
    "socket:type2_combo:current": "125",
    "socket:type2_combo:output": "50kW",
    "socket:type2_combo:voltage": "500",
    "website": "https://www.mobie.pt"
  }
},
{
  "type": "node",
  "id": 8733712653,
  "lat": 38.8153334,
  "lon": -9.1483209,
  "tags": {
    "access": "yes",
    "addr:city": "Loures",
    "addr:country": "PT",
    "authentication:membership_card": "yes",
    "authentication:none": "no",
    "capacity": "2",
    "construction:amenity": "charging_station",
    "email": "apoio.cliente@kmlowcost.com",
    "fee": "yes",
    "motorcar": "yes",
    "name": "LRS-00054 - Lidl",
    "network": "Mobi.E",
    "opening_hours": "24/7",
    "operator": "KLC",
    "parking:fee": "no",
    "phone": "+351 800 296 929",
    "ref": "LRS-00054",
    "socket:chademo": "1",
    "socket:chademo:current": "120",
    "socket:chademo:output": "50kW",
    "socket:chademo:voltage": "500",
    "socket:type2_cable": "1",
    "socket:type2_cable:current": "63",
    "socket:type2_cable:output": "43kW",
    "socket:type2_cable:voltage": "400",
    "socket:type2_combo": "1",
    "socket:type2_combo:current": "125",
    "socket:type2_combo:output": "50kW",
    "socket:type2_combo:voltage": "500",
    "website": "https://www.mobie.pt"
  }
},
{
  "type": "node",
  "id": 8733779262,
  "lat": 38.7148220,
  "lon": -9.3449400,
  "tags": {
    "access": "yes",
    "addr:city": "Tires",
    "addr:country": "PT",
    "authentication:membership_card": "yes",
    "authentication:none": "no",
    "capacity": "2",
    "construction:amenity": "charging_station",
    "email": "apoio.cliente@kmlowcost.com",
    "fee": "yes",
    "motorcar": "yes",
    "name": "CSC-00072 - Lidl",
    "network": "Mobi.E",
    "opening_hours": "24/7",
    "operator": "KLC",
    "parking:fee": "no",
    "phone": "+351 800 296 929",
    "ref": "CSC-00072",
    "socket:chademo": "1",
    "socket:chademo:current": "120",
    "socket:chademo:output": "50kW",
    "socket:chademo:voltage": "500",
    "socket:type2_cable": "1",
    "socket:type2_cable:current": "63",
    "socket:type2_cable:output": "43kW",
    "socket:type2_cable:voltage": "400",
    "socket:type2_combo": "1",
    "socket:type2_combo:current": "125",
    "socket:type2_combo:output": "50kW",
    "socket:type2_combo:voltage": "500",
    "website": "https://www.mobie.pt"
  }
},
{
  "type": "node",
  "id": 8733779263,
  "lat": 38.7592405,
  "lon": -9.3778965,
  "tags": {
    "access": "yes",
    "addr:city": "Beloura",
    "addr:country": "PT",
    "addr:street": "Avenida Pedro Álvares Cabral",
    "authentication:membership_card": "yes",
    "authentication:none": "no",
    "capacity": "2",
    "construction:amenity": "charging_station",
    "email": "apoio.cliente@kmlowcost.com",
    "fee": "yes",
    "motorcar": "yes",
    "name": "SNT-00048 - Lidl",
    "network": "Mobi.E",
    "opening_hours": "24/7",
    "operator": "KLC",
    "parking:fee": "no",
    "phone": "+351 800 296 929",
    "ref": "SNT-00048",
    "socket:chademo": "1",
    "socket:chademo:current": "120",
    "socket:chademo:output": "50kW",
    "socket:chademo:voltage": "500",
    "socket:type2_cable": "1",
    "socket:type2_cable:current": "63",
    "socket:type2_cable:output": "43kW",
    "socket:type2_cable:voltage": "400",
    "socket:type2_combo": "1",
    "socket:type2_combo:current": "125",
    "socket:type2_combo:output": "50kW",
    "socket:type2_combo:voltage": "500",
    "website": "https://www.mobie.pt"
  }
},
{
  "type": "node",
  "id": 8733832871,
  "lat": 39.6100745,
  "lon": -8.4019186,
  "tags": {
    "access": "yes",
    "addr:city": "Tomar",
    "addr:country": "PT",
    "authentication:membership_card": "yes",
    "authentication:none": "no",
    "capacity": "2",
    "construction:amenity": "charging_station",
    "email": "apoio.cliente@kmlowcost.com",
    "fee": "yes",
    "motorcar": "yes",
    "name": "TMR-00005 - Lidl",
    "network": "Mobi.E",
    "opening_hours": "24/7",
    "operator": "KLC",
    "parking:fee": "no",
    "phone": "+351 800 296 929",
    "ref": "TMR-00005",
    "socket:chademo": "1",
    "socket:chademo:current": "120",
    "socket:chademo:output": "50kW",
    "socket:chademo:voltage": "500",
    "socket:type2_cable": "1",
    "socket:type2_cable:current": "63",
    "socket:type2_cable:output": "43kW",
    "socket:type2_cable:voltage": "400",
    "socket:type2_combo": "1",
    "socket:type2_combo:current": "125",
    "socket:type2_combo:output": "50kW",
    "socket:type2_combo:voltage": "500",
    "website": "https://www.mobie.pt"
  }
},
{
  "type": "node",
  "id": 8733832872,
  "lat": 39.0821933,
  "lon": -9.2618384,
  "tags": {
    "access": "yes",
    "addr:city": "Torres Vedras",
    "addr:country": "PT",
    "authentication:membership_card": "yes",
    "authentication:none": "no",
    "capacity": "2",
    "construction:amenity": "charging_station",
    "email": "apoio.cliente@kmlowcost.com",
    "fee": "yes",
    "motorcar": "yes",
    "name": "TVD-00020 - Lidl",
    "network": "Mobi.E",
    "opening_hours": "24/7",
    "operator": "KLC",
    "parking:fee": "no",
    "phone": "+351 800 296 929",
    "ref": "TVD-00020",
    "socket:chademo": "1",
    "socket:chademo:current": "120",
    "socket:chademo:output": "50kW",
    "socket:chademo:voltage": "500",
    "socket:type2_cable": "1",
    "socket:type2_cable:current": "63",
    "socket:type2_cable:output": "43kW",
    "socket:type2_cable:voltage": "400",
    "socket:type2_combo": "1",
    "socket:type2_combo:current": "125",
    "socket:type2_combo:output": "50kW",
    "socket:type2_combo:voltage": "500",
    "website": "https://www.mobie.pt"
  }
},
{
  "type": "node",
  "id": 8733832873,
  "lat": 38.9648086,
  "lon": -9.4079278,
  "tags": {
    "access": "yes",
    "addr:city": "Ericeira",
    "addr:country": "PT",
    "authentication:membership_card": "yes",
    "authentication:none": "no",
    "capacity": "2",
    "construction:amenity": "charging_station",
    "email": "apoio.cliente@kmlowcost.com",
    "fee": "yes",
    "motorcar": "yes",
    "name": "MFR-00016 - Lidl",
    "network": "Mobi.E",
    "opening_hours": "24/7",
    "operator": "KLC",
    "parking:fee": "no",
    "phone": "+351 800 296 929",
    "ref": "MFR-00016",
    "socket:chademo": "1",
    "socket:chademo:current": "120",
    "socket:chademo:output": "50kW",
    "socket:chademo:voltage": "500",
    "socket:type2_cable": "1",
    "socket:type2_cable:current": "63",
    "socket:type2_cable:output": "43kW",
    "socket:type2_cable:voltage": "400",
    "socket:type2_combo": "1",
    "socket:type2_combo:current": "125",
    "socket:type2_combo:output": "50kW",
    "socket:type2_combo:voltage": "500",
    "website": "https://www.mobie.pt"
  }
},
{
  "type": "node",
  "id": 8757687010,
  "lat": 40.2278855,
  "lon": -8.4385314,
  "tags": {
    "access": "yes",
    "addr:city": "Coimbra",
    "addr:country": "PT",
    "authentication:membership_card": "yes",
    "authentication:none": "no",
    "capacity": "2",
    "construction:amenity": "charging_station",
    "email": "apoio.cliente@kmlowcost.com",
    "fee": "yes",
    "motorcar": "yes",
    "name": "CBR-00019 - Lidl",
    "network": "Mobi.E",
    "opening_hours": "24/7",
    "operator": "KLC",
    "parking:fee": "no",
    "phone": "+351 800 296 929",
    "ref": "CBR-00019",
    "socket:chademo": "1",
    "socket:chademo:current": "120",
    "socket:chademo:output": "50kW",
    "socket:chademo:voltage": "500",
    "socket:type2_cable": "1",
    "socket:type2_cable:current": "63",
    "socket:type2_cable:output": "43kW",
    "socket:type2_cable:voltage": "400",
    "socket:type2_combo": "1",
    "socket:type2_combo:current": "125",
    "socket:type2_combo:output": "50kW",
    "socket:type2_combo:voltage": "500",
    "website": "https://www.mobie.pt"
  }
},
{
  "type": "node",
  "id": 8757688907,
  "lat": 39.4688336,
  "lon": -8.2007603,
  "tags": {
    "access": "yes",
    "addr:city": "Abrantes",
    "addr:country": "PT",
    "authentication:membership_card": "yes",
    "authentication:none": "no",
    "capacity": "2",
    "construction:amenity": "charging_station",
    "email": "apoio.cliente@kmlowcost.com",
    "fee": "yes",
    "motorcar": "yes",
    "name": "ABT-00004 - Lidl",
    "network": "Mobi.E",
    "opening_hours": "24/7",
    "operator": "KLC",
    "parking:fee": "no",
    "phone": "+351 800 296 929",
    "ref": "ABT-00004",
    "socket:chademo": "1",
    "socket:chademo:current": "120",
    "socket:chademo:output": "50kW",
    "socket:chademo:voltage": "500",
    "socket:type2_cable": "1",
    "socket:type2_cable:current": "63",
    "socket:type2_cable:output": "43kW",
    "socket:type2_cable:voltage": "400",
    "socket:type2_combo": "1",
    "socket:type2_combo:current": "125",
    "socket:type2_combo:output": "50kW",
    "socket:type2_combo:voltage": "500",
    "website": "https://www.mobie.pt"
  }
},
{
  "type": "node",
  "id": 8757714041,
  "lat": 41.0001157,
  "lon": -8.6390596,
  "tags": {
    "access": "yes",
    "addr:city": "Espinho",
    "addr:country": "PT",
    "authentication:membership_card": "yes",
    "authentication:none": "no",
    "capacity": "2",
    "construction:amenity": "charging_station",
    "email": "apoio.cliente@kmlowcost.com",
    "fee": "yes",
    "motorcar": "yes",
    "name": "ESP-00002 - Lidl",
    "network": "Mobi.E",
    "opening_hours": "24/7",
    "operator": "KLC",
    "parking:fee": "no",
    "phone": "+351 800 296 929",
    "ref": "ESP-00002",
    "socket:chademo": "1",
    "socket:chademo:current": "120",
    "socket:chademo:output": "50kW",
    "socket:chademo:voltage": "500",
    "socket:type2_cable": "1",
    "socket:type2_cable:current": "63",
    "socket:type2_cable:output": "43kW",
    "socket:type2_cable:voltage": "400",
    "socket:type2_combo": "1",
    "socket:type2_combo:current": "125",
    "socket:type2_combo:output": "50kW",
    "socket:type2_combo:voltage": "500",
    "website": "https://www.mobie.pt"
  }
},
{
  "type": "node",
  "id": 8757714042,
  "lat": 41.1266315,
  "lon": -8.6009157,
  "tags": {
    "access": "yes",
    "addr:city": "Vila Nova de Gaia",
    "addr:country": "PT",
    "authentication:membership_card": "yes",
    "authentication:none": "no",
    "capacity": "2",
    "construction:amenity": "charging_station",
    "email": "apoio.cliente@kmlowcost.com",
    "fee": "yes",
    "motorcar": "yes",
    "name": "VNG-00061 - Lidl",
    "network": "Mobi.E",
    "opening_hours": "24/7",
    "operator": "KLC",
    "parking:fee": "no",
    "phone": "+351 800 296 929",
    "ref": "VNG-00061",
    "socket:chademo": "1",
    "socket:chademo:current": "120",
    "socket:chademo:output": "50kW",
    "socket:chademo:voltage": "500",
    "socket:type2_cable": "1",
    "socket:type2_cable:current": "63",
    "socket:type2_cable:output": "43kW",
    "socket:type2_cable:voltage": "400",
    "socket:type2_combo": "1",
    "socket:type2_combo:current": "125",
    "socket:type2_combo:output": "50kW",
    "socket:type2_combo:voltage": "500",
    "website": "https://www.mobie.pt"
  }
},
{
  "type": "node",
  "id": 8757714043,
  "lat": 40.1569836,
  "lon": -8.8498949,
  "tags": {
    "access": "yes",
    "addr:city": "Figueira da Foz",
    "addr:country": "PT",
    "authentication:membership_card": "yes",
    "authentication:none": "no",
    "capacity": "2",
    "construction:amenity": "charging_station",
    "email": "apoio.cliente@kmlowcost.com",
    "fee": "yes",
    "motorcar": "yes",
    "name": "FIG-00006 - Lidl",
    "network": "Mobi.E",
    "opening_hours": "24/7",
    "operator": "KLC",
    "parking:fee": "no",
    "phone": "+351 800 296 929",
    "ref": "FIG-00006",
    "socket:chademo": "1",
    "socket:chademo:current": "120",
    "socket:chademo:output": "50kW",
    "socket:chademo:voltage": "500",
    "socket:type2_cable": "1",
    "socket:type2_cable:current": "63",
    "socket:type2_cable:output": "43kW",
    "socket:type2_cable:voltage": "400",
    "socket:type2_combo": "1",
    "socket:type2_combo:current": "125",
    "socket:type2_combo:output": "50kW",
    "socket:type2_combo:voltage": "500",
    "website": "https://www.mobie.pt"
  }
},
{
  "type": "node",
  "id": 8757730287,
  "lat": 38.7359240,
  "lon": -9.3010200,
  "tags": {
    "access": "yes",
    "addr:city": "Oeiras",
    "addr:country": "PT",
    "addr:street": "Avenida Professor Doutor Cavaco Silva",
    "authentication:membership_card": "yes",
    "authentication:none": "no",
    "capacity": "1",
    "construction:amenity": "charging_station",
    "fee": "yes",
    "motorcar": "yes",
    "name": "OER-XXXXX",
    "network": "Mobi.E",
    "opening_hours": "24/7",
    "operator": "unknown",
    "parking:fee": "no",
    "ref": "OER-XXXXX",
    "socket:chademo": "1",
    "socket:chademo:current": "200",
    "socket:chademo:output": "100kW",
    "socket:chademo:voltage": "500",
    "socket:type2_combo": "1",
    "socket:type2_combo:current": "200",
    "socket:type2_combo:output": "180kW",
    "socket:type2_combo:voltage": "920",
    "website": "https://www.mobie.pt"
  }
},
{
  "type": "node",
  "id": 8757754343,
  "lat": 41.2041937,
  "lon": -8.6965733,
  "tags": {
    "access": "yes",
    "addr:city": "Leça da Palmeira",
    "addr:country": "PT",
    "authentication:membership_card": "yes",
    "authentication:none": "no",
    "capacity": "2",
    "construction:amenity": "charging_station",
    "email": "apoio.cliente@kmlowcost.com",
    "fee": "yes",
    "motorcar": "yes",
    "name": "MTS-00035 - Lidl",
    "network": "Mobi.E",
    "opening_hours": "24/7",
    "operator": "KLC",
    "parking:fee": "no",
    "phone": "+351 800 296 929",
    "ref": "MTS-00035",
    "socket:chademo": "1",
    "socket:chademo:current": "120",
    "socket:chademo:output": "50kW",
    "socket:chademo:voltage": "500",
    "socket:type2_cable": "1",
    "socket:type2_cable:current": "63",
    "socket:type2_cable:output": "43kW",
    "socket:type2_cable:voltage": "400",
    "socket:type2_combo": "1",
    "socket:type2_combo:current": "125",
    "socket:type2_combo:output": "50kW",
    "socket:type2_combo:voltage": "500",
    "website": "https://www.mobie.pt"
  }
},
{
  "type": "node",
  "id": 8757790899,
  "lat": 41.5377871,
  "lon": -8.6220810,
  "tags": {
    "access": "yes",
    "addr:country": "PT",
    "authentication:app": "yes",
    "authentication:none": "no",
    "brand": "Continente",
    "brand:wikidata": "Q2995683",
    "brand:wikipedia": "en:Continente (supermarket)",
    "capacity": "2",
    "construction:amenity": "charging_station",
    "fee": "yes",
    "motorcar": "yes",
    "name": "Continente",
    "network": "Continente Plug&Charge",
    "opening_hours": "Mo-Su 09:00-21:00",
    "operator": "Sonae",
    "parking:fee": "no",
    "shop": "supermarket",
    "socket:type2": "2",
    "socket:type2:current": "32",
    "socket:type2:output": "22kW",
    "socket:type2:voltage": "400",
    "website": "https://plugcharge.continente.pt/"
  }
},
{
  "type": "node",
  "id": 8779356628,
  "lat": 38.7686559,
  "lon": -9.1294385,
  "tags": {
    "access": "yes",
    "addr:country": "PT",
    "authentication:membership_card": "yes",
    "authentication:none": "no",
    "capacity": "2",
    "construction:amenity": "charging_station",
    "email": "mobilidade.electricacrc@galp.com",
    "fee": "yes",
    "motorcar": "yes",
    "name": "LSB-00343 - Aeroporto Parque P1",
    "network": "Mobi.E",
    "opening_hours": "24/7",
    "operator": "Galp Power",
    "parking:fee": "no",
    "phone": "+351 800 249 249",
    "ref": "LSB-00343",
    "socket:type2": "2",
    "socket:type2:current": "32",
    "socket:type2:output": "22kW",
    "socket:type2:voltage": "400",
    "website": "https://www.mobie.pt"
  }
},
{
  "type": "node",
  "id": 8779356629,
  "lat": 37.0285442,
  "lon": -8.0208200,
  "tags": {
    "access": "yes",
    "addr:country": "PT",
    "authentication:membership_card": "yes",
    "authentication:none": "no",
    "capacity": "2",
    "construction:amenity": "charging_station",
    "email": "geral@lcglobal.pt",
    "fee": "yes",
    "motorcar": "yes",
    "name": "LLE-00055",
    "network": "Mobi.E",
    "opening_hours": "24/7",
    "operator": "Loulé Concelho Global",
    "parking:fee": "yes",
    "phone": "+351 800 200 289",
    "ref": "LLE-00055",
    "socket:type2": "2",
    "socket:type2:current": "32",
    "socket:type2:output": "22kW",
    "socket:type2:voltage": "400",
    "website": "https://www.mobie.pt"
  }
},
{
  "type": "node",
  "id": 8781101648,
  "lat": 40.5343930,
  "lon": -7.2436680,
  "tags": {
    "access": "yes",
    "addr:city": "Guarda",
    "addr:country": "PT",
    "authentication:membership_card": "yes",
    "authentication:none": "no",
    "capacity": "2",
    "construction:amenity": "charging_station",
    "email": "manutencaors@repsol.com",
    "fee": "yes",
    "motorcar": "yes",
    "name": "GRD-00012 - Repsol",
    "network": "Mobi.E",
    "opening_hours": "24/7",
    "operator": "Repsol",
    "parking:fee": "no",
    "phone": "+351 800 226 624",
    "ref": "GRD-00012",
    "socket:chademo": "1",
    "socket:chademo:current": "120",
    "socket:chademo:output": "50kW",
    "socket:chademo:voltage": "500",
    "socket:type2_cable": "1",
    "socket:type2_cable:current": "63",
    "socket:type2_cable:output": "43kW",
    "socket:type2_cable:voltage": "400",
    "socket:type2_combo": "1",
    "socket:type2_combo:current": "125",
    "socket:type2_combo:output": "50kW",
    "socket:type2_combo:voltage": "500",
    "website": "https://www.mobie.pt"
  }
},
{
  "type": "node",
  "id": 8781101654,
  "lat": 38.7686873,
  "lon": -9.1294467,
  "tags": {
    "access": "yes",
    "addr:city": "Lisboa",
    "addr:country": "PT",
    "authentication:membership_card": "yes",
    "authentication:none": "no",
    "capacity": "2",
    "construction:amenity": "charging_station",
    "email": "mobilidade.electricacrc@galp.com",
    "fee": "yes",
    "motorcar": "yes",
    "name": "LSB-00344 - Aeroporto Parque P1",
    "network": "Mobi.E",
    "opening_hours": "24/7",
    "operator": "Galp Power",
    "parking:fee": "no",
    "phone": "+351 800 249 249",
    "ref": "LSB-00344",
    "socket:chademo": "1",
    "socket:chademo:current": "120",
    "socket:chademo:output": "50kW",
    "socket:chademo:voltage": "500",
    "socket:type2_cable": "1",
    "socket:type2_cable:current": "63",
    "socket:type2_cable:output": "43kW",
    "socket:type2_cable:voltage": "400",
    "socket:type2_combo": "1",
    "socket:type2_combo:current": "125",
    "socket:type2_combo:output": "50kW",
    "socket:type2_combo:voltage": "500",
    "website": "https://www.mobie.pt"
  }
},
{
  "type": "node",
  "id": 8792838809,
  "lat": 38.7770701,
  "lon": -9.3352900,
  "tags": {
    "access": "yes",
    "addr:country": "PT",
    "authentication:membership_card": "yes",
    "authentication:none": "no",
    "capacity": "2",
    "construction:amenity": "charging_station",
    "fee": "yes",
    "motorcar": "yes",
    "name": "SNT-XXXXX - McDonald's",
    "network": "Mobi.E",
    "opening_hours": "24/7",
    "operator": "unknown",
    "parking:fee": "no",
    "ref": "SNT-XXXXX",
    "socket:chademo": "1",
    "socket:chademo:current": "120",
    "socket:chademo:output": "50kW",
    "socket:chademo:voltage": "500",
    "socket:type2_cable": "1",
    "socket:type2_cable:current": "63",
    "socket:type2_cable:output": "43kW",
    "socket:type2_cable:voltage": "400",
    "socket:type2_combo": "1",
    "socket:type2_combo:current": "125",
    "socket:type2_combo:output": "50kW",
    "socket:type2_combo:voltage": "500",
    "website": "https://www.mobie.pt"
  }
},
{
  "type": "node",
  "id": 8792974362,
  "lat": 41.4929043,
  "lon": -7.6455270,
  "tags": {
    "access": "yes",
    "addr:country": "PT",
    "authentication:membership_card": "yes",
    "authentication:none": "no",
    "capacity": "2",
    "construction:amenity": "charging_station",
    "email": "ajuda@powerdot.pt",
    "fee": "yes",
    "motorcar": "yes",
    "name": "VPA-00002",
    "network": "Mobi.E",
    "opening_hours": "24/7",
    "operator": "Powerdot",
    "parking:fee": "no",
    "phone": "+351 800 180 292",
    "ref": "VPA-00002",
    "socket:type2": "2",
    "socket:type2:current": "32",
    "socket:type2:output": "22kW",
    "socket:type2:voltage": "400",
    "website": "https://www.mobie.pt"
  }
},
{
  "type": "node",
  "id": 8818748676,
  "lat": 40.3977298,
  "lon": -8.1285206,
  "tags": {
    "access": "yes",
    "addr:city": "Santa Comba Dão",
    "addr:country": "PT",
    "authentication:membership_card": "yes",
    "authentication:none": "no",
    "capacity": "2",
    "construction:amenity": "charging_station",
    "email": "manutencaors@repsol.com",
    "fee": "yes",
    "motorcar": "yes",
    "name": "SCD-XXXXX - Repsol",
    "network": "Mobi.E",
    "opening_hours": "24/7",
    "operator": "Repsol",
    "parking:fee": "no",
    "phone": "+351 800 226 624",
    "ref": "SCD-XXXXX",
    "socket:chademo": "1",
    "socket:chademo:current": "120",
    "socket:chademo:output": "50kW",
    "socket:chademo:voltage": "500",
    "socket:type2_cable": "1",
    "socket:type2_cable:current": "63",
    "socket:type2_cable:output": "43kW",
    "socket:type2_cable:voltage": "400",
    "socket:type2_combo": "1",
    "socket:type2_combo:current": "125",
    "socket:type2_combo:output": "50kW",
    "socket:type2_combo:voltage": "500",
    "website": "https://www.mobie.pt"
  }
},
{
  "type": "node",
  "id": 8829299062,
  "lat": 40.2012017,
  "lon": -8.4307893,
  "tags": {
    "access": "yes",
    "addr:city": "Coimbra",
    "addr:country": "PT",
    "addr:street": "Avenida Inês de Castro",
    "authentication:membership_card": "yes",
    "authentication:none": "no",
    "capacity": "2",
    "construction:amenity": "charging_station",
    "email": "mobilidade-eletrica@edp.pt",
    "fee": "yes",
    "motorcar": "yes",
    "name": "CBR-XXXXX - BP",
    "network": "Mobi.E",
    "opening_hours": "24/7",
    "operator": "EDP Comercial",
    "parking:fee": "no",
    "phone": "+351 800 222 222",
    "ref": "CBR-XXXXX",
    "socket:chademo": "1",
    "socket:chademo:current": "120",
    "socket:chademo:output": "50kW",
    "socket:chademo:voltage": "500",
    "socket:type2_cable": "1",
    "socket:type2_cable:current": "63",
    "socket:type2_cable:output": "43kW",
    "socket:type2_cable:voltage": "400",
    "socket:type2_combo": "1",
    "socket:type2_combo:current": "125",
    "socket:type2_combo:output": "50kW",
    "socket:type2_combo:voltage": "500",
    "website": "https://www.mobie.pt"
  }
},
{
  "type": "node",
  "id": 8829299063,
  "lat": 41.1959929,
  "lon": -8.5761962,
  "tags": {
    "access": "yes",
    "addr:country": "PT",
    "authentication:membership_card": "yes",
    "authentication:none": "no",
    "capacity": "2",
    "construction:amenity": "charging_station",
    "email": "mobilidade.electricacrc@galp.com",
    "fee": "yes",
    "motorcar": "yes",
    "name": "GDM-XXXXX",
    "network": "Mobi.E",
    "opening_hours": "24/7",
    "operator": "Galp Power",
    "parking:fee": "no",
    "phone": "+351 800 249 249",
    "ref": "GDM-XXXXX",
    "socket:chademo": "1",
    "socket:chademo:current": "120",
    "socket:chademo:output": "50kW",
    "socket:chademo:voltage": "500",
    "socket:type2_cable": "1",
    "socket:type2_cable:current": "63",
    "socket:type2_cable:output": "43kW",
    "socket:type2_cable:voltage": "400",
    "socket:type2_combo": "1",
    "socket:type2_combo:current": "125",
    "socket:type2_combo:output": "50kW",
    "socket:type2_combo:voltage": "500",
    "website": "https://www.mobie.pt"
  }
},
{
  "type": "node",
  "id": 8830322331,
  "lat": 41.1845130,
  "lon": -8.4769055,
  "tags": {
    "access": "yes",
    "addr:country": "PT",
    "authentication:membership_card": "yes",
    "authentication:none": "no",
    "capacity": "2",
    "construction:amenity": "charging_station",
    "fee": "yes",
    "motorcar": "yes",
    "name": "VLG-00012 - Santa Justa",
    "network": "Mobi.E",
    "opening_hours": "24/7",
    "operator": "Evio",
    "parking:fee": "no",
    "ref": "VLG-00012",
    "socket:type2": "2",
    "socket:type2:current": "32",
    "socket:type2:output": "22kW",
    "socket:type2:voltage": "400",
    "website": "https://www.mobie.pt"
  }
},
{
  "type": "node",
  "id": 8833398841,
  "lat": 39.1904343,
  "lon": -8.6241502,
  "tags": {
    "access": "yes",
    "addr:city": "Almeirim",
    "addr:country": "PT",
    "authentication:membership_card": "yes",
    "authentication:none": "no",
    "capacity": "2",
    "construction:amenity": "charging_station",
    "email": "apoio.cliente@kmlowcost.com",
    "fee": "yes",
    "motorcar": "yes",
    "name": "ALR-00002 - Pingo Doce",
    "network": "Mobi.E",
    "opening_hours": "24/7",
    "operator": "KLC",
    "parking:fee": "no",
    "phone": "+351 800 296 929",
    "ref": "ALR-00002",
    "socket:chademo": "1",
    "socket:chademo:current": "120",
    "socket:chademo:output": "50kW",
    "socket:chademo:voltage": "500",
    "socket:type2_cable": "1",
    "socket:type2_cable:current": "32",
    "socket:type2_cable:output": "22kW",
    "socket:type2_cable:voltage": "400",
    "socket:type2_combo": "1",
    "socket:type2_combo:current": "125",
    "socket:type2_combo:output": "50kW",
    "socket:type2_combo:voltage": "500",
    "website": "https://www.mobie.pt"
  }
},
{
  "type": "node",
  "id": 8833398842,
  "lat": 39.4630530,
  "lon": -8.5212973,
  "tags": {
    "access": "yes",
    "addr:city": "Torres Novas",
    "addr:country": "PT",
    "authentication:membership_card": "yes",
    "authentication:none": "no",
    "capacity": "2",
    "construction:amenity": "charging_station",
    "email": "apoio.cliente@kmlowcost.com",
    "fee": "yes",
    "motorcar": "yes",
    "name": "TNV-00005 - Pingo Doce",
    "network": "Mobi.E",
    "opening_hours": "24/7",
    "operator": "KLC",
    "parking:fee": "no",
    "phone": "+351 800 296 929",
    "ref": "TNV-00005",
    "socket:chademo": "1",
    "socket:chademo:current": "120",
    "socket:chademo:output": "50kW",
    "socket:chademo:voltage": "500",
    "socket:type2_cable": "1",
    "socket:type2_cable:current": "32",
    "socket:type2_cable:output": "22kW",
    "socket:type2_cable:voltage": "400",
    "socket:type2_combo": "1",
    "socket:type2_combo:current": "125",
    "socket:type2_combo:output": "50kW",
    "socket:type2_combo:voltage": "500",
    "website": "https://www.mobie.pt"
  }
},
{
  "type": "node",
  "id": 8833480188,
  "lat": 40.6500296,
  "lon": -8.6214536,
  "tags": {
    "access": "yes",
    "addr:city": "Aveiro",
    "addr:country": "PT",
    "authentication:membership_card": "yes",
    "authentication:none": "no",
    "capacity": "2",
    "construction:amenity": "charging_station",
    "email": "apoio.cliente@kmlowcost.com",
    "fee": "yes",
    "motorcar": "yes",
    "name": "AVR-00028 - Pingo Doce",
    "network": "Mobi.E",
    "opening_hours": "24/7",
    "operator": "KLC",
    "parking:fee": "no",
    "phone": "+351 800 296 929",
    "ref": "AVR-00028",
    "socket:chademo": "1",
    "socket:chademo:current": "120",
    "socket:chademo:output": "50kW",
    "socket:chademo:voltage": "500",
    "socket:type2_cable": "1",
    "socket:type2_cable:current": "63",
    "socket:type2_cable:output": "43kW",
    "socket:type2_cable:voltage": "400",
    "socket:type2_combo": "1",
    "socket:type2_combo:current": "125",
    "socket:type2_combo:output": "50kW",
    "socket:type2_combo:voltage": "500",
    "website": "https://www.mobie.pt"
  }
},
{
  "type": "node",
  "id": 8849291222,
  "lat": 37.0603560,
  "lon": -7.9662117,
  "tags": {
    "access": "customers",
    "addr:city": "Faro",
    "addr:country": "PT",
    "authentication:membership_card": "yes",
    "authentication:none": "no",
    "capacity": "2",
    "construction:amenity": "charging_station",
    "fee": "yes",
    "motorcar": "yes",
    "name": "Centro Porsche Faro",
    "network": "Porsche",
    "opening_hours": "Mo-Fr 09:00-18:00",
    "operator": "Porsche",
    "parking:fee": "no",
    "socket:type2_combo": "2",
    "socket:type2_combo:current": "500",
    "socket:type2_combo:output": "350kW",
    "socket:type2_combo:voltage": "950"
  }
},
{
  "type": "node",
  "id": 8850662958,
  "lat": 37.0997642,
  "lon": -8.4694225,
  "tags": {
    "access": "yes",
    "addr:country": "PT",
    "authentication:membership_card": "yes",
    "authentication:none": "no",
    "capacity": "2",
    "construction:amenity": "charging_station",
    "fee": "yes",
    "motorcar": "yes",
    "name": "LGA-XXXXX",
    "network": "Mobi.E",
    "opening_hours": "24/7",
    "operator": "unknown",
    "parking:fee": "no",
    "ref": "LGA-XXXXX",
    "socket:type2": "2",
    "socket:type2:current": "32",
    "socket:type2:output": "22kW",
    "socket:type2:voltage": "400",
    "website": "https://www.mobie.pt"
  }
},
{
  "type": "node",
  "id": 8851157010,
  "lat": 38.7597174,
  "lon": -9.1536148,
  "tags": {
    "access": "yes",
    "addr:country": "PT",
    "authentication:membership_card": "yes",
    "authentication:none": "no",
    "capacity": "2",
    "construction:amenity": "charging_station",
    "email": "suporte@mobiletric.com",
    "fee": "yes",
    "motorcar": "yes",
    "name": "LSB-00331/332",
    "network": "Mobi.E",
    "opening_hours": "24/7",
    "operator": "Mobiletric",
    "parking:fee": "no",
    "phone": "+351 800 210 204",
    "ref": "LSB-00331;LSB-00332",
    "socket:chademo": "2",
    "socket:chademo:current": "120",
    "socket:chademo:output": "50kW",
    "socket:chademo:voltage": "500",
    "socket:type2_combo": "2",
    "socket:type2_combo:current": "125",
    "socket:type2_combo:output": "50kW",
    "socket:type2_combo:voltage": "500",
    "website": "https://www.mobie.pt"
  }
},
{
  "type": "node",
  "id": 8868413626,
  "lat": 41.1845153,
  "lon": -8.6815824,
  "tags": {
    "access": "yes",
    "addr:country": "PT",
    "authentication:membership_card": "yes",
    "authentication:none": "no",
    "capacity": "2",
    "construction:amenity": "charging_station",
    "email": "clientes@clientesiberdrola.pt",
    "fee": "yes",
    "motorcar": "yes",
    "name": "MTS-XXXXX",
    "network": "Mobi.E",
    "opening_hours": "24/7",
    "operator": "Iberdrola",
    "parking:fee": "no",
    "phone": "+351 800 607 717",
    "ref": "MTS-XXXXX",
    "socket:type2": "2",
    "socket:type2:current": "32",
    "socket:type2:output": "22kW",
    "socket:type2:voltage": "400",
    "website": "https://www.mobie.pt"
  }
},
{
  "type": "node",
  "id": 8868413627,
  "lat": 41.1844456,
  "lon": -8.6815381,
  "tags": {
    "access": "yes",
    "addr:city": "Matosinhos",
    "addr:country": "PT",
    "addr:street": "Rua de Goa",
    "authentication:membership_card": "yes",
    "authentication:none": "no",
    "capacity": "1",
    "construction:amenity": "charging_station",
    "email": "clientes@clientesiberdrola.pt",
    "fee": "yes",
    "motorcar": "yes",
    "name": "MTS-XXXXX",
    "network": "Mobi.E",
    "opening_hours": "24/7",
    "operator": "Iberdrola",
    "parking:fee": "no",
    "phone": "+351 800 607 717",
    "ref": "MTS-XXXXX",
    "socket:chademo": "1",
    "socket:chademo:current": "120",
    "socket:chademo:output": "50kW",
    "socket:chademo:voltage": "500",
    "socket:type2_combo": "1",
    "socket:type2_combo:current": "350",
    "socket:type2_combo:output": "160kW",
    "socket:type2_combo:voltage": "920",
    "website": "https://www.mobie.pt"
  }
},
{
  "type": "node",
  "id": 8888322803,
  "lat": 41.6209440,
  "lon": -8.2214970,
  "tags": {
    "access": "yes",
    "addr:country": "PT",
    "authentication:membership_card": "yes",
    "authentication:none": "no",
    "capacity": "2",
    "construction:amenity": "charging_station",
    "fee": "yes",
    "motorcar": "yes",
    "name": "PVL-00002",
    "network": "Mobi.E",
    "opening_hours": "24/7",
    "operator": "Elergone Energia",
    "phone": "+351 800 100 810",
    "ref": "PVL-00002",
    "socket:type2": "2",
    "socket:type2:current": "32",
    "socket:type2:output": "7.4kW",
    "socket:type2:voltage": "230",
    "website": "https://www.mobie.pt"
  }
},
{
  "type": "node",
  "id": 8908343320,
  "lat": 38.7710583,
  "lon": -9.1282906,
  "tags": {
    "access": "yes",
    "addr:country": "PT",
    "authentication:membership_card": "yes",
    "authentication:none": "no",
    "capacity": "4",
    "construction:amenity": "charging_station",
    "email": "mobilidade.electricacrc@galp.com",
    "fee": "yes",
    "motorcar": "yes",
    "name": "LSB-00339/340 - Aeroporto Parque P2",
    "network": "Mobi.E",
    "opening_hours": "24/7",
    "operator": "Galp Power",
    "parking:fee": "yes",
    "phone": "+351 800 249 249",
    "ref": "LSB-00339;LSB-00340",
    "socket:type2": "4",
    "socket:type2:current": "16",
    "socket:type2:output": "3.7kW",
    "socket:type2:voltage": "230",
    "website": "https://www.mobie.pt"
  }
},
{
  "type": "node",
  "id": 8917640566,
  "lat": 41.2325024,
  "lon": -8.1790304,
  "tags": {
    "access": "yes",
    "addr:country": "PT",
    "authentication:membership_card": "yes",
    "authentication:none": "no",
    "capacity": "2",
    "construction:amenity": "charging_station",
    "email": "mobilidade-eletrica@edp.pt",
    "fee": "yes",
    "motorcar": "yes",
    "name": "PNF-XXXXX",
    "network": "Mobi.E",
    "opening_hours": "24/7",
    "operator": "EDP Comercial",
    "parking:fee": "no",
    "phone": "+351 800 222 222",
    "ref": "PNF-XXXXX",
    "socket:chademo": "1",
    "socket:chademo:current": "120",
    "socket:chademo:output": "50kW",
    "socket:chademo:voltage": "500",
    "socket:type2_cable": "1",
    "socket:type2_cable:current": "63",
    "socket:type2_cable:output": "43kW",
    "socket:type2_cable:voltage": "400",
    "socket:type2_combo": "1",
    "socket:type2_combo:current": "125",
    "socket:type2_combo:output": "50kW",
    "socket:type2_combo:voltage": "500",
    "website": "https://www.mobie.pt"
  }
},
{
  "type": "node",
  "id": 8917640568,
  "lat": 41.2327139,
  "lon": -8.1783863,
  "tags": {
    "access": "yes",
    "addr:country": "PT",
    "authentication:membership_card": "yes",
    "authentication:none": "no",
    "capacity": "2",
    "construction:amenity": "charging_station",
    "email": "mobilidade-eletrica@edp.pt",
    "fee": "yes",
    "motorcar": "yes",
    "name": "PNF-XXXXX",
    "network": "Mobi.E",
    "opening_hours": "24/7",
    "operator": "EDP Comercial",
    "parking:fee": "no",
    "phone": "+351 800 222 222",
    "ref": "PNF-XXXXX",
    "socket:chademo": "1",
    "socket:chademo:current": "120",
    "socket:chademo:output": "50kW",
    "socket:chademo:voltage": "500",
    "socket:type2_cable": "1",
    "socket:type2_cable:current": "63",
    "socket:type2_cable:output": "43kW",
    "socket:type2_cable:voltage": "400",
    "socket:type2_combo": "1",
    "socket:type2_combo:current": "125",
    "socket:type2_combo:output": "50kW",
    "socket:type2_combo:voltage": "500",
    "website": "https://www.mobie.pt"
  }
},
{
  "type": "node",
  "id": 8930776929,
  "lat": 40.3560510,
  "lon": -7.0756790,
  "tags": {
    "access": "yes",
    "addr:country": "PT",
    "authentication:membership_card": "yes",
    "authentication:none": "no",
    "capacity": "2",
    "construction:amenity": "charging_station",
    "email": "mobilidade.electricacrc@galp.com",
    "fee": "yes",
    "motorcar": "yes",
    "name": "SBG-00002 - Intermarché",
    "network": "Mobi.E",
    "opening_hours": "24/7",
    "operator": "Galp Power",
    "parking:fee": "no",
    "phone": "+351 800 249 249",
    "ref": "SBG-00002",
    "socket:chademo": "1",
    "socket:chademo:current": "120",
    "socket:chademo:output": "50kW",
    "socket:chademo:voltage": "500",
    "socket:type2_cable": "1",
    "socket:type2_cable:current": "63",
    "socket:type2_cable:output": "43kW",
    "socket:type2_cable:voltage": "400",
    "socket:type2_combo": "1",
    "socket:type2_combo:current": "125",
    "socket:type2_combo:output": "50kW",
    "socket:type2_combo:voltage": "500",
    "website": "https://www.mobie.pt"
  }
},
{
  "type": "node",
  "id": 8930776931,
  "lat": 38.7747311,
  "lon": -9.0963530,
  "tags": {
    "access": "yes",
    "addr:country": "PT",
    "authentication:membership_card": "yes",
    "authentication:none": "no",
    "capacity": "1",
    "construction:amenity": "charging_station",
    "fee": "yes",
    "motorcar": "yes",
    "name": "LSB-00376",
    "network": "Mobi.E",
    "opening_hours": "24/7",
    "operator": "Ucharge",
    "parking:fee": "yes",
    "ref": "LSB-00376",
    "socket:chademo": "1",
    "socket:chademo:current": "120",
    "socket:chademo:output": "50kW",
    "socket:chademo:voltage": "500",
    "socket:type2_combo": "1",
    "socket:type2_combo:current": "125",
    "socket:type2_combo:output": "50kW",
    "socket:type2_combo:voltage": "500",
    "website": "https://www.mobie.pt"
  }
},
{
  "type": "node",
  "id": 8947335630,
  "lat": 41.0073500,
  "lon": -8.6225380,
  "tags": {
    "access": "yes",
    "addr:country": "PT",
    "authentication:membership_card": "yes",
    "authentication:none": "no",
    "capacity": "2",
    "construction:amenity": "charging_station",
    "email": "clientes@clientesiberdrola.pt",
    "fee": "yes",
    "motorcar": "yes",
    "name": "ESP-00003 - Mercadona",
    "network": "Mobi.E",
    "opening_hours": "24/7",
    "operator": "Iberdrola",
    "parking:fee": "no",
    "phone": "+351 800 607 717",
    "ref": "ESP-00003",
    "socket:type2": "2",
    "socket:type2:current": "32",
    "socket:type2:output": "22kW",
    "socket:type2:voltage": "400",
    "website": "https://www.mobie.pt"
  }
},
{
  "type": "node",
  "id": 8958089018,
  "lat": 41.0925440,
  "lon": -8.5447270,
  "tags": {
    "access": "yes",
    "addr:country": "PT",
    "authentication:membership_card": "yes",
    "authentication:none": "no",
    "capacity": "2",
    "construction:amenity": "charging_station",
    "email": "ajuda@powerdot.pt",
    "fee": "yes",
    "motorcar": "yes",
    "name": "VNG-00063 - WashClub",
    "network": "Mobi.E",
    "opening_hours": "24/7",
    "operator": "Powerdot",
    "parking:fee": "no",
    "phone": "+351 800 180 292",
    "ref": "VNG-00063",
    "socket:chademo": "1",
    "socket:chademo:current": "120",
    "socket:chademo:output": "50kW",
    "socket:chademo:voltage": "500",
    "socket:type2_cable": "1",
    "socket:type2_cable:current": "63",
    "socket:type2_cable:output": "43kW",
    "socket:type2_cable:voltage": "400",
    "socket:type2_combo": "1",
    "socket:type2_combo:current": "125",
    "socket:type2_combo:output": "50kW",
    "socket:type2_combo:voltage": "500",
    "website": "https://www.mobie.pt"
  }
},
{
  "type": "node",
  "id": 8958089019,
  "lat": 41.3411420,
  "lon": -8.5579960,
  "tags": {
    "access": "yes",
    "addr:country": "PT",
    "authentication:membership_card": "yes",
    "authentication:none": "no",
    "capacity": "2",
    "construction:amenity": "charging_station",
    "email": "ajuda@powerdot.pt",
    "fee": "yes",
    "motorcar": "yes",
    "name": "TRF-00010 - SóBrilho",
    "network": "Mobi.E",
    "opening_hours": "24/7",
    "operator": "Powerdot",
    "parking:fee": "no",
    "phone": "+351 800 180 292",
    "ref": "TRF-00010",
    "socket:chademo": "1",
    "socket:chademo:current": "120",
    "socket:chademo:output": "50kW",
    "socket:chademo:voltage": "500",
    "socket:type2_cable": "1",
    "socket:type2_cable:current": "63",
    "socket:type2_cable:output": "43kW",
    "socket:type2_cable:voltage": "400",
    "socket:type2_combo": "1",
    "socket:type2_combo:current": "125",
    "socket:type2_combo:output": "50kW",
    "socket:type2_combo:voltage": "500",
    "website": "https://www.mobie.pt"
  }
},
{
  "type": "node",
  "id": 8964307128,
  "lat": 38.5155144,
  "lon": -8.5848217,
  "tags": {
    "access": "yes",
    "addr:country": "PT",
    "authentication:membership_card": "yes",
    "authentication:none": "no",
    "capacity": "1",
    "construction:amenity": "charging_station",
    "email": "mobilidade-eletrica@edp.pt",
    "fee": "yes",
    "name": "ASL-XXXXX",
    "network": "Mobi.E",
    "opening_hours": "24/7",
    "operator": "EDP Comercial",
    "parking:fee": "no",
    "phone": "+351 800 222 222",
    "ref": "ASL-XXXXX",
    "socket:chademo": "1",
    "socket:chademo:current": "120",
    "socket:chademo:output": "50kW",
    "socket:chademo:voltage": "500",
    "socket:type2_combo": "1",
    "socket:type2_combo:current": "350",
    "socket:type2_combo:output": "160kW",
    "socket:type2_combo:voltage": "920",
    "website": "https://www.mobie.pt"
  }
},
{
  "type": "node",
  "id": 8964307129,
  "lat": 38.5154641,
  "lon": -8.5847774,
  "tags": {
    "access": "yes",
    "addr:country": "PT",
    "authentication:membership_card": "yes",
    "authentication:none": "no",
    "capacity": "2",
    "construction:amenity": "charging_station",
    "email": "mobilidade-eletrica@edp.pt",
    "fee": "yes",
    "motorcar": "yes",
    "name": "ASL-XXXXX",
    "network": "Mobi.E",
    "opening_hours": "24/7",
    "operator": "EDP Comercial",
    "parking:fee": "no",
    "phone": "+351 800 222 222",
    "ref": "ASL-XXXXX",
    "socket:chademo": "1",
    "socket:chademo:current": "120",
    "socket:chademo:output": "50kW",
    "socket:chademo:voltage": "500",
    "socket:type2_cable": "1",
    "socket:type2_cable:current": "63",
    "socket:type2_cable:output": "43kW",
    "socket:type2_cable:voltage": "400",
    "socket:type2_combo": "1",
    "socket:type2_combo:current": "125",
    "socket:type2_combo:output": "50kW",
    "socket:type2_combo:voltage": "500",
    "website": "https://www.mobie.pt"
  }
},
{
  "type": "node",
  "id": 8964307130,
  "lat": 38.5154672,
  "lon": -8.5859174,
  "tags": {
    "access": "yes",
    "addr:country": "PT",
    "authentication:membership_card": "yes",
    "authentication:none": "no",
    "capacity": "2",
    "construction:amenity": "charging_station",
    "email": "mobilidade-eletrica@edp.pt",
    "fee": "yes",
    "motorcar": "yes",
    "name": "ASL-XXXXX",
    "network": "Mobi.E",
    "opening_hours": "24/7",
    "operator": "EDP Comercial",
    "parking:fee": "no",
    "phone": "+351 800 222 222",
    "ref": "ASL-XXXXX",
    "socket:chademo": "1",
    "socket:chademo:current": "120",
    "socket:chademo:output": "50kW",
    "socket:chademo:voltage": "500",
    "socket:type2_cable": "1",
    "socket:type2_cable:current": "63",
    "socket:type2_cable:output": "43kW",
    "socket:type2_cable:voltage": "400",
    "socket:type2_combo": "1",
    "socket:type2_combo:current": "125",
    "socket:type2_combo:output": "50kW",
    "socket:type2_combo:voltage": "500",
    "website": "https://www.mobie.pt"
  }
},
{
  "type": "node",
  "id": 8964307131,
  "lat": 38.5154022,
  "lon": -8.5858718,
  "tags": {
    "access": "yes",
    "addr:country": "PT",
    "authentication:membership_card": "yes",
    "authentication:none": "no",
    "capacity": "1",
    "construction:amenity": "charging_station",
    "email": "mobilidade-eletrica@edp.pt",
    "fee": "yes",
    "name": "ASL-XXXXX",
    "network": "Mobi.E",
    "opening_hours": "24/7",
    "operator": "EDP Comercial",
    "parking:fee": "no",
    "phone": "+351 800 222 222",
    "ref": "ASL-XXXXX",
    "socket:chademo": "1",
    "socket:chademo:current": "120",
    "socket:chademo:output": "50kW",
    "socket:chademo:voltage": "500",
    "socket:type2_combo": "1",
    "socket:type2_combo:current": "350",
    "socket:type2_combo:output": "160kW",
    "socket:type2_combo:voltage": "920",
    "website": "https://www.mobie.pt"
  }
},
{
  "type": "node",
  "id": 8964307132,
  "lat": 37.9233195,
  "lon": -8.2421158,
  "tags": {
    "access": "yes",
    "addr:country": "PT",
    "authentication:membership_card": "yes",
    "authentication:none": "no",
    "capacity": "2",
    "construction:amenity": "charging_station",
    "email": "mobilidade-eletrica@edp.pt",
    "fee": "yes",
    "motorcar": "yes",
    "name": "AJT-XXXXX",
    "network": "Mobi.E",
    "opening_hours": "24/7",
    "operator": "EDP Comercial",
    "parking:fee": "no",
    "phone": "+351 800 222 222",
    "ref": "AJT-XXXXX",
    "socket:chademo": "1",
    "socket:chademo:current": "120",
    "socket:chademo:output": "50kW",
    "socket:chademo:voltage": "500",
    "socket:type2_cable": "1",
    "socket:type2_cable:current": "63",
    "socket:type2_cable:output": "43kW",
    "socket:type2_cable:voltage": "400",
    "socket:type2_combo": "1",
    "socket:type2_combo:current": "125",
    "socket:type2_combo:output": "50kW",
    "socket:type2_combo:voltage": "500",
    "website": "https://www.mobie.pt"
  }
},
{
  "type": "node",
  "id": 8964307133,
  "lat": 37.9233999,
  "lon": -8.2421185,
  "tags": {
    "access": "yes",
    "addr:country": "PT",
    "authentication:membership_card": "yes",
    "authentication:none": "no",
    "capacity": "1",
    "construction:amenity": "charging_station",
    "email": "mobilidade-eletrica@edp.pt",
    "fee": "yes",
    "name": "AJT-XXXXX",
    "network": "Mobi.E",
    "opening_hours": "24/7",
    "operator": "EDP Comercial",
    "parking:fee": "no",
    "phone": "+351 800 222 222",
    "ref": "AJT-XXXXX",
    "socket:chademo": "1",
    "socket:chademo:current": "120",
    "socket:chademo:output": "50kW",
    "socket:chademo:voltage": "500",
    "socket:type2_combo": "1",
    "socket:type2_combo:current": "350",
    "socket:type2_combo:output": "160kW",
    "socket:type2_combo:voltage": "920",
    "website": "https://www.mobie.pt"
  }
},
{
  "type": "node",
  "id": 8964307134,
  "lat": 37.9238865,
  "lon": -8.2432491,
  "tags": {
    "access": "yes",
    "addr:country": "PT",
    "authentication:membership_card": "yes",
    "authentication:none": "no",
    "capacity": "1",
    "construction:amenity": "charging_station",
    "email": "mobilidade-eletrica@edp.pt",
    "fee": "yes",
    "name": "AJT-XXXXX",
    "network": "Mobi.E",
    "opening_hours": "24/7",
    "operator": "EDP Comercial",
    "parking:fee": "no",
    "phone": "+351 800 222 222",
    "ref": "AJT-XXXXX",
    "socket:chademo": "1",
    "socket:chademo:current": "120",
    "socket:chademo:output": "50kW",
    "socket:chademo:voltage": "500",
    "socket:type2_combo": "1",
    "socket:type2_combo:current": "350",
    "socket:type2_combo:output": "160kW",
    "socket:type2_combo:voltage": "920",
    "website": "https://www.mobie.pt"
  }
},
{
  "type": "node",
  "id": 8964307135,
  "lat": 37.9239584,
  "lon": -8.2432517,
  "tags": {
    "access": "yes",
    "addr:country": "PT",
    "authentication:membership_card": "yes",
    "authentication:none": "no",
    "capacity": "2",
    "construction:amenity": "charging_station",
    "email": "mobilidade-eletrica@edp.pt",
    "fee": "yes",
    "motorcar": "yes",
    "name": "AJT-XXXXX",
    "network": "Mobi.E",
    "opening_hours": "24/7",
    "operator": "EDP Comercial",
    "parking:fee": "no",
    "phone": "+351 800 222 222",
    "ref": "AJT-XXXXX",
    "socket:chademo": "1",
    "socket:chademo:current": "120",
    "socket:chademo:output": "50kW",
    "socket:chademo:voltage": "500",
    "socket:type2_cable": "1",
    "socket:type2_cable:current": "63",
    "socket:type2_cable:output": "43kW",
    "socket:type2_cable:voltage": "400",
    "socket:type2_combo": "1",
    "socket:type2_combo:current": "125",
    "socket:type2_combo:output": "50kW",
    "socket:type2_combo:voltage": "500",
    "website": "https://www.mobie.pt"
  }
},
{
  "type": "node",
  "id": 8968514560,
  "lat": 40.6499969,
  "lon": -8.6214434,
  "tags": {
    "access": "yes",
    "addr:country": "PT",
    "authentication:membership_card": "yes",
    "authentication:none": "no",
    "capacity": "2",
    "construction:amenity": "charging_station",
    "email": "apoio.cliente@kmlowcost.com",
    "fee": "yes",
    "motorcar": "yes",
    "name": "AVR-00030 - Pingo Doce",
    "network": "Mobi.E",
    "opening_hours": "24/7",
    "operator": "KLC",
    "parking:fee": "no",
    "phone": "+351 800 296 929",
    "ref": "AVR-00030",
    "socket:type2": "2",
    "socket:type2:current": "32",
    "socket:type2:output": "22kW",
    "socket:type2:voltage": "400",
    "website": "https://www.mobie.pt"
  }
},
{
  "type": "node",
  "id": 8969154278,
  "lat": 40.3318374,
  "lon": -8.4939276,
  "tags": {
    "access": "yes",
    "addr:country": "PT",
    "authentication:membership_card": "yes",
    "authentication:none": "no",
    "capacity": "2",
    "construction:amenity": "charging_station",
    "email": "mobilidade-eletrica@edp.pt",
    "fee": "yes",
    "motorcar": "yes",
    "name": "CNT-XXXXX",
    "network": "Mobi.E",
    "opening_hours": "24/7",
    "operator": "EDP Comercial",
    "parking:fee": "no",
    "phone": "+351 800 222 222",
    "ref": "CNT-XXXXX",
    "socket:chademo": "1",
    "socket:chademo:current": "120",
    "socket:chademo:output": "50kW",
    "socket:chademo:voltage": "500",
    "socket:type2_cable": "1",
    "socket:type2_cable:current": "63",
    "socket:type2_cable:output": "43kW",
    "socket:type2_cable:voltage": "400",
    "socket:type2_combo": "1",
    "socket:type2_combo:current": "125",
    "socket:type2_combo:output": "50kW",
    "socket:type2_combo:voltage": "500",
    "website": "https://www.mobie.pt"
  }
},
{
  "type": "node",
  "id": 8969154279,
  "lat": 40.3318885,
  "lon": -8.4939263,
  "tags": {
    "access": "yes",
    "addr:country": "PT",
    "authentication:membership_card": "yes",
    "authentication:none": "no",
    "capacity": "1",
    "construction:amenity": "charging_station",
    "email": "mobilidade-eletrica@edp.pt",
    "fee": "yes",
    "name": "CNT-XXXXX",
    "network": "Mobi.E",
    "opening_hours": "24/7",
    "operator": "EDP Comercial",
    "parking:fee": "no",
    "phone": "+351 800 222 222",
    "ref": "CNT-XXXXX",
    "socket:chademo": "1",
    "socket:chademo:current": "120",
    "socket:chademo:output": "50kW",
    "socket:chademo:voltage": "500",
    "socket:type2_combo": "1",
    "socket:type2_combo:current": "350",
    "socket:type2_combo:output": "160kW",
    "socket:type2_combo:voltage": "920",
    "website": "https://www.mobie.pt"
  }
},
{
  "type": "node",
  "id": 8969154280,
  "lat": 40.3342511,
  "lon": -8.4923994,
  "tags": {
    "access": "yes",
    "addr:country": "PT",
    "authentication:membership_card": "yes",
    "authentication:none": "no",
    "capacity": "2",
    "construction:amenity": "charging_station",
    "email": "mobilidade-eletrica@edp.pt",
    "fee": "yes",
    "motorcar": "yes",
    "name": "CNT-XXXXX",
    "network": "Mobi.E",
    "opening_hours": "24/7",
    "operator": "EDP Comercial",
    "parking:fee": "no",
    "phone": "+351 800 222 222",
    "ref": "CNT-XXXXX",
    "socket:chademo": "1",
    "socket:chademo:current": "120",
    "socket:chademo:output": "50kW",
    "socket:chademo:voltage": "500",
    "socket:type2_cable": "1",
    "socket:type2_cable:current": "63",
    "socket:type2_cable:output": "43kW",
    "socket:type2_cable:voltage": "400",
    "socket:type2_combo": "1",
    "socket:type2_combo:current": "125",
    "socket:type2_combo:output": "50kW",
    "socket:type2_combo:voltage": "500",
    "website": "https://www.mobie.pt"
  }
},
{
  "type": "node",
  "id": 8969154281,
  "lat": 40.3342981,
  "lon": -8.4924276,
  "tags": {
    "access": "yes",
    "addr:country": "PT",
    "authentication:membership_card": "yes",
    "authentication:none": "no",
    "capacity": "1",
    "construction:amenity": "charging_station",
    "email": "mobilidade-eletrica@edp.pt",
    "fee": "yes",
    "name": "CNT-XXXXX",
    "network": "Mobi.E",
    "opening_hours": "24/7",
    "operator": "EDP Comercial",
    "parking:fee": "no",
    "phone": "+351 800 222 222",
    "ref": "CNT-XXXXX",
    "socket:chademo": "1",
    "socket:chademo:current": "120",
    "socket:chademo:output": "50kW",
    "socket:chademo:voltage": "500",
    "socket:type2_combo": "1",
    "socket:type2_combo:current": "350",
    "socket:type2_combo:output": "160kW",
    "socket:type2_combo:voltage": "920",
    "website": "https://www.mobie.pt"
  }
},
{
  "type": "node",
  "id": 8969154282,
  "lat": 39.6007180,
  "lon": -8.4140414,
  "tags": {
    "access": "yes",
    "addr:country": "PT",
    "authentication:membership_card": "yes",
    "authentication:none": "no",
    "capacity": "2",
    "construction:amenity": "charging_station",
    "fee": "yes",
    "motorcar": "yes",
    "name": "TMR-XXXXX",
    "network": "Mobi.E",
    "opening_hours": "24/7",
    "operator": "unknown",
    "parking:fee": "no",
    "ref": "TMR-XXXXX",
    "socket:type2": "2",
    "socket:type2:current": "32",
    "socket:type2:output": "7.4kW",
    "socket:type2:voltage": "230",
    "website": "https://www.mobie.pt"
  }
},
{
  "type": "node",
  "id": 8969154283,
  "lat": 39.6006581,
  "lon": -8.4140146,
  "tags": {
    "access": "yes",
    "addr:country": "PT",
    "authentication:membership_card": "yes",
    "authentication:none": "no",
    "capacity": "4",
    "construction:amenity": "charging_station",
    "fee": "yes",
    "motorcar": "yes",
    "name": "TMR-XXXXX",
    "network": "Mobi.E",
    "opening_hours": "24/7",
    "operator": "unknown",
    "parking:fee": "no",
    "ref": "TMR-XXXXX",
    "socket:type2": "4",
    "socket:type2:current": "32",
    "socket:type2:output": "22kW",
    "socket:type2:voltage": "400",
    "website": "https://www.mobie.pt"
  }
},
{
  "type": "node",
  "id": 8969154284,
  "lat": 39.6007821,
  "lon": -8.4140628,
  "tags": {
    "access": "yes",
    "addr:country": "PT",
    "authentication:membership_card": "yes",
    "authentication:none": "no",
    "capacity": "1",
    "construction:amenity": "charging_station",
    "fee": "yes",
    "motorcar": "yes",
    "name": "TMR-XXXXX",
    "network": "Mobi.E",
    "opening_hours": "24/7",
    "operator": "unknown",
    "parking:fee": "no",
    "ref": "TMR-XXXXX",
    "socket:chademo": "1",
    "socket:chademo:current": "120",
    "socket:chademo:output": "50kW",
    "socket:chademo:voltage": "500",
    "socket:type2_combo": "1",
    "socket:type2_combo:current": "125",
    "socket:type2_combo:output": "50kW",
    "socket:type2_combo:voltage": "500",
    "website": "https://www.mobie.pt"
  }
},
{
  "type": "node",
  "id": 8972736829,
  "lat": 38.9314940,
  "lon": -9.2562120,
  "tags": {
    "access": "yes",
    "addr:country": "PT",
    "authentication:membership_card": "yes",
    "authentication:none": "no",
    "capacity": "2",
    "construction:amenity": "charging_station",
    "email": "apoio.cliente@kmlowcost.com",
    "fee": "yes",
    "motorcar": "yes",
    "name": "MFR-XXXXX",
    "network": "Mobi.E",
    "opening_hours": "24/7",
    "operator": "KLC",
    "parking:fee": "no",
    "phone": "+351 800 296 929",
    "ref": "MFR-XXXXX",
    "socket:chademo": "1",
    "socket:chademo:current": "120",
    "socket:chademo:output": "50kW",
    "socket:chademo:voltage": "500",
    "socket:type2_cable": "1",
    "socket:type2_cable:current": "63",
    "socket:type2_cable:output": "43kW",
    "socket:type2_cable:voltage": "400",
    "socket:type2_combo": "1",
    "socket:type2_combo:current": "125",
    "socket:type2_combo:output": "50kW",
    "socket:type2_combo:voltage": "500",
    "website": "https://www.mobie.pt"
  }
},
{
  "type": "node",
  "id": 8974461104,
  "lat": 37.4417409,
  "lon": -7.7701620,
  "tags": {
    "access": "yes",
    "addr:country": "PT",
    "authentication:membership_card": "yes",
    "authentication:none": "no",
    "capacity": "2",
    "construction:amenity": "charging_station",
    "email": "apoio.cliente@kmlowcost.com",
    "fee": "yes",
    "motorcar": "yes",
    "name": "ACT-00002",
    "network": "Mobi.E",
    "opening_hours": "24/7",
    "operator": "KLC",
    "parking:fee": "no",
    "phone": "+351 800 296 929",
    "ref": "ACT-90002",
    "socket:type2": "2",
    "socket:type2:current": "32",
    "socket:type2:output": "22kW",
    "socket:type2:voltage": "400",
    "website": "https://www.mobie.pt"
  }
},
{
  "type": "node",
  "id": 8986590706,
  "lat": 41.1608862,
  "lon": -8.6055310,
  "tags": {
    "access": "yes",
    "addr:country": "PT",
    "authentication:membership_card": "yes",
    "authentication:none": "no",
    "capacity": "2",
    "construction:amenity": "charging_station",
    "email": "ajuda@powerdot.pt",
    "fee": "yes",
    "location": "underground",
    "motorcar": "yes",
    "name": "PRT-00088 - Parque do Marquês",
    "network": "Mobi.E",
    "opening_hours": "24/7",
    "operator": "Powerdot",
    "parking:fee": "yes",
    "phone": "+351 800 180 292",
    "ref": "PRT-00088",
    "socket:type2": "2",
    "socket:type2:current": "32",
    "socket:type2:output": "22kW",
    "socket:type2:voltage": "400",
    "website": "https://www.mobie.pt"
  }
},
{
  "type": "node",
  "id": 8989497392,
  "lat": 38.7397125,
  "lon": -9.1683228,
  "tags": {
    "access": "yes",
    "addr:country": "PT",
    "authentication:membership_card": "yes",
    "authentication:none": "no",
    "capacity": "2",
    "construction:amenity": "charging_station",
    "fee": "yes",
    "motorcar": "yes",
    "name": "LSB-XXXXX",
    "network": "Mobi.E",
    "opening_hours": "24/7",
    "operator": "unknown",
    "parking:fee": "no",
    "ref": "LSB-XXXXX",
    "socket:chademo": "1",
    "socket:chademo:current": "120",
    "socket:chademo:output": "50kW",
    "socket:chademo:voltage": "500",
    "socket:type2_cable": "1",
    "socket:type2_cable:current": "63",
    "socket:type2_cable:output": "43kW",
    "socket:type2_cable:voltage": "400",
    "socket:type2_combo": "1",
    "socket:type2_combo:current": "125",
    "socket:type2_combo:output": "50kW",
    "socket:type2_combo:voltage": "500",
    "website": "https://www.mobie.pt"
  }
},
{
  "type": "node",
  "id": 8989497394,
  "lat": 40.1215506,
  "lon": -8.8525654,
  "tags": {
    "access": "yes",
    "addr:country": "PT",
    "authentication:membership_card": "yes",
    "authentication:none": "no",
    "capacity": "2",
    "construction:amenity": "charging_station",
    "email": "mobilidade-eletrica@edp.pt",
    "fee": "yes",
    "motorcar": "yes",
    "name": "FIG-XXXXX/X - BP",
    "network": "Mobi.E",
    "opening_hours": "24/7",
    "operator": "EDP Comercial",
    "parking:fee": "no",
    "phone": "+351 800 222 222",
    "ref": "FIG-XXXXX;FIG-XXXXX",
    "socket:chademo": "2",
    "socket:chademo:current": "120",
    "socket:chademo:output": "50kW",
    "socket:chademo:voltage": "500",
    "socket:type2_combo": "2",
    "socket:type2_combo:current": "125",
    "socket:type2_combo:output": "50kW",
    "socket:type2_combo:voltage": "500",
    "website": "https://www.mobie.pt"
  }
},
{
  "type": "node",
  "id": 8989497397,
  "lat": 38.6925315,
  "lon": -9.3117081,
  "tags": {
    "access": "yes",
    "addr:country": "PT",
    "authentication:membership_card": "yes",
    "authentication:none": "no",
    "capacity": "1",
    "construction:amenity": "charging_station",
    "fee": "yes",
    "name": "OER-XXXXX",
    "network": "unknown",
    "opening_hours": "24/7",
    "operator": "unknown",
    "parking:fee": "no",
    "ref": "OER-XXXXX",
    "socket:type2": "1",
    "socket:type2:current": "32",
    "socket:type2:output": "22kW",
    "socket:type2:voltage": "400",
    "website": "https://www.mobie.pt/"
  }
},
{
  "type": "node",
  "id": 8989497399,
  "lat": 37.0864699,
  "lon": -8.8282116,
  "tags": {
    "access": "yes",
    "addr:country": "PT",
    "authentication:membership_card": "yes",
    "authentication:none": "no",
    "capacity": "2",
    "construction:amenity": "charging_station",
    "email": "apoio.cliente@kmlowcost.com",
    "fee": "yes",
    "motorcar": "yes",
    "name": "VBP-00007",
    "network": "Mobi.E",
    "opening_hours": "24/7",
    "operator": "KLC",
    "parking:fee": "no",
    "phone": "+351 800 296 929",
    "ref": "VBP-00007",
    "socket:type2_cable": "2",
    "socket:type2_cable:current": "32",
    "socket:type2_cable:output": "22 kW",
    "socket:type2_cable:voltage": "400",
    "website": "https://www.mobie.pt"
  }
},
{
  "type": "node",
  "id": 8989497400,
  "lat": 41.5432764,
  "lon": -8.4403592,
  "tags": {
    "access": "yes",
    "addr:country": "PT",
    "authentication:membership_card": "yes",
    "authentication:none": "no",
    "capacity": "2",
    "construction:amenity": "charging_station",
    "fee": "yes",
    "motorcar": "yes",
    "name": "BRG-00043 - Cepsa",
    "network": "Mobi.E",
    "opening_hours": "24/7",
    "operator": "GRCAPP",
    "parking:fee": "no",
    "ref": "BRG-00043",
    "socket:chademo": "1",
    "socket:chademo:current": "120",
    "socket:chademo:output": "50kW",
    "socket:chademo:voltage": "500",
    "socket:type2_combo": "1",
    "socket:type2_combo:current": "125",
    "socket:type2_combo:output": "50kW",
    "socket:type2_combo:voltage": "500",
    "website": "https://www.mobie.pt"
  }
},
{
  "type": "node",
  "id": 8989930035,
  "lat": 38.6956698,
  "lon": -9.3659467,
  "tags": {
    "access": "yes",
    "addr:country": "PT",
    "authentication:membership_card": "yes",
    "authentication:none": "no",
    "capacity": "2",
    "construction:amenity": "charging_station",
    "fee": "yes",
    "motorcar": "yes",
    "name": "CSC-00074",
    "network": "Mobi.E",
    "opening_hours": "24/7",
    "operator": "HEX",
    "parking:fee": "no",
    "ref": "CSC-00074",
    "socket:type2": "2",
    "socket:type2:current": "32",
    "socket:type2:output": "22kW",
    "socket:type2:voltage": "400",
    "website": "https://www.mobie.pt"
  }
},
{
  "type": "node",
  "id": 8990093859,
  "lat": 38.7398034,
  "lon": -9.3031836,
  "tags": {
    "access": "yes",
    "addr:country": "PT",
    "authentication:membership_card": "yes",
    "authentication:none": "no",
    "capacity": "2",
    "construction:amenity": "charging_station",
    "fee": "yes",
    "name": "OER-XXXXX",
    "network": "unknown",
    "opening_hours": "24/7",
    "operator": "unknown",
    "parking:fee": "no",
    "socket:type2": "1",
    "socket:type2:current": "32",
    "socket:type2:output": "22kW",
    "socket:type2:voltage": "400"
  }
},
{
  "type": "node",
  "id": 9011024810,
  "lat": 39.7493726,
  "lon": -8.8031002,
  "tags": {
    "access": "yes",
    "addr:country": "PT",
    "authentication:membership_card": "yes",
    "authentication:none": "no",
    "capacity": "7",
    "construction:amenity": "charging_station",
    "email": "apoio.cliente@kmlowcost.com",
    "fee": "yes",
    "motorcar": "yes",
    "name": "LRA-00037",
    "network": "Mobi.E",
    "opening_hours": "24/7",
    "operator": "KLC",
    "parking:fee": "yes",
    "phone": "+351 800 296 929",
    "ref": "LRA-00037",
    "socket:type2": "6",
    "socket:type2:current": "32",
    "socket:type2:output": "22kW",
    "socket:type2:voltage": "400",
    "socket:type2_combo": "1",
    "socket:type2_combo:current": "60",
    "socket:type2_combo:output": "25kW",
    "socket:type2_combo:voltage": "920",
    "website": "https://www.mobie.pt"
  }
},
{
  "type": "node",
  "id": 9011185652,
  "lat": 38.7190705,
  "lon": -9.2629929,
  "tags": {
    "access": "yes",
    "addr:country": "PT",
    "authentication:membership_card": "yes",
    "authentication:none": "no",
    "capacity": "1",
    "construction:amenity": "charging_station",
    "fee": "yes",
    "motorcar": "yes",
    "name": "OER-XXXXX",
    "network": "Mobi.E",
    "opening_hours": "24/7",
    "operator": "unknown",
    "parking:fee": "no",
    "ref": "OER-XXXXX",
    "socket:type2": "1",
    "socket:type2:current": "32",
    "socket:type2:output": "22kW",
    "socket:type2:voltage": "400",
    "website": "https://www.mobie.pt"
  }
},
{
  "type": "node",
  "id": 9023863812,
  "lat": 39.3924057,
  "lon": -8.6382359,
  "tags": {
    "access": "yes",
    "addr:country": "PT",
    "addr:street": "Área de Serviço de Santarém",
    "authentication:membership_card": "yes",
    "authentication:none": "no",
    "capacity": "2",
    "construction:amenity": "charging_station",
    "email": "mobilidade-eletrica@edp.pt",
    "fee": "yes",
    "motorcar": "yes",
    "name": "STR-XXXXX",
    "network": "Mobi.E",
    "opening_hours": "24/7",
    "operator": "EDP Comercial",
    "parking:fee": "no",
    "phone": "+351 800 222 222",
    "ref": "STR-XXXXX",
    "socket:chademo": "1",
    "socket:chademo:current": "120",
    "socket:chademo:output": "50kW",
    "socket:chademo:voltage": "500",
    "socket:type2_cable": "1",
    "socket:type2_cable:current": "63",
    "socket:type2_cable:output": "43kW",
    "socket:type2_cable:voltage": "400",
    "socket:type2_combo": "2",
    "socket:type2_combo:current": "125",
    "socket:type2_combo:output": "50kW",
    "socket:type2_combo:voltage": "500",
    "website": "https://www.mobie.pt"
  }
},
{
  "type": "node",
  "id": 9033085848,
  "lat": 38.1677418,
  "lon": -8.4914041,
  "tags": {
    "access": "yes",
    "addr:country": "PT",
    "authentication:membership_card": "yes",
    "authentication:none": "no",
    "capacity": "2",
    "construction:amenity": "charging_station",
    "email": "mobilidade-eletrica@edp.pt",
    "fee": "yes",
    "motorcar": "yes",
    "name": "GDL-XXXXX",
    "network": "Mobi.E",
    "opening_hours": "24/7",
    "operator": "EDP Comercial",
    "parking:fee": "no",
    "phone": "+351 800 222 222",
    "ref": "GDL-XXXXX",
    "socket:chademo": "1",
    "socket:chademo:current": "120",
    "socket:chademo:output": "50kW",
    "socket:chademo:voltage": "500",
    "socket:type2_cable": "1",
    "socket:type2_cable:current": "63",
    "socket:type2_cable:output": "43kW",
    "socket:type2_cable:voltage": "400",
    "socket:type2_combo": "1",
    "socket:type2_combo:current": "125",
    "socket:type2_combo:output": "50kW",
    "socket:type2_combo:voltage": "500",
    "website": "https://www.mobie.pt"
  }
},
{
  "type": "node",
  "id": 9033085849,
  "lat": 38.1669278,
  "lon": -8.4919612,
  "tags": {
    "access": "yes",
    "addr:country": "PT",
    "authentication:membership_card": "yes",
    "authentication:none": "no",
    "capacity": "2",
    "construction:amenity": "charging_station",
    "email": "mobilidade-eletrica@edp.pt",
    "fee": "yes",
    "motorcar": "yes",
    "name": "GDL-XXXXX",
    "network": "Mobi.E",
    "opening_hours": "24/7",
    "operator": "EDP Comercial",
    "parking:fee": "no",
    "phone": "+351 800 222 222",
    "ref": "GDL-XXXXX",
    "socket:chademo": "1",
    "socket:chademo:current": "120",
    "socket:chademo:output": "50kW",
    "socket:chademo:voltage": "500",
    "socket:type2_cable": "1",
    "socket:type2_cable:current": "63",
    "socket:type2_cable:output": "43kW",
    "socket:type2_cable:voltage": "400",
    "socket:type2_combo": "1",
    "socket:type2_combo:current": "125",
    "socket:type2_combo:output": "50kW",
    "socket:type2_combo:voltage": "500",
    "website": "https://www.mobie.pt"
  }
},
{
  "type": "node",
  "id": 9043894687,
  "lat": 39.0536604,
  "lon": -8.6693796,
  "tags": {
    "access": "yes",
    "addr:country": "PT",
    "authentication:membership_card": "yes",
    "authentication:none": "no",
    "capacity": "2",
    "construction:amenity": "charging_station",
    "fee": "yes",
    "motorcar": "yes",
    "name": "SMG-00004",
    "network": "Mobi.E",
    "opening_hours": "24/7",
    "operator": "Galp Geste",
    "parking:fee": "no",
    "ref": "SMG-00004",
    "socket:chademo": "1",
    "socket:chademo:current": "120",
    "socket:chademo:output": "50kW",
    "socket:chademo:voltage": "500",
    "socket:type2_cable": "1",
    "socket:type2_cable:current": "63",
    "socket:type2_cable:output": "43kW",
    "socket:type2_cable:voltage": "400",
    "socket:type2_combo": "1",
    "socket:type2_combo:current": "125",
    "socket:type2_combo:output": "50kW",
    "socket:type2_combo:voltage": "500",
    "website": "https://www.mobie.pt"
  }
},
{
  "type": "node",
  "id": 9043894688,
  "lat": 39.0535909,
  "lon": -8.6682232,
  "tags": {
    "access": "yes",
    "addr:country": "PT",
    "authentication:membership_card": "yes",
    "authentication:none": "no",
    "capacity": "2",
    "construction:amenity": "charging_station",
    "fee": "yes",
    "motorcar": "yes",
    "name": "SMG-00003",
    "network": "Mobi.E",
    "opening_hours": "24/7",
    "operator": "Galp Geste",
    "parking:fee": "no",
    "ref": "SMG-00003",
    "socket:type2": "2",
    "socket:type2:current": "32",
    "socket:type2:output": "22kW",
    "socket:type2:voltage": "400",
    "website": "https://www.mobie.pt"
  }
},
{
  "type": "node",
  "id": 9043907636,
  "lat": 38.7269062,
  "lon": -8.6700751,
  "tags": {
    "access": "yes",
    "addr:country": "PT",
    "authentication:membership_card": "yes",
    "authentication:none": "no",
    "capacity": "2",
    "construction:amenity": "charging_station",
    "fee": "yes",
    "motorcar": "yes",
    "name": "MTJ-00015",
    "network": "Mobi.E",
    "opening_hours": "24/7",
    "operator": "Galp Geste",
    "parking:fee": "no",
    "ref": "MTJ-00015",
    "socket:chademo": "1",
    "socket:chademo:current": "120",
    "socket:chademo:output": "50kW",
    "socket:chademo:voltage": "500",
    "socket:type2_cable": "1",
    "socket:type2_cable:current": "63",
    "socket:type2_cable:output": "43kW",
    "socket:type2_cable:voltage": "400",
    "socket:type2_combo": "1",
    "socket:type2_combo:current": "125",
    "socket:type2_combo:output": "50kW",
    "socket:type2_combo:voltage": "500",
    "website": "https://www.mobie.pt"
  }
},
{
  "type": "node",
  "id": 9043907637,
  "lat": 38.7259094,
  "lon": -8.6704834,
  "tags": {
    "access": "yes",
    "addr:country": "PT",
    "authentication:membership_card": "yes",
    "authentication:none": "no",
    "capacity": "2",
    "construction:amenity": "charging_station",
    "fee": "yes",
    "motorcar": "yes",
    "name": "MTJ-00017",
    "network": "Mobi.E",
    "opening_hours": "24/7",
    "operator": "Galp Geste",
    "parking:fee": "no",
    "ref": "MTJ-00017",
    "socket:chademo": "1",
    "socket:chademo:current": "120",
    "socket:chademo:output": "50kW",
    "socket:chademo:voltage": "500",
    "socket:type2_cable": "1",
    "socket:type2_cable:current": "63",
    "socket:type2_cable:output": "43kW",
    "socket:type2_cable:voltage": "400",
    "socket:type2_combo": "1",
    "socket:type2_combo:current": "125",
    "socket:type2_combo:output": "50kW",
    "socket:type2_combo:voltage": "500",
    "website": "https://www.mobie.pt"
  }
},
{
  "type": "node",
  "id": 9043907638,
  "lat": 38.6225999,
  "lon": -9.1335751,
  "tags": {
    "access": "yes",
    "addr:country": "PT",
    "authentication:membership_card": "yes",
    "authentication:none": "no",
    "capacity": "1",
    "construction:amenity": "charging_station",
    "email": "mobilidade-eletrica@edp.pt",
    "fee": "yes",
    "name": "SXL-00016 - BP",
    "network": "Mobi.E",
    "opening_hours": "24/7",
    "operator": "EDP Comercial",
    "parking:fee": "no",
    "phone": "+351 800 222 222",
    "ref": "SXL-00016",
    "socket:chademo": "1",
    "socket:chademo:current": "120",
    "socket:chademo:output": "50kW",
    "socket:chademo:voltage": "500",
    "socket:type2_combo": "1",
    "socket:type2_combo:current": "350",
    "socket:type2_combo:output": "160kW",
    "socket:type2_combo:voltage": "920",
    "website": "https://www.mobie.pt"
  }
},
{
  "type": "node",
  "id": 9043918681,
  "lat": 40.7552282,
  "lon": -8.5365740,
  "tags": {
    "access": "yes",
    "addr:country": "PT",
    "authentication:membership_card": "yes",
    "authentication:none": "no",
    "capacity": "1",
    "construction:amenity": "charging_station",
    "fee": "yes",
    "motorcar": "yes",
    "name": "ETR-XXXXX",
    "network": "Mobi.E",
    "opening_hours": "24/7",
    "operator": "unknown",
    "parking:fee": "no",
    "ref": "ETR-XXXXX",
    "socket:chademo": "1",
    "socket:chademo:current": "120",
    "socket:chademo:output": "50kW",
    "socket:chademo:voltage": "500",
    "socket:type2_combo": "1",
    "socket:type2_combo:current": "350",
    "socket:type2_combo:output": "160kW",
    "socket:type2_combo:voltage": "920",
    "website": "https://www.mobie.pt"
  }
},
{
  "type": "node",
  "id": 9043918682,
  "lat": 40.7557670,
  "lon": -8.5352463,
  "tags": {
    "access": "yes",
    "addr:country": "PT",
    "authentication:membership_card": "yes",
    "authentication:none": "no",
    "capacity": "1",
    "construction:amenity": "charging_station",
    "fee": "yes",
    "motorcar": "yes",
    "name": "ETR-XXXXX",
    "network": "Mobi.E",
    "opening_hours": "24/7",
    "operator": "unknown",
    "parking:fee": "no",
    "ref": "ETR-XXXXX",
    "socket:chademo": "1",
    "socket:chademo:current": "120",
    "socket:chademo:output": "50kW",
    "socket:chademo:voltage": "500",
    "socket:type2_combo": "1",
    "socket:type2_combo:current": "350",
    "socket:type2_combo:output": "160kW",
    "socket:type2_combo:voltage": "920",
    "website": "https://www.mobie.pt"
  }
},
{
  "type": "node",
  "id": 9043954459,
  "lat": 38.7269242,
  "lon": -8.6700942,
  "tags": {
    "access": "yes",
    "addr:country": "PT",
    "authentication:membership_card": "yes",
    "authentication:none": "no",
    "capacity": "2",
    "construction:amenity": "charging_station",
    "fee": "yes",
    "motorcar": "yes",
    "name": "MTJ-00016",
    "network": "Mobi.E",
    "opening_hours": "24/7",
    "operator": "Galp Geste",
    "parking:fee": "no",
    "ref": "MTJ-00016",
    "socket:type2": "2",
    "socket:type2:current": "32",
    "socket:type2:output": "22kW",
    "socket:type2:voltage": "400",
    "website": "https://www.mobie.pt"
  }
},
{
  "type": "node",
  "id": 9043954460,
  "lat": 38.7258858,
  "lon": -8.6704571,
  "tags": {
    "access": "yes",
    "addr:country": "PT",
    "authentication:membership_card": "yes",
    "authentication:none": "no",
    "capacity": "2",
    "construction:amenity": "charging_station",
    "fee": "yes",
    "motorcar": "yes",
    "name": "MTJ-00018",
    "network": "Mobi.E",
    "opening_hours": "24/7",
    "operator": "Galp Geste",
    "parking:fee": "no",
    "ref": "MTJ-00018",
    "socket:type2": "2",
    "socket:type2:current": "32",
    "socket:type2:output": "22kW",
    "socket:type2:voltage": "400",
    "website": "https://www.mobie.pt"
  }
},
{
  "type": "node",
  "id": 9044026704,
  "lat": 39.0536328,
  "lon": -8.6693849,
  "tags": {
    "access": "yes",
    "addr:country": "PT",
    "authentication:membership_card": "yes",
    "authentication:none": "no",
    "capacity": "2",
    "construction:amenity": "charging_station",
    "fee": "yes",
    "motorcar": "yes",
    "name": "SMG-00005",
    "network": "Mobi.E",
    "opening_hours": "24/7",
    "operator": "Galp Geste",
    "parking:fee": "no",
    "ref": "SMG-00005",
    "socket:type2": "2",
    "socket:type2:current": "32",
    "socket:type2:output": "22kW",
    "socket:type2:voltage": "400",
    "website": "https://www.mobie.pt"
  }
},
{
  "type": "node",
  "id": 9044026705,
  "lat": 39.0536246,
  "lon": -8.6682100,
  "tags": {
    "access": "yes",
    "addr:country": "PT",
    "authentication:membership_card": "yes",
    "authentication:none": "no",
    "capacity": "2",
    "construction:amenity": "charging_station",
    "fee": "yes",
    "motorcar": "yes",
    "name": "SMG-00002",
    "network": "Mobi.E",
    "opening_hours": "24/7",
    "operator": "Galp Geste",
    "parking:fee": "no",
    "ref": "SMG-00002",
    "socket:chademo": "1",
    "socket:chademo:current": "120",
    "socket:chademo:output": "50kW",
    "socket:chademo:voltage": "500",
    "socket:type2_cable": "1",
    "socket:type2_cable:current": "63",
    "socket:type2_cable:output": "43kW",
    "socket:type2_cable:voltage": "400",
    "socket:type2_combo": "1",
    "socket:type2_combo:current": "125",
    "socket:type2_combo:output": "50kW",
    "socket:type2_combo:voltage": "500",
    "website": "https://www.mobie.pt"
  }
},
{
  "type": "node",
  "id": 9065817479,
  "lat": 41.3681114,
  "lon": -8.7430546,
  "tags": {
    "access": "yes",
    "addr:country": "PT",
    "authentication:membership_card": "yes",
    "authentication:none": "no",
    "capacity": "2",
    "construction:amenity": "charging_station",
    "email": "clientes@clientesiberdrola.pt",
    "fee": "yes",
    "motorcar": "yes",
    "name": "VCD-00008 - Mercadona",
    "network": "Mobi.E",
    "opening_hours": "24/7",
    "operator": "Iberdrola",
    "parking:fee": "no",
    "phone": "+351 800 607 717",
    "ref": "VCD-00008",
    "socket:type2": "2",
    "socket:type2:current": "32",
    "socket:type2:output": "22kW",
    "socket:type2:voltage": "400",
    "website": "https://www.mobie.pt"
  }
},
{
  "type": "node",
  "id": 9091815463,
  "lat": 39.6453770,
  "lon": -8.7706990,
  "tags": {
    "access": "yes",
    "addr:country": "PT",
    "authentication:membership_card": "yes",
    "authentication:none": "no",
    "capacity": "2",
    "construction:amenity": "charging_station",
    "fee": "yes",
    "motorcar": "yes",
    "name": "LRA-00035 - Coviran",
    "network": "Mobi.E",
    "opening_hours": "24/7",
    "operator": "High Green Power",
    "parking:fee": "no",
    "ref": "LRA-00035",
    "socket:type2": "2",
    "socket:type2:current": "32",
    "socket:type2:output": "7.4kW",
    "socket:type2:voltage": "230",
    "website": "https://www.mobie.pt"
  }
},
{
  "type": "node",
  "id": 9091883670,
  "lat": 38.7157000,
  "lon": -9.2999460,
  "tags": {
    "access": "yes",
    "addr:country": "PT",
    "authentication:membership_card": "yes",
    "authentication:none": "no",
    "capacity": "2",
    "construction:amenity": "charging_station",
    "email": "apoio.cliente@kmlowcost.com",
    "fee": "yes",
    "motorcar": "yes",
    "name": "OER-00067 - Lidl",
    "network": "Mobi.E",
    "opening_hours": "24/7",
    "operator": "KLC",
    "parking:fee": "no",
    "phone": "+351 800 296 929",
    "ref": "OER-00067",
    "socket:chademo": "1",
    "socket:chademo:current": "120",
    "socket:chademo:output": "50kW",
    "socket:chademo:voltage": "500",
    "socket:type2_cable": "1",
    "socket:type2_cable:current": "63",
    "socket:type2_cable:output": "43kW",
    "socket:type2_cable:voltage": "400",
    "socket:type2_combo": "1",
    "socket:type2_combo:current": "125",
    "socket:type2_combo:output": "50kW",
    "socket:type2_combo:voltage": "500",
    "website": "https://www.mobie.pt"
  }
},
{
  "type": "node",
  "id": 9095146044,
  "lat": 39.3594700,
  "lon": -8.4806170,
  "tags": {
    "access": "yes",
    "addr:country": "PT",
    "authentication:membership_card": "yes",
    "authentication:none": "no",
    "capacity": "2",
    "construction:amenity": "charging_station",
    "fee": "yes",
    "motorcar": "yes",
    "name": "CHM-XXXXX - Câmara Municipal",
    "network": "Mobi.E",
    "opening_hours": "24/7",
    "operator": "unknown",
    "parking:fee": "no",
    "ref": "CHM-XXXXX",
    "socket:chademo": "1",
    "socket:chademo:current": "120",
    "socket:chademo:output": "50kW",
    "socket:chademo:voltage": "500",
    "socket:type2_cable": "1",
    "socket:type2_cable:current": "63",
    "socket:type2_cable:output": "43kW",
    "socket:type2_cable:voltage": "400",
    "socket:type2_combo": "1",
    "socket:type2_combo:current": "125",
    "socket:type2_combo:output": "50kW",
    "socket:type2_combo:voltage": "500",
    "website": "https://www.mobie.pt"
  }
},
{
  "type": "node",
  "id": 9095146048,
  "lat": 39.3566160,
  "lon": -8.4826760,
  "tags": {
    "access": "yes",
    "addr:country": "PT",
    "authentication:membership_card": "yes",
    "authentication:none": "no",
    "capacity": "2",
    "construction:amenity": "charging_station",
    "fee": "yes",
    "motorcar": "yes",
    "name": "CHM-XXXXX - Mercado Municipal",
    "network": "Mobi.E",
    "opening_hours": "24/7",
    "operator": "unknown",
    "parking:fee": "no",
    "ref": "CHM-XXXXX",
    "socket:chademo": "1",
    "socket:chademo:current": "120",
    "socket:chademo:output": "50kW",
    "socket:chademo:voltage": "500",
    "socket:type2_cable": "1",
    "socket:type2_cable:current": "63",
    "socket:type2_cable:output": "43kW",
    "socket:type2_cable:voltage": "400",
    "socket:type2_combo": "1",
    "socket:type2_combo:current": "125",
    "socket:type2_combo:output": "50kW",
    "socket:type2_combo:voltage": "500",
    "website": "https://www.mobie.pt"
  }
},
{
  "type": "node",
  "id": 9108791147,
  "lat": 38.8087824,
  "lon": -9.1569257,
  "tags": {
    "access": "yes",
    "addr:country": "PT",
    "authentication:membership_card": "yes",
    "authentication:none": "no",
    "capacity": "2",
    "construction:amenity": "charging_station",
    "email": "mobilidade-eletrica@edp.pt",
    "fee": "yes",
    "motorcar": "yes",
    "name": "LRX-XXXXX - McDonald's",
    "network": "Mobi.E",
    "opening_hours": "24/7",
    "operator": "EDP Comercial",
    "parking:fee": "no",
    "phone": "+351 800 222 222",
    "ref": "LRS-XXXXX",
    "socket:chademo": "1",
    "socket:chademo:current": "120",
    "socket:chademo:output": "50kW",
    "socket:chademo:voltage": "500",
    "socket:type2_cable": "1",
    "socket:type2_cable:current": "63",
    "socket:type2_cable:output": "43kW",
    "socket:type2_cable:voltage": "400",
    "socket:type2_combo": "1",
    "socket:type2_combo:current": "125",
    "socket:type2_combo:output": "50kW",
    "socket:type2_combo:voltage": "500",
    "website": "https://www.mobie.pt"
  }
},
{
  "type": "node",
  "id": 9108791148,
  "lat": 38.8265281,
  "lon": -9.1627907,
  "tags": {
    "access": "yes",
    "addr:country": "PT",
    "authentication:membership_card": "yes",
    "authentication:none": "no",
    "capacity": "2",
    "construction:amenity": "charging_station",
    "email": "mobilidade.electricacrc@galp.com",
    "fee": "yes",
    "motorcar": "yes",
    "name": "LRS-XXXXX - Galp",
    "network": "Mobi.E",
    "opening_hours": "24/7",
    "operator": "Galp Power",
    "parking:fee": "no",
    "phone": "+351 800 249 249",
    "ref": "LRS-XXXXX",
    "socket:chademo": "1",
    "socket:chademo:current": "120",
    "socket:chademo:output": "50kW",
    "socket:chademo:voltage": "500",
    "socket:type2_cable": "1",
    "socket:type2_cable:current": "63",
    "socket:type2_cable:output": "43kW",
    "socket:type2_cable:voltage": "400",
    "socket:type2_combo": "1",
    "socket:type2_combo:current": "125",
    "socket:type2_combo:output": "50kW",
    "socket:type2_combo:voltage": "500",
    "website": "https://www.mobie.pt"
  }
},
{
  "type": "node",
  "id": 9118724925,
  "lat": 38.6813890,
  "lon": -9.3261090,
  "tags": {
    "access": "yes",
    "addr:country": "PT",
    "authentication:membership_card": "yes",
    "authentication:none": "no",
    "capacity": "2",
    "construction:amenity": "charging_station",
    "fee": "yes",
    "motorcar": "yes",
    "name": "CSC-00075",
    "network": "Mobi.E",
    "opening_hours": "24/7",
    "operator": "HEX",
    "parking:fee": "no",
    "ref": "CSC-00075",
    "socket:type2": "2",
    "socket:type2:current": "32",
    "socket:type2:output": "22kW",
    "socket:type2:voltage": "400",
    "website": "https://www.mobie.pt"
  }
},
{
  "type": "node",
  "id": 9118724926,
  "lat": 37.0887998,
  "lon": -8.2565768,
  "tags": {
    "access": "yes",
    "addr:country": "PT",
    "authentication:membership_card": "yes",
    "authentication:none": "no",
    "capacity": "2",
    "construction:amenity": "charging_station",
    "email": "apoio.cliente@kmlowcost.com",
    "fee": "yes",
    "motorcar": "yes",
    "name": "ABF-00027",
    "network": "Mobi.E",
    "opening_hours": "24/7",
    "operator": "KLC",
    "parking:fee": "no",
    "phone": "+351 800 296 929",
    "ref": "ABF-00027",
    "socket:type2": "2",
    "socket:type2:current": "32",
    "socket:type2:output": "22kW",
    "socket:type2:voltage": "400",
    "website": "https://www.mobie.pt"
  }
},
{
  "type": "node",
  "id": 9121105018,
  "lat": 40.7509660,
  "lon": -8.6485441,
  "tags": {
    "access": "yes",
    "addr:country": "PT",
    "authentication:membership_card": "yes",
    "authentication:none": "no",
    "capacity": "2",
    "construction:amenity": "charging_station",
    "email": "ajuda@powerdot.pt",
    "fee": "yes",
    "motorcar": "yes",
    "name": "MRS-XXXXX",
    "network": "Mobi.E",
    "opening_hours": "24/7",
    "operator": "Powerdot",
    "parking:fee": "no",
    "phone": "+351 800 180 292",
    "ref": "MRS-XXXXX",
    "socket:type2": "2",
    "socket:type2:current": "32",
    "socket:type2:output": "22kW",
    "socket:type2:voltage": "400",
    "website": "https://www.mobie.pt"
  }
},
{
  "type": "node",
  "id": 9135955335,
  "lat": 41.4420200,
  "lon": -8.3043100,
  "tags": {
    "access": "yes",
    "addr:country": "PT",
    "authentication:membership_card": "yes",
    "authentication:none": "no",
    "capacity": "6",
    "construction:amenity": "charging_station",
    "email": "geral.pt@helexia.eu",
    "fee": "yes",
    "motorcar": "yes",
    "name": "GMR-00024/25/26 - Hospital de Guimarães",
    "network": "Mobi.E",
    "opening_hours": "24/7",
    "operator": "Helexia II",
    "parking:fee": "no",
    "phone": "+351 800 100 303",
    "ref": "GMR-00024;GMR-00025;GMR-00026",
    "socket:type2": "6",
    "socket:type2:current": "32",
    "socket:type2:output": "22kW",
    "socket:type2:voltage": "400",
    "website": "https://www.mobie.pt"
  }
},
{
  "type": "node",
  "id": 9138619734,
  "lat": 41.2014143,
  "lon": -8.6951094,
  "tags": {
    "access": "yes",
    "addr:country": "PT",
    "authentication:membership_card": "yes",
    "authentication:none": "no",
    "capacity": "2",
    "construction:amenity": "charging_station",
    "email": "clientes@clientesiberdrola.pt",
    "fee": "yes",
    "motorcar": "yes",
    "name": "MTS-00039 - Mercadona",
    "network": "Mobi.E",
    "opening_hours": "24/7",
    "operator": "Iberdrola",
    "parking:fee": "no",
    "phone": "+351 800 607 717",
    "ref": "MTS-00039",
    "socket:type2": "2",
    "socket:type2:current": "32",
    "socket:type2:output": "22kW",
    "socket:type2:voltage": "400",
    "website": "https://www.mobie.pt"
  }
},
{
  "type": "node",
  "id": 9141358127,
  "lat": 38.8142255,
  "lon": -9.1886339,
  "tags": {
    "access": "yes",
    "addr:city": "Ramada",
    "addr:country": "PT",
    "addr:street": "Avenida Augusto Hilário",
    "authentication:membership_card": "yes",
    "authentication:none": "no",
    "capacity": "1",
    "construction:amenity": "charging_station",
    "email": "apoio.cliente@kmlowcost.com",
    "fee": "yes",
    "motorcar": "yes",
    "name": "ODV-XXXXX - Pingo Doce",
    "network": "Mobi.E",
    "opening_hours": "24/7",
    "operator": "KLC",
    "parking:fee": "no",
    "phone": "+351 800 296 929",
    "ref": "ODV-XXXXX",
    "socket:chademo": "1",
    "socket:chademo:current": "120",
    "socket:chademo:output": "50kW",
    "socket:chademo:voltage": "500",
    "socket:type2_cable": "1",
    "socket:type2_cable:current": "63",
    "socket:type2_cable:output": "43kW",
    "socket:type2_cable:voltage": "400",
    "socket:type2_combo": "1",
    "socket:type2_combo:current": "125",
    "socket:type2_combo:output": "50kW",
    "socket:type2_combo:voltage": "500",
    "website": "https://www.mobie.pt"
  }
},
{
  "type": "node",
  "id": 9173300830,
  "lat": 39.2076874,
  "lon": -8.0562492,
  "tags": {
    "access": "customers",
    "addr:country": "PT",
    "authentication:membership_card": "yes",
    "authentication:none": "no",
    "capacity": "2",
    "construction:amenity": "charging_station",
    "fee": "yes",
    "motorcar": "yes",
    "name": "PSR-00003",
    "network": "Mobi.E",
    "opening_hours": "24/7",
    "operator": "unknown",
    "parking:fee": "no",
    "ref": "PSR-00003",
    "socket:type2": "2",
    "socket:type2:current": "32",
    "socket:type2:output": "22kW",
    "socket:type2:voltage": "400",
    "website": "https://www.mobie.pt/"
  }
},
{
  "type": "node",
  "id": 9181018563,
  "lat": 40.3583249,
  "lon": -7.3523542,
  "tags": {
    "access": "yes",
    "addr:country": "PT",
    "authentication:membership_card": "yes",
    "authentication:none": "no",
    "capacity": "2",
    "construction:amenity": "charging_station",
    "fee": "yes",
    "motorcar": "yes",
    "name": "BMT-00001",
    "network": "Mobi.E",
    "opening_hours": "24/7",
    "operator": "Powerdot",
    "parking:fee": "no",
    "ref": "BMT-90001",
    "socket:type2": "2",
    "socket:type2:current": "32",
    "socket:type2:output": "22kW",
    "socket:type2:voltage": "400",
    "website": "https://www.mobie.pt/"
  }
},
{
  "type": "node",
  "id": 9183789565,
  "lat": 38.8496499,
  "lon": -7.5852429,
  "tags": {
    "access": "yes",
    "addr:country": "PT",
    "authentication:membership_card": "yes",
    "authentication:none": "no",
    "capacity": "2",
    "construction:amenity": "charging_station",
    "fee": "yes",
    "motorcar": "yes",
    "name": "ETZ-00010 - Lidl",
    "network": "Mobi.E",
    "opening_hours": "24/7",
    "operator": "KLC",
    "parking:fee": "no",
    "ref": "ETZ-00010",
    "socket:chademo": "1",
    "socket:chademo:current": "120",
    "socket:chademo:output": "50kW",
    "socket:chademo:voltage": "500",
    "socket:type2_cable": "1",
    "socket:type2_cable:current": "63",
    "socket:type2_cable:output": "43kW",
    "socket:type2_cable:voltage": "400",
    "socket:type2_combo": "1",
    "socket:type2_combo:current": "125",
    "socket:type2_combo:output": "50kW",
    "socket:type2_combo:voltage": "500",
    "website": "https://www.mobie.pt/"
  }
},
{
  "type": "node",
  "id": 9191518349,
  "lat": 41.1516458,
  "lon": -8.6061942,
  "tags": {
    "access": "yes",
    "addr:country": "PT",
    "authentication:membership_card": "yes",
    "authentication:none": "no",
    "capacity": "2",
    "construction:amenity": "charging_station",
    "fee": "yes",
    "motorcar": "yes",
    "name": "PRT-00107/108/109 - Garagem Sá da Bandeira",
    "network": "Mobi.E",
    "opening_hours": "24/7",
    "operator": "Galp Power",
    "parking:fee": "yes",
    "ref": "PRT-00107;PRT-00108;PRT-00109",
    "socket:type2": "2",
    "socket:type2:current": "32",
    "socket:type2:output": "22kW",
    "socket:type2:voltage": "400",
    "website": "https://www.mobie.pt/"
  }
},
{
  "type": "node",
  "id": 9191518350,
  "lat": 38.7533036,
  "lon": -9.1834559,
  "tags": {
    "access": "yes",
    "addr:country": "PT",
    "authentication:membership_card": "yes",
    "authentication:none": "no",
    "capacity": "4",
    "construction:amenity": "charging_station",
    "fee": "yes",
    "motorcar": "yes",
    "name": "LSB-00402/403",
    "network": "Mobi.E",
    "opening_hours": "24/7",
    "operator": "EDP Comercial",
    "parking:fee": "yes",
    "ref": "LSB-00402;LSB-00403",
    "socket:type2": "4",
    "socket:type2:current": "32",
    "socket:type2:output": "22kW",
    "socket:type2:voltage": "400",
    "website": "https://www.mobie.pt/"
  }
},
{
  "type": "node",
  "id": 9191518351,
  "lat": 38.7532464,
  "lon": -9.1834214,
  "tags": {
    "access": "yes",
    "addr:country": "PT",
    "authentication:membership_card": "yes",
    "authentication:none": "no",
    "capacity": "1",
    "construction:amenity": "charging_station",
    "fee": "yes",
    "motorcar": "yes",
    "name": "LSB-00401",
    "network": "Mobi.E",
    "opening_hours": "24/7",
    "operator": "EDP Comercial",
    "parking:fee": "yes",
    "ref": "LSB-00401",
    "socket:chademo": "1",
    "socket:chademo:current": "120",
    "socket:chademo:output": "50kW",
    "socket:chademo:voltage": "500",
    "socket:type2_combo": "1",
    "socket:type2_combo:current": "350",
    "socket:type2_combo:output": "160kW",
    "socket:type2_combo:voltage": "920",
    "website": "https://www.mobie.pt/"
  }
},
{
  "type": "node",
  "id": 9191518352,
  "lat": 38.7532741,
  "lon": -9.1834381,
  "tags": {
    "access": "yes",
    "addr:country": "PT",
    "authentication:membership_card": "yes",
    "authentication:none": "no",
    "capacity": "2",
    "construction:amenity": "charging_station",
    "fee": "yes",
    "motorcar": "yes",
    "name": "LSB-00400",
    "network": "Mobi.E",
    "opening_hours": "24/7",
    "operator": "EDP Comercial",
    "parking:fee": "yes",
    "ref": "LSB-00400",
    "socket:chademo": "1",
    "socket:chademo:current": "120",
    "socket:chademo:output": "50kW",
    "socket:chademo:voltage": "500",
    "socket:type2_cable": "1",
    "socket:type2_cable:current": "32",
    "socket:type2_cable:output": "22kW",
    "socket:type2_cable:voltage": "400",
    "socket:type2_combo": "1",
    "socket:type2_combo:current": "125",
    "socket:type2_combo:output": "50kW",
    "socket:type2_combo:voltage": "500",
    "website": "https://www.mobie.pt/"
  }
},
{
  "type": "node",
  "id": 9194542208,
  "lat": 32.6471190,
  "lon": -16.9030384,
  "tags": {
    "access": "yes",
    "addr:country": "PT",
    "authentication:membership_card": "yes",
    "authentication:none": "no",
    "capacity": "2",
    "construction:amenity": "charging_station",
    "fee": "yes",
    "motorcar": "yes",
    "name": "FUN-XXXXX",
    "network": "Mobi.E",
    "opening_hours": "24/7",
    "operator": "Emacom",
    "parking:fee": "no",
    "ref": "FUN-XXXXX",
    "socket:chademo": "1",
    "socket:chademo:current": "120",
    "socket:chademo:output": "50kW",
    "socket:chademo:voltage": "500",
    "socket:type2": "1",
    "socket:type2:current": "32",
    "socket:type2:output": "22kW",
    "socket:type2:voltage": "400",
    "socket:type2_combo": "1",
    "socket:type2_combo:current": "125",
    "socket:type2_combo:output": "50kW",
    "socket:type2_combo:voltage": "500",
    "website": "https://www.mobie.pt/"
  }
},
{
  "type": "node",
  "id": 9194542211,
  "lat": 41.8481740,
  "lon": -8.4166236,
  "tags": {
    "access": "yes",
    "addr:country": "PT",
    "authentication:membership_card": "yes",
    "authentication:none": "no",
    "capacity": "2",
    "construction:amenity": "charging_station",
    "fee": "yes",
    "motorcar": "yes",
    "name": "AVV-XXXXX",
    "network": "Mobi.E",
    "opening_hours": "24/7",
    "operator": "EVCE",
    "parking:fee": "no",
    "ref": "AVV-XXXXX",
    "socket:chademo": "1",
    "socket:chademo:current": "120",
    "socket:chademo:output": "50kW",
    "socket:chademo:voltage": "500",
    "socket:type2_cable": "1",
    "socket:type2_cable:current": "63",
    "socket:type2_cable:output": "43kW",
    "socket:type2_cable:voltage": "400",
    "socket:type2_combo": "1",
    "socket:type2_combo:current": "125",
    "socket:type2_combo:output": "50kW",
    "socket:type2_combo:voltage": "500",
    "website": "https://www.mobie.pt/"
  }
},
{
  "type": "node",
  "id": 9194542212,
  "lat": 38.9433723,
  "lon": -9.3422810,
  "tags": {
    "access": "yes",
    "addr:country": "PT",
    "authentication:membership_card": "yes",
    "authentication:none": "no",
    "capacity": "1",
    "construction:amenity": "charging_station",
    "fee": "yes",
    "motorcar": "yes",
    "name": "MFR-XXXXX - McDonald's",
    "network": "Mobi.E",
    "opening_hours": "24/7",
    "operator": "unknown",
    "parking:fee": "no",
    "ref": "MFR-XXXXX",
    "socket:chademo": "1",
    "socket:chademo:current": "120",
    "socket:chademo:output": "50kW",
    "socket:chademo:voltage": "500",
    "socket:type2_combo": "1",
    "socket:type2_combo:current": "125",
    "socket:type2_combo:output": "50kW",
    "socket:type2_combo:voltage": "500",
    "website": "https://www.mobie.pt/"
  }
},
{
  "type": "node",
  "id": 9194542213,
  "lat": 37.0294133,
  "lon": -7.9443732,
  "tags": {
    "access": "yes",
    "addr:country": "PT",
    "authentication:membership_card": "yes",
    "authentication:none": "no",
    "capacity": "1",
    "construction:amenity": "charging_station",
    "fee": "yes",
    "motorcar": "yes",
    "name": "FAR-XXXXX - Fórum Algarve",
    "network": "Mobi.E",
    "opening_hours": "24/7",
    "operator": "Mota Engil II",
    "parking:fee": "no",
    "ref": "FAR-XXXXX",
    "socket:chademo": "1",
    "socket:chademo:current": "60",
    "socket:chademo:output": "25kW",
    "socket:chademo:voltage": "500",
    "socket:type2": "1",
    "socket:type2:current": "16",
    "socket:type2:output": "11kW",
    "socket:type2:voltage": "400",
    "socket:type2_combo": "1",
    "socket:type2_combo:current": "60",
    "socket:type2_combo:output": "25kW",
    "socket:type2_combo:voltage": "920",
    "website": "https://www.mobie.pt"
  }
},
{
  "type": "node",
  "id": 9196500832,
  "lat": 41.5405350,
  "lon": -8.4326283,
  "tags": {
    "access": "yes",
    "addr:country": "PT",
    "authentication:membership_card": "yes",
    "authentication:none": "no",
    "capacity": "1",
    "construction:amenity": "charging_station",
    "fee": "yes",
    "motorcar": "yes",
    "name": "BRG-00018",
    "network": "Mobi.E",
    "opening_hours": "24/7",
    "operator": "Prio.E",
    "parking:fee": "no",
    "ref": "BRG-00018",
    "socket:chademo": "1",
    "socket:chademo:current": "120",
    "socket:chademo:output": "50kW",
    "socket:chademo:voltage": "500",
    "socket:type2_combo": "1",
    "socket:type2_combo:current": "125",
    "socket:type2_combo:output": "50kW",
    "socket:type2_combo:voltage": "500",
    "website": "https://www.mobie.pt/"
  }
}

  ]
}
