{
"type": "FeatureCollection",
"features": [
{
  "type": "Feature",
  "id": "node/4995720153",
  "properties": {
    "access": "yes",
    "addr:country": "PT",
    "capacity": "2",
    "construction:amenity": "charging_station",
    "name": "Largo do Bispo",
    "network": "none",
    "opening_hours": "24/7",
    "operator": "unknown",
    "parking:fee": "no",
    "socket:type2": "2",
    "id": "node/4995720153"
  },
  "geometry": {
    "type": "Point",
    "coordinates": [
      -28.6240554,
      38.5406616
    ]
  }
},
{
  "type": "Feature",
  "id": "node/6635524353",
  "properties": {
    "access": "yes",
    "addr:country": "PT",
    "authentication:membership_card": "yes",
    "authentication:none": "no",
    "capacity": "2",
    "construction:amenity": "charging_station",
    "email": "mobilidade-eletrica@edp.pt",
    "fee": "yes",
    "motorcar": "yes",
    "name": "VIS-00053",
    "network": "Mobi.E",
    "opening_hours": "24/7",
    "operator": "EDP Comercial",
    "parking:fee": "no",
    "phone": "+351 800 222 222",
    "ref": "VIS-00053",
    "socket:type2": "2",
    "socket:type2:current": "16",
    "socket:type2:output": "3.7kW",
    "socket:type2:voltage": "230",
    "website": "https://www.mobie.pt",
    "id": "node/6635524353"
  },
  "geometry": {
    "type": "Point",
    "coordinates": [
      -7.9029511,
      40.6610315
    ]
  }
},
{
  "type": "Feature",
  "id": "node/8078271553",
  "properties": {
    "access": "yes",
    "addr:country": "PT",
    "authentication:membership_card": "yes",
    "authentication:none": "no",
    "capacity": "2",
    "construction:amenity": "charging_station",
    "email": "mobilidade.electricacrc@galp.com",
    "fee": "yes",
    "motorcar": "yes",
    "name": "GRD-00008",
    "network": "Mobi.E",
    "opening_hours": "24/7",
    "operator": "Galp Geste",
    "parking:fee": "no",
    "phone": "+351 800 249 249",
    "ref": "GRD-00008",
    "socket:chademo": "1",
    "socket:chademo:current": "120",
    "socket:chademo:output": "50kW",
    "socket:chademo:voltage": "500",
    "socket:type2_cable": "1",
    "socket:type2_cable:current": "63",
    "socket:type2_cable:output": "43kW",
    "socket:type2_cable:voltage": "400",
    "socket:type2_combo": "1",
    "socket:type2_combo:current": "125",
    "socket:type2_combo:output": "50kW",
    "socket:type2_combo:voltage": "500",
    "website": "https://www.mobie.pt",
    "id": "node/8078271553"
  },
  "geometry": {
    "type": "Point",
    "coordinates": [
      -7.2163197,
      40.5440248
    ]
  }
},
{
  "type": "Feature",
  "id": "node/8200130058",
  "properties": {
    "access": "yes",
    "addr:city": "Pêra",
    "addr:country": "PT",
    "addr:street": "EN 125",
    "authentication:membership_card": "yes",
    "authentication:none": "no",
    "capacity": "2",
    "construction:amenity": "charging_station",
    "email": "mobilidade.electricacrc@galp.com",
    "fee": "yes",
    "motorcar": "yes",
    "name": "SLV-XXXXX",
    "network": "Mobi.E",
    "opening_hours": "24/7",
    "operator": "Galp Geste",
    "parking:fee": "no",
    "phone": "+351 800 249 249",
    "ref": "SLV-XXXXX",
    "socket:chademo": "1",
    "socket:chademo:current": "120",
    "socket:chademo:output": "50kW",
    "socket:chademo:voltage": "500",
    "socket:type2_cable": "1",
    "socket:type2_cable:current": "63",
    "socket:type2_cable:output": "43kW",
    "socket:type2_cable:voltage": "400",
    "socket:type2_combo": "1",
    "socket:type2_combo:current": "125",
    "socket:type2_combo:output": "50kW",
    "socket:type2_combo:voltage": "500",
    "website": "https://www.mobie.pt",
    "id": "node/8200130058"
  },
  "geometry": {
    "type": "Point",
    "coordinates": [
      -8.3350718,
      37.1242844
    ]
  }
},
{
  "type": "Feature",
  "id": "node/8206970204",
  "properties": {
    "access": "yes",
    "addr:city": "Portimão",
    "addr:country": "PT",
    "addr:street": "Avenida São Lourenço da Barrosa (V6)",
    "authentication:membership_card": "yes",
    "authentication:none": "no",
    "capacity": "2",
    "construction:amenity": "charging_station",
    "email": "mobilidade.electricacrc@galp.com",
    "fee": "yes",
    "motorcar": "yes",
    "name": "PTM-XXXXX",
    "network": "Mobi.E",
    "opening_hours": "24/7",
    "operator": "Galp Geste",
    "parking:fee": "no",
    "phone": "+351 800 249 249",
    "ref": "PTM-XXXXX",
    "socket:chademo": "1",
    "socket:chademo:current": "120",
    "socket:chademo:output": "50kW",
    "socket:chademo:voltage": "500",
    "socket:type2_cable": "1",
    "socket:type2_cable:current": "63",
    "socket:type2_cable:output": "43kW",
    "socket:type2_cable:voltage": "400",
    "socket:type2_combo": "1",
    "socket:type2_combo:current": "125",
    "socket:type2_combo:output": "50kW",
    "socket:type2_combo:voltage": "500",
    "website": "https://www.mobie.pt",
    "id": "node/8206970204"
  },
  "geometry": {
    "type": "Point",
    "coordinates": [
      -8.5452968,
      37.1305664
    ]
  }
},
{
  "type": "Feature",
  "id": "node/8207151870",
  "properties": {
    "access": "yes",
    "addr:city": "Estremoz",
    "addr:country": "PT",
    "addr:street": "Rua de Santo André",
    "authentication:membership_card": "yes",
    "authentication:none": "no",
    "capacity": "2",
    "construction:amenity": "charging_station",
    "fee": "yes",
    "motorcar": "yes",
    "name": "ETZ-00002",
    "network": "Mobi.E",
    "opening_hours": "24/7",
    "operator": "Mobi.E",
    "parking:fee": "no",
    "ref": "ETZ-00002",
    "socket:chademo": "1",
    "socket:chademo:current": "120",
    "socket:chademo:output": "50kW",
    "socket:chademo:voltage": "500",
    "socket:type2_cable": "1",
    "socket:type2_cable:current": "63",
    "socket:type2_cable:output": "43kW",
    "socket:type2_cable:voltage": "400",
    "socket:type2_combo": "1",
    "socket:type2_combo:current": "125",
    "socket:type2_combo:output": "50kW",
    "socket:type2_combo:voltage": "500",
    "website": "https://www.mobie.pt",
    "id": "node/8207151870"
  },
  "geometry": {
    "type": "Point",
    "coordinates": [
      -7.5875483,
      38.8422583
    ]
  }
},
{
  "type": "Feature",
  "id": "node/8207177857",
  "properties": {
    "access": "yes",
    "addr:city": "Amora",
    "addr:country": "PT",
    "authentication:membership_card": "yes",
    "authentication:none": "no",
    "capacity": "1",
    "construction:amenity": "charging_station",
    "email": "electric@prioenergy.com",
    "fee": "yes",
    "motorcar": "yes",
    "name": "SXL-00003",
    "network": "Mobi.E",
    "opening_hours": "24/7",
    "operator": "Prio.E",
    "parking:fee": "no",
    "phone": "+351 800 450 111",
    "ref": "SXL-00003",
    "socket:chademo": "1",
    "socket:chademo:current": "120",
    "socket:chademo:output": "50kW",
    "socket:chademo:voltage": "500",
    "socket:type2_combo": "1",
    "socket:type2_combo:current": "125",
    "socket:type2_combo:output": "50kW",
    "socket:type2_combo:voltage": "500",
    "website": "https://www.mobie.pt",
    "id": "node/8207177857"
  },
  "geometry": {
    "type": "Point",
    "coordinates": [
      -9.1185524,
      38.6313095
    ]
  }
},
{
  "type": "Feature",
  "id": "node/8207182589",
  "properties": {
    "access": "yes",
    "addr:city": "Almada",
    "addr:country": "PT",
    "addr:street": "Estrada Quinta da Carcereira",
    "authentication:membership_card": "yes",
    "authentication:none": "no",
    "capacity": "2",
    "construction:amenity": "charging_station",
    "email": "mobilidade.electricacrc@galp.com",
    "fee": "yes",
    "motorcar": "yes",
    "name": "ALM-XXXXX",
    "network": "Mobi.E",
    "opening_hours": "24/7",
    "operator": "Galp Geste",
    "parking:fee": "no",
    "phone": "+351 800 249 249",
    "ref": "ALM-XXXXX",
    "socket:chademo": "1",
    "socket:chademo:current": "120",
    "socket:chademo:output": "50kW",
    "socket:chademo:voltage": "500",
    "socket:type2_cable": "1",
    "socket:type2_cable:current": "63",
    "socket:type2_cable:output": "43kW",
    "socket:type2_cable:voltage": "400",
    "socket:type2_combo": "1",
    "socket:type2_combo:current": "125",
    "socket:type2_combo:output": "50kW",
    "socket:type2_combo:voltage": "500",
    "website": "https://www.mobie.pt",
    "id": "node/8207182589"
  },
  "geometry": {
    "type": "Point",
    "coordinates": [
      -9.1767101,
      38.6304043
    ]
  }
},
{
  "type": "Feature",
  "id": "node/8207453605",
  "properties": {
    "access": "yes",
    "addr:city": "Odivelas",
    "addr:country": "PT",
    "addr:street": "Avenida das Acácias",
    "authentication:membership_card": "yes",
    "authentication:none": "no",
    "capacity": "1",
    "construction:amenity": "charging_station",
    "email": "electric@prioenergy.com",
    "fee": "yes",
    "motorcar": "yes",
    "name": "ODV-00004",
    "network": "Mobi.E",
    "opening_hours": "24/7",
    "operator": "Prio.E",
    "parking:fee": "no",
    "phone": "+351 800 450 111",
    "ref": "ODV-00004",
    "socket:chademo": "1",
    "socket:chademo:current": "120",
    "socket:chademo:output": "50kW",
    "socket:chademo:voltage": "500",
    "socket:type2_combo": "1",
    "socket:type2_combo:current": "125",
    "socket:type2_combo:output": "50kW",
    "socket:type2_combo:voltage": "500",
    "website": "https://www.mobie.pt",
    "id": "node/8207453605"
  },
  "geometry": {
    "type": "Point",
    "coordinates": [
      -9.1971472,
      38.7989485
    ]
  }
},
{
  "type": "Feature",
  "id": "node/8222805987",
  "properties": {
    "access": "yes",
    "addr:city": "Porto Salvo",
    "addr:country": "PT",
    "addr:street": "Avenida Professor Doutor Cavaco Silva",
    "authentication:membership_card": "yes",
    "authentication:none": "no",
    "capacity": "2",
    "construction:amenity": "charging_station",
    "email": "suporte@mobiletric.com",
    "fee": "yes",
    "motorcar": "yes",
    "name": "OER-00058",
    "network": "Mobi.E",
    "opening_hours": "24/7",
    "operator": "Mobiletric",
    "parking:fee": "no",
    "phone": "+351 800 210 204",
    "ref": "OER-00058",
    "socket:chademo": "1",
    "socket:chademo:current": "120",
    "socket:chademo:output": "50kW",
    "socket:chademo:voltage": "500",
    "socket:type2_cable": "1",
    "socket:type2_cable:current": "63",
    "socket:type2_cable:output": "43kW",
    "socket:type2_cable:voltage": "400",
    "socket:type2_combo": "1",
    "socket:type2_combo:current": "125",
    "socket:type2_combo:output": "50kW",
    "socket:type2_combo:voltage": "500",
    "website": "https://www.mobie.pt",
    "id": "node/8222805987"
  },
  "geometry": {
    "type": "Point",
    "coordinates": [
      -9.3057491,
      38.7413266
    ]
  }
},
{
  "type": "Feature",
  "id": "node/8222811020",
  "properties": {
    "access": "yes",
    "addr:city": "Oeiras",
    "addr:country": "PT",
    "addr:street": "Praça Central do Tagus Park",
    "authentication:membership_card": "yes",
    "authentication:none": "no",
    "capacity": "2",
    "construction:amenity": "charging_station",
    "email": "apoio.cliente@kmlowcost.com",
    "fee": "yes",
    "motorcar": "yes",
    "name": "OER-00017",
    "network": "Mobi.E",
    "opening_hours": "24/7",
    "operator": "KLC",
    "parking:fee": "no",
    "phone": "+351 800 296 929",
    "ref": "OER-00017",
    "socket:chademo": "1",
    "socket:chademo:current": "120",
    "socket:chademo:output": "50kW",
    "socket:chademo:voltage": "500",
    "socket:type2_cable": "1",
    "socket:type2_cable:current": "63",
    "socket:type2_cable:output": "43kW",
    "socket:type2_cable:voltage": "400",
    "socket:type2_combo": "1",
    "socket:type2_combo:current": "125",
    "socket:type2_combo:output": "50kW",
    "socket:type2_combo:voltage": "500",
    "website": "https://www.mobie.pt",
    "id": "node/8222811020"
  },
  "geometry": {
    "type": "Point",
    "coordinates": [
      -9.3041341,
      38.7388118
    ]
  }
},
{
  "type": "Feature",
  "id": "node/8222847552",
  "properties": {
    "access": "yes",
    "addr:city": "Malveira da Serra",
    "addr:country": "PT",
    "addr:street": "Birre",
    "authentication:membership_card": "yes",
    "authentication:none": "no",
    "capacity": "2",
    "construction:amenity": "charging_station",
    "email": "mobilidade.electricacrc@galp.com",
    "fee": "yes",
    "motorcar": "yes",
    "name": "CSC-XXXXX - Galp Estrada da Malveira da Serra",
    "network": "Mobi.E",
    "opening_hours": "24/7",
    "operator": "Galp Geste",
    "parking:fee": "no",
    "phone": "+351 800 249 249",
    "ref": "CSC-XXXXX",
    "socket:chademo": "1",
    "socket:chademo:current": "120",
    "socket:chademo:output": "50kW",
    "socket:chademo:voltage": "500",
    "socket:type2_cable": "1",
    "socket:type2_cable:current": "63",
    "socket:type2_cable:output": "43kW",
    "socket:type2_cable:voltage": "400",
    "socket:type2_combo": "1",
    "socket:type2_combo:current": "125",
    "socket:type2_combo:output": "50kW",
    "socket:type2_combo:voltage": "500",
    "website": "https://www.mobie.pt",
    "id": "node/8222847552"
  },
  "geometry": {
    "type": "Point",
    "coordinates": [
      -9.4414312,
      38.719689
    ]
  }
},
{
  "type": "Feature",
  "id": "node/8223097866",
  "properties": {
    "access": "yes",
    "addr:city": "Oeiras",
    "addr:country": "PT",
    "addr:street": "Praceta de Manica",
    "authentication:membership_card": "yes",
    "authentication:none": "no",
    "capacity": "2",
    "construction:amenity": "charging_station",
    "email": "mobilidade.electricacrc@galp.com",
    "fee": "yes",
    "motorcar": "yes",
    "name": "OER-00071",
    "network": "Mobi.E",
    "opening_hours": "24/7",
    "operator": "Galp Power",
    "parking:fee": "no",
    "phone": "+351 800 249 249",
    "ref": "OER-00071",
    "socket:chademo": "1",
    "socket:chademo:current": "120",
    "socket:chademo:output": "50kW",
    "socket:chademo:voltage": "500",
    "socket:type2_cable": "1",
    "socket:type2_cable:current": "63",
    "socket:type2_cable:output": "43kW",
    "socket:type2_cable:voltage": "400",
    "socket:type2_combo": "1",
    "socket:type2_combo:current": "125",
    "socket:type2_combo:output": "50kW",
    "socket:type2_combo:voltage": "500",
    "website": "https://www.mobie.pt",
    "id": "node/8223097866"
  },
  "geometry": {
    "type": "Point",
    "coordinates": [
      -9.3024964,
      38.6954239
    ]
  }
},
{
  "type": "Feature",
  "id": "node/8223157567",
  "properties": {
    "access": "yes",
    "addr:city": "Oeiras",
    "addr:country": "PT",
    "authentication:membership_card": "yes",
    "authentication:none": "no",
    "capacity": "2",
    "construction:amenity": "charging_station",
    "email": "mobilidade.electricacrc@galp.com",
    "fee": "yes",
    "motorcar": "yes",
    "name": "OER-00075 - Marina de Oeiras",
    "network": "Mobi.E",
    "opening_hours": "24/7",
    "operator": "Galp Power",
    "parking:fee": "no",
    "phone": "+351 800 249 249",
    "ref": "OER-00075",
    "socket:chademo": "1",
    "socket:chademo:current": "120",
    "socket:chademo:output": "50kW",
    "socket:chademo:voltage": "500",
    "socket:type2_cable": "1",
    "socket:type2_cable:current": "63",
    "socket:type2_cable:output": "43kW",
    "socket:type2_cable:voltage": "400",
    "socket:type2_combo": "1",
    "socket:type2_combo:current": "125",
    "socket:type2_combo:output": "50kW",
    "socket:type2_combo:voltage": "500",
    "website": "https://www.mobie.pt",
    "id": "node/8223157567"
  },
  "geometry": {
    "type": "Point",
    "coordinates": [
      -9.3207369,
      38.6762928
    ]
  }
},
{
  "type": "Feature",
  "id": "node/8224925045",
  "properties": {
    "access": "yes",
    "addr:city": "Coimbra",
    "addr:country": "PT",
    "addr:street": "Rua Garcia da Horta",
    "authentication:membership_card": "yes",
    "authentication:none": "no",
    "capacity": "10",
    "construction:amenity": "charging_station",
    "fee": "yes",
    "motorcar": "yes",
    "name": "CBR-XXXXX",
    "network": "Mobi.E",
    "opening_hours": "24/7",
    "operator": "Mobi.E",
    "parking:fee": "no",
    "ref": "CBR-XXXXX",
    "socket:type2": "10",
    "socket:type2:current": "32",
    "socket:type2:output": "22kW",
    "socket:type2:voltage": "400",
    "website": "https://www.mobie.pt",
    "id": "node/8224925045"
  },
  "geometry": {
    "type": "Point",
    "coordinates": [
      -8.4120539,
      40.1939114
    ]
  }
},
{
  "type": "Feature",
  "id": "node/8224925046",
  "properties": {
    "access": "yes",
    "addr:city": "Coimbra",
    "addr:country": "PT",
    "addr:street": "Rua Garcia da Horta",
    "authentication:membership_card": "yes",
    "authentication:none": "no",
    "capacity": "3",
    "construction:amenity": "charging_station",
    "fee": "yes",
    "motorcar": "yes",
    "name": "CBR-XXXXX",
    "network": "Mobi.E",
    "opening_hours": "24/7",
    "operator": "Mobi.E",
    "parking:fee": "no",
    "ref": "CBR-XXXXX",
    "socket:chademo": "3",
    "socket:chademo:current": "120",
    "socket:chademo:output": "50kW",
    "socket:chademo:voltage": "500",
    "socket:type2_combo": "3",
    "socket:type2_combo:current": "125",
    "socket:type2_combo:output": "50kW",
    "socket:type2_combo:voltage": "500",
    "website": "https://www.mobie.pt",
    "id": "node/8224925046"
  },
  "geometry": {
    "type": "Point",
    "coordinates": [
      -8.4122551,
      40.1938745
    ]
  }
},
{
  "type": "Feature",
  "id": "node/8224925047",
  "properties": {
    "access": "yes",
    "addr:city": "Coimbra",
    "addr:country": "PT",
    "addr:street": "Rua Garcia da Horta",
    "authentication:membership_card": "yes",
    "authentication:none": "no",
    "capacity": "1",
    "construction:amenity": "charging_station",
    "fee": "yes",
    "motorcar": "yes",
    "name": "CBR-XXXXX",
    "network": "Mobi.E",
    "opening_hours": "24/7",
    "operator": "Mobi.E",
    "parking:fee": "no",
    "ref": "CBR-XXXXX",
    "socket:chademo": "1",
    "socket:chademo:current": "120",
    "socket:chademo:output": "50kW",
    "socket:chademo:voltage": "500",
    "socket:type2_combo": "1",
    "socket:type2_combo:current": "375",
    "socket:type2_combo:output": "150kW",
    "socket:type2_combo:voltage": "920",
    "website": "https://www.mobie.pt",
    "id": "node/8224925047"
  },
  "geometry": {
    "type": "Point",
    "coordinates": [
      -8.412365,
      40.1938571
    ]
  }
},
{
  "type": "Feature",
  "id": "node/8224976509",
  "properties": {
    "access": "yes",
    "addr:city": "Coimbra",
    "addr:country": "PT",
    "addr:street": "Avenida Mendes Silva",
    "authentication:membership_card": "yes",
    "authentication:none": "no",
    "capacity": "2",
    "construction:amenity": "charging_station",
    "email": "mobilidade.electricacrc@galp.com",
    "fee": "yes",
    "motorcar": "yes",
    "name": "CBR-00039 - Galp",
    "network": "Mobi.E",
    "opening_hours": "24/7",
    "operator": "Galp Geste",
    "parking:fee": "no",
    "phone": "+351 800 249 249",
    "ref": "CBR-00039",
    "socket:chademo": "1",
    "socket:chademo:current": "120",
    "socket:chademo:output": "50kW",
    "socket:chademo:voltage": "500",
    "socket:type2_cable": "1",
    "socket:type2_cable:current": "63",
    "socket:type2_cable:output": "43kW",
    "socket:type2_cable:voltage": "400",
    "socket:type2_combo": "1",
    "socket:type2_combo:current": "125",
    "socket:type2_combo:output": "50kW",
    "socket:type2_combo:voltage": "500",
    "website": "https://www.mobie.pt",
    "id": "node/8224976509"
  },
  "geometry": {
    "type": "Point",
    "coordinates": [
      -8.4086877,
      40.1954194
    ]
  }
},
{
  "type": "Feature",
  "id": "node/8225142689",
  "properties": {
    "access": "yes",
    "addr:city": "Celorico da Beira",
    "addr:country": "PT",
    "authentication:membership_card": "yes",
    "authentication:none": "no",
    "capacity": "2",
    "construction:amenity": "charging_station",
    "email": "mobilidade.electricacrc@galp.com",
    "fee": "yes",
    "motorcar": "yes",
    "name": "CLB-00002",
    "network": "Mobi.E",
    "opening_hours": "24/7",
    "operator": "Galp Geste",
    "parking:fee": "no",
    "phone": "+351 800 249 249",
    "ref": "CLB-00002",
    "socket:chademo": "1",
    "socket:chademo:current": "120",
    "socket:chademo:output": "50kW",
    "socket:chademo:voltage": "500",
    "socket:type2_cable": "1",
    "socket:type2_cable:current": "63",
    "socket:type2_cable:output": "43kW",
    "socket:type2_cable:voltage": "400",
    "socket:type2_combo": "1",
    "socket:type2_combo:current": "125",
    "socket:type2_combo:output": "50kW",
    "socket:type2_combo:voltage": "500",
    "website": "https://www.mobie.pt",
    "id": "node/8225142689"
  },
  "geometry": {
    "type": "Point",
    "coordinates": [
      -7.3580423,
      40.6299074
    ]
  }
},
{
  "type": "Feature",
  "id": "node/8225142690",
  "properties": {
    "access": "yes",
    "addr:city": "Celorico da Beira",
    "addr:country": "PT",
    "authentication:membership_card": "yes",
    "authentication:none": "no",
    "capacity": "2",
    "construction:amenity": "charging_station",
    "email": "mobilidade.electricacrc@galp.com",
    "fee": "yes",
    "motorcar": "yes",
    "name": "CLB-00001",
    "network": "Mobi.E",
    "opening_hours": "24/7",
    "operator": "Galp Geste",
    "parking:fee": "no",
    "phone": "+351 800 249 249",
    "ref": "CLB-00001",
    "socket:chademo": "1",
    "socket:chademo:current": "120",
    "socket:chademo:output": "50kW",
    "socket:chademo:voltage": "500",
    "socket:type2_cable": "1",
    "socket:type2_cable:current": "63",
    "socket:type2_cable:output": "43kW",
    "socket:type2_cable:voltage": "400",
    "socket:type2_combo": "1",
    "socket:type2_combo:current": "125",
    "socket:type2_combo:output": "50kW",
    "socket:type2_combo:voltage": "500",
    "website": "https://www.mobie.pt",
    "id": "node/8225142690"
  },
  "geometry": {
    "type": "Point",
    "coordinates": [
      -7.3569104,
      40.6295471
    ]
  }
},
{
  "type": "Feature",
  "id": "node/8225244922",
  "properties": {
    "access": "yes",
    "addr:city": "Ílhavo",
    "addr:country": "PT",
    "addr:street": "Rua Vasco da Gama",
    "authentication:membership_card": "yes",
    "authentication:none": "no",
    "capacity": "2",
    "construction:amenity": "charging_station",
    "email": "mobilidade-eletrica@edp.pt",
    "fee": "yes",
    "motorcar": "yes",
    "name": "ILH-XXXXX",
    "network": "Mobi.E",
    "opening_hours": "24/7",
    "operator": "EDP Comercial",
    "parking:fee": "no",
    "phone": "+351 800 222 222",
    "ref": "ILH-XXXXX",
    "socket:chademo": "1",
    "socket:chademo:current": "120",
    "socket:chademo:output": "50kW",
    "socket:chademo:voltage": "500",
    "socket:type2_cable": "1",
    "socket:type2_cable:current": "63",
    "socket:type2_cable:output": "43kW",
    "socket:type2_cable:voltage": "400",
    "socket:type2_combo": "1",
    "socket:type2_combo:current": "125",
    "socket:type2_combo:output": "50kW",
    "socket:type2_combo:voltage": "500",
    "website": "https://www.mobie.pt",
    "id": "node/8225244922"
  },
  "geometry": {
    "type": "Point",
    "coordinates": [
      -8.6627989,
      40.6056996
    ]
  }
},
{
  "type": "Feature",
  "id": "node/8225295433",
  "properties": {
    "access": "yes",
    "addr:city": "Cacia",
    "addr:country": "PT",
    "addr:street": "Avenida da Europa",
    "authentication:membership_card": "yes",
    "authentication:none": "no",
    "capacity": "2",
    "construction:amenity": "charging_station",
    "email": "mobilidade.electricacrc@galp.com",
    "fee": "yes",
    "motorcar": "yes",
    "name": "AVR-00014 - GALP",
    "network": "Mobi.E",
    "opening_hours": "24/7",
    "operator": "Galp Geste",
    "parking:fee": "no",
    "phone": "+351 800 249 249",
    "ref": "AVR-00014",
    "socket:chademo": "1",
    "socket:chademo:current": "120",
    "socket:chademo:output": "50kW",
    "socket:chademo:voltage": "500",
    "socket:type2_cable": "1",
    "socket:type2_cable:current": "63",
    "socket:type2_cable:output": "43kW",
    "socket:type2_cable:voltage": "400",
    "socket:type2_combo": "1",
    "socket:type2_combo:current": "125",
    "socket:type2_combo:output": "50kW",
    "socket:type2_combo:voltage": "500",
    "website": "https://www.mobie.pt",
    "id": "node/8225295433"
  },
  "geometry": {
    "type": "Point",
    "coordinates": [
      -8.610937,
      40.6649576
    ]
  }
},
{
  "type": "Feature",
  "id": "node/8227799063",
  "properties": {
    "access": "yes",
    "addr:city": "São Cosme",
    "addr:country": "PT",
    "addr:street": "Avenida General Humberto Delgado",
    "authentication:membership_card": "yes",
    "authentication:none": "no",
    "capacity": "2",
    "construction:amenity": "charging_station",
    "email": "mobilidade.electricacrc@galp.com",
    "fee": "yes",
    "motorcar": "yes",
    "name": "GDM-XXXXX",
    "network": "Mobi.E",
    "opening_hours": "24/7",
    "operator": "Galp Geste",
    "parking:fee": "no",
    "phone": "+351 800 249 249",
    "ref": "GDM-XXXXX",
    "socket:chademo": "1",
    "socket:chademo:current": "120",
    "socket:chademo:output": "50kW",
    "socket:chademo:voltage": "500",
    "socket:type2_cable": "1",
    "socket:type2_cable:current": "63",
    "socket:type2_cable:output": "43kW",
    "socket:type2_cable:voltage": "400",
    "socket:type2_combo": "1",
    "socket:type2_combo:current": "125",
    "socket:type2_combo:output": "50kW",
    "socket:type2_combo:voltage": "500",
    "website": "https://www.mobie.pt",
    "id": "node/8227799063"
  },
  "geometry": {
    "type": "Point",
    "coordinates": [
      -8.5311694,
      41.147229
    ]
  }
},
{
  "type": "Feature",
  "id": "node/8228833519",
  "properties": {
    "access": "yes",
    "addr:city": "Porto",
    "addr:country": "PT",
    "addr:street": "Rua 9 de Julho",
    "authentication:membership_card": "yes",
    "authentication:none": "no",
    "capacity": "2",
    "construction:amenity": "charging_station",
    "email": "suporte@mobiletric.com",
    "fee": "yes",
    "motorcar": "yes",
    "name": "PRT-00036/37",
    "network": "Mobi.E",
    "opening_hours": "24/7",
    "operator": "Mobiletric",
    "parking:fee": "no",
    "phone": "+351 800 210 204",
    "ref": "PRT-00036;PRT-00037",
    "socket:chademo": "2",
    "socket:chademo:current": "120",
    "socket:chademo:output": "50kW",
    "socket:chademo:voltage": "500",
    "socket:type2_combo": "2",
    "socket:type2_combo:current": "125",
    "socket:type2_combo:output": "50kW",
    "socket:type2_combo:voltage": "500",
    "website": "https://www.mobie.pt",
    "id": "node/8228833519"
  },
  "geometry": {
    "type": "Point",
    "coordinates": [
      -8.6235484,
      41.1630538
    ]
  }
},
{
  "type": "Feature",
  "id": "node/8228854413",
  "properties": {
    "access": "yes",
    "addr:city": "Matosinhos",
    "addr:country": "PT",
    "addr:street": "Estrada Exterior da Circunvalação",
    "authentication:membership_card": "yes",
    "authentication:none": "no",
    "capacity": "2",
    "construction:amenity": "charging_station",
    "email": "mobilidade.electricacrc@galp.com",
    "fee": "yes",
    "motorcar": "yes",
    "name": "MTS-00031",
    "network": "Mobi.E",
    "opening_hours": "24/7",
    "operator": "Galp Geste",
    "parking:fee": "no",
    "phone": "+351 800 249 249",
    "ref": "MTS-00031",
    "socket:chademo": "1",
    "socket:chademo:current": "120",
    "socket:chademo:output": "50kW",
    "socket:chademo:voltage": "500",
    "socket:type2_cable": "1",
    "socket:type2_cable:current": "63",
    "socket:type2_cable:output": "43kW",
    "socket:type2_cable:voltage": "400",
    "socket:type2_combo": "1",
    "socket:type2_combo:current": "125",
    "socket:type2_combo:output": "50kW",
    "socket:type2_combo:voltage": "500",
    "website": "https://www.mobie.pt",
    "id": "node/8228854413"
  },
  "geometry": {
    "type": "Point",
    "coordinates": [
      -8.6783461,
      41.1720597
    ]
  }
},
{
  "type": "Feature",
  "id": "node/8231825991",
  "properties": {
    "access": "yes",
    "addr:city": "Maia",
    "addr:country": "PT",
    "addr:street": "Rua Conselheiro Luís Magalhães",
    "authentication:membership_card": "yes",
    "authentication:none": "no",
    "capacity": "2",
    "construction:amenity": "charging_station",
    "email": "mobilidade.electricacrc@galp.com",
    "fee": "yes",
    "motorcar": "yes",
    "name": "MAI-XXXXX",
    "network": "Mobi.E",
    "opening_hours": "24/7",
    "operator": "Galp Geste",
    "parking:fee": "no",
    "phone": "+351 800 249 249",
    "ref": "MAI-XXXXX",
    "socket:chademo": "1",
    "socket:chademo:current": "120",
    "socket:chademo:output": "50kW",
    "socket:chademo:voltage": "500",
    "socket:type2_cable": "1",
    "socket:type2_cable:current": "63",
    "socket:type2_cable:output": "43kW",
    "socket:type2_cable:voltage": "400",
    "socket:type2_combo": "1",
    "socket:type2_combo:current": "125",
    "socket:type2_combo:output": "50kW",
    "socket:type2_combo:voltage": "500",
    "website": "https://www.mobie.pt",
    "id": "node/8231825991"
  },
  "geometry": {
    "type": "Point",
    "coordinates": [
      -8.6544491,
      41.2553151
    ]
  }
},
{
  "type": "Feature",
  "id": "node/8231827474",
  "properties": {
    "access": "yes",
    "addr:city": "Perafita",
    "addr:country": "PT",
    "addr:street": "Avenida Mário Brito",
    "authentication:membership_card": "yes",
    "authentication:none": "no",
    "capacity": "2",
    "construction:amenity": "charging_station",
    "email": "mobilidade.electricacrc@galp.com",
    "fee": "yes",
    "motorcar": "yes",
    "name": "MTS-00032",
    "network": "Mobi.E",
    "opening_hours": "24/7",
    "operator": "Galp Geste",
    "parking:fee": "no",
    "phone": "+351 800 249 249",
    "ref": "MTS-00032",
    "socket:chademo": "1",
    "socket:chademo:current": "120",
    "socket:chademo:output": "50kW",
    "socket:chademo:voltage": "500",
    "socket:type2_cable": "1",
    "socket:type2_cable:current": "63",
    "socket:type2_cable:output": "43kW",
    "socket:type2_cable:voltage": "400",
    "socket:type2_combo": "1",
    "socket:type2_combo:current": "125",
    "socket:type2_combo:output": "50kW",
    "socket:type2_combo:voltage": "500",
    "website": "https://www.mobie.pt",
    "id": "node/8231827474"
  },
  "geometry": {
    "type": "Point",
    "coordinates": [
      -8.687517,
      41.2201582
    ]
  }
},
{
  "type": "Feature",
  "id": "node/8231863152",
  "properties": {
    "access": "yes",
    "addr:city": "Trofa",
    "addr:country": "PT",
    "authentication:membership_card": "yes",
    "authentication:none": "no",
    "capacity": "2",
    "construction:amenity": "charging_station",
    "email": "mobilidade.electricacrc@galp.com",
    "fee": "yes",
    "motorcar": "yes",
    "name": "TRF-00002",
    "network": "Mobi.E",
    "opening_hours": "24/7",
    "operator": "Galp Geste",
    "parking:fee": "no",
    "phone": "+351 800 249 249",
    "ref": "TRF-00002",
    "socket:chademo": "1",
    "socket:chademo:current": "120",
    "socket:chademo:output": "50kW",
    "socket:chademo:voltage": "500",
    "socket:type2_cable": "1",
    "socket:type2_cable:current": "63",
    "socket:type2_cable:output": "43kW",
    "socket:type2_cable:voltage": "400",
    "socket:type2_combo": "1",
    "socket:type2_combo:current": "125",
    "socket:type2_combo:output": "50kW",
    "socket:type2_combo:voltage": "500",
    "website": "https://www.mobie.pt",
    "id": "node/8231863152"
  },
  "geometry": {
    "type": "Point",
    "coordinates": [
      -8.5646313,
      41.2644186
    ]
  }
},
{
  "type": "Feature",
  "id": "node/8231935093",
  "properties": {
    "access": "yes",
    "addr:city": "Guimarães",
    "addr:country": "PT",
    "addr:street": "Circular Urbana de Guimarães",
    "authentication:membership_card": "yes",
    "authentication:none": "no",
    "capacity": "2",
    "construction:amenity": "charging_station",
    "email": "mobilidade.electricacrc@galp.com",
    "fee": "yes",
    "motorcar": "yes",
    "name": "GMR-00017",
    "network": "Mobi.E",
    "opening_hours": "24/7",
    "operator": "Galp Geste",
    "parking:fee": "no",
    "phone": "+351 800 249 249",
    "ref": "GMR-00017",
    "socket:chademo": "1",
    "socket:chademo:current": "120",
    "socket:chademo:output": "50kW",
    "socket:chademo:voltage": "500",
    "socket:type2_cable": "1",
    "socket:type2_cable:current": "63",
    "socket:type2_cable:output": "43kW",
    "socket:type2_cable:voltage": "400",
    "socket:type2_combo": "1",
    "socket:type2_combo:current": "125",
    "socket:type2_combo:output": "50kW",
    "socket:type2_combo:voltage": "500",
    "website": "https://www.mobie.pt",
    "id": "node/8231935093"
  },
  "geometry": {
    "type": "Point",
    "coordinates": [
      -8.3013149,
      41.4514238
    ]
  }
},
{
  "type": "Feature",
  "id": "node/8231973083",
  "properties": {
    "access": "yes",
    "addr:city": "Braga",
    "addr:country": "PT",
    "addr:street": "Avenida João Paulo II",
    "authentication:membership_card": "yes",
    "authentication:none": "no",
    "capacity": "2",
    "construction:amenity": "charging_station",
    "email": "mobilidade.electricacrc@galp.com",
    "fee": "yes",
    "motorcar": "yes",
    "name": "BRG-00027",
    "network": "Mobi.E",
    "opening_hours": "24/7",
    "operator": "Galp Geste",
    "parking:fee": "no",
    "phone": "+351 800 249 249",
    "ref": "BRG-00027",
    "socket:chademo": "1",
    "socket:chademo:current": "120",
    "socket:chademo:output": "50kW",
    "socket:chademo:voltage": "500",
    "socket:type2_cable": "1",
    "socket:type2_cable:current": "63",
    "socket:type2_cable:output": "43kW",
    "socket:type2_cable:voltage": "400",
    "socket:type2_combo": "1",
    "socket:type2_combo:current": "125",
    "socket:type2_combo:output": "50kW",
    "socket:type2_combo:voltage": "500",
    "website": "https://www.mobie.pt",
    "id": "node/8231973083"
  },
  "geometry": {
    "type": "Point",
    "coordinates": [
      -8.4091249,
      41.5520095
    ]
  }
},
{
  "type": "Feature",
  "id": "node/8232010643",
  "properties": {
    "access": "yes",
    "addr:city": "Braga",
    "addr:country": "PT",
    "addr:street": "Rua Carlos Magalhães",
    "authentication:membership_card": "yes",
    "authentication:none": "no",
    "capacity": "1",
    "construction:amenity": "charging_station",
    "fee": "yes",
    "motorcar": "yes",
    "name": "BRG-00035",
    "network": "Mobi.E",
    "opening_hours": "24/7",
    "operator": "EVCE",
    "parking:fee": "no",
    "ref": "BRG-00035",
    "socket:chademo": "1",
    "socket:chademo:current": "120",
    "socket:chademo:output": "50kW",
    "socket:chademo:voltage": "500",
    "socket:type2_combo": "1",
    "socket:type2_combo:current": "125",
    "socket:type2_combo:output": "50kW",
    "socket:type2_combo:voltage": "500",
    "website": "https://www.mobie.pt",
    "id": "node/8232010643"
  },
  "geometry": {
    "type": "Point",
    "coordinates": [
      -8.4211667,
      41.5643007
    ]
  }
},
{
  "type": "Feature",
  "id": "node/8232073281",
  "properties": {
    "access": "yes",
    "addr:city": "Barcelos",
    "addr:country": "PT",
    "addr:street": "A 3",
    "authentication:membership_card": "yes",
    "authentication:none": "no",
    "capacity": "2",
    "construction:amenity": "charging_station",
    "email": "propel@cepsa.com",
    "fee": "yes",
    "motorcar": "yes",
    "name": "BCL-00001",
    "network": "Mobi.E",
    "opening_hours": "24/7",
    "operator": "Propel-Cepsa",
    "parking:fee": "no",
    "phone": "+351 800 500 504",
    "ref": "BCL-00001",
    "socket:chademo": "1",
    "socket:chademo:current": "120",
    "socket:chademo:output": "50kW",
    "socket:chademo:voltage": "500",
    "socket:type2_cable": "1",
    "socket:type2_cable:current": "63",
    "socket:type2_cable:output": "43kW",
    "socket:type2_cable:voltage": "400",
    "socket:type2_combo": "1",
    "socket:type2_combo:current": "125",
    "socket:type2_combo:output": "50kW",
    "socket:type2_combo:voltage": "500",
    "website": "https://www.mobie.pt",
    "id": "node/8232073281"
  },
  "geometry": {
    "type": "Point",
    "coordinates": [
      -8.5509038,
      41.6056885
    ]
  }
},
{
  "type": "Feature",
  "id": "node/8232073283",
  "properties": {
    "access": "yes",
    "addr:country": "PT",
    "authentication:app": "yes",
    "authentication:membership_card": "yes",
    "authentication:none": "no",
    "capacity": "2",
    "construction:amenity": "charging_station",
    "fee": "yes",
    "motorcar": "yes",
    "name": "BCL-00010/11 - Ionity A3 S>N",
    "network": "Mobi.E",
    "opening_hours": "24/7",
    "operator": "Ionity",
    "parking:fee": "no",
    "ref": "BCL-00010;BCL-00011",
    "socket:type2_combo": "2",
    "socket:type2_combo:current": "500",
    "socket:type2_combo:output": "350kW",
    "socket:type2_combo:voltage": "920",
    "website": "https://www.mobie.pt",
    "id": "node/8232073283"
  },
  "geometry": {
    "type": "Point",
    "coordinates": [
      -8.5495895,
      41.6041356
    ]
  }
},
{
  "type": "Feature",
  "id": "node/8232073284",
  "properties": {
    "access": "yes",
    "addr:city": "Barcelos",
    "addr:country": "PT",
    "addr:street": "A 3",
    "authentication:membership_card": "yes",
    "authentication:none": "no",
    "capacity": "2",
    "construction:amenity": "charging_station",
    "email": "propel@cepsa.com",
    "fee": "yes",
    "motorcar": "yes",
    "name": "BCL-00002",
    "network": "Mobi.E",
    "opening_hours": "24/7",
    "operator": "Propel-Cepsa",
    "parking:fee": "no",
    "phone": "+351 800 500 504",
    "ref": "BCL-00002",
    "socket:chademo": "1",
    "socket:chademo:current": "120",
    "socket:chademo:output": "50kW",
    "socket:chademo:voltage": "500",
    "socket:type2_cable": "1",
    "socket:type2_cable:current": "63",
    "socket:type2_cable:output": "43kW",
    "socket:type2_cable:voltage": "400",
    "socket:type2_combo": "1",
    "socket:type2_combo:current": "125",
    "socket:type2_combo:output": "50kW",
    "socket:type2_combo:voltage": "500",
    "website": "https://www.mobie.pt",
    "id": "node/8232073284"
  },
  "geometry": {
    "type": "Point",
    "coordinates": [
      -8.5498604,
      41.6039972
    ]
  }
},
{
  "type": "Feature",
  "id": "node/8232149106",
  "properties": {
    "access": "yes",
    "addr:city": "Viana do Castelo",
    "addr:country": "PT",
    "addr:street": "Avenida Primeiro de Maio",
    "authentication:membership_card": "yes",
    "authentication:none": "no",
    "capacity": "2",
    "construction:amenity": "charging_station",
    "email": "mobilidade-eletrica@edp.pt",
    "fee": "yes",
    "motorcar": "yes",
    "name": "VCT-00016",
    "network": "Mobi.E",
    "opening_hours": "24/7",
    "operator": "EDP Comercial",
    "parking:fee": "no",
    "phone": "+351 800 222 222",
    "ref": "VCT-00016",
    "socket:chademo": "1",
    "socket:chademo:current": "120",
    "socket:chademo:output": "50kW",
    "socket:chademo:voltage": "500",
    "socket:type2_cable": "1",
    "socket:type2_cable:current": "63",
    "socket:type2_cable:output": "43kW",
    "socket:type2_cable:voltage": "400",
    "socket:type2_combo": "1",
    "socket:type2_combo:current": "125",
    "socket:type2_combo:output": "50kW",
    "socket:type2_combo:voltage": "500",
    "website": "https://www.mobie.pt",
    "id": "node/8232149106"
  },
  "geometry": {
    "type": "Point",
    "coordinates": [
      -8.8093856,
      41.683271
    ]
  }
},
{
  "type": "Feature",
  "id": "node/8234917575",
  "properties": {
    "access": "yes",
    "addr:city": "Belas",
    "addr:country": "PT",
    "addr:street": "Avenida José Régio",
    "authentication:membership_card": "yes",
    "authentication:none": "no",
    "capacity": "2",
    "construction:amenity": "charging_station",
    "email": "mobilidade.electricacrc@galp.com",
    "fee": "yes",
    "motorcar": "yes",
    "name": "SNT-XXXXX",
    "network": "Mobi.E",
    "opening_hours": "24/7",
    "operator": "Galp Power",
    "parking:fee": "no",
    "phone": "+351 800 249 249",
    "ref": "SNT-XXXXX",
    "socket:chademo": "1",
    "socket:chademo:current": "120",
    "socket:chademo:output": "50kW",
    "socket:chademo:voltage": "500",
    "socket:type2_cable": "1",
    "socket:type2_cable:current": "63",
    "socket:type2_cable:output": "43kW",
    "socket:type2_cable:voltage": "400",
    "socket:type2_combo": "1",
    "socket:type2_combo:current": "125",
    "socket:type2_combo:output": "50kW",
    "socket:type2_combo:voltage": "500",
    "website": "https://www.mobie.pt",
    "id": "node/8234917575"
  },
  "geometry": {
    "type": "Point",
    "coordinates": [
      -9.2794561,
      38.7612993
    ]
  }
},
{
  "type": "Feature",
  "id": "node/8234959780",
  "properties": {
    "access": "yes",
    "addr:country": "PT",
    "addr:street": "A 23",
    "authentication:membership_card": "yes",
    "authentication:none": "no",
    "capacity": "2",
    "construction:amenity": "charging_station",
    "email": "mobilidade.electricacrc@galp.com",
    "fee": "yes",
    "motorcar": "yes",
    "name": "GRD-00007",
    "network": "Mobi.E",
    "opening_hours": "24/7",
    "operator": "Galp Geste",
    "parking:fee": "no",
    "phone": "+351 800 249 249",
    "ref": "GRD-00007",
    "socket:chademo": "1",
    "socket:chademo:current": "120",
    "socket:chademo:output": "50kW",
    "socket:chademo:voltage": "500",
    "socket:type2_cable": "1",
    "socket:type2_cable:current": "63",
    "socket:type2_cable:output": "43kW",
    "socket:type2_cable:voltage": "400",
    "socket:type2_combo": "1",
    "socket:type2_combo:current": "125",
    "socket:type2_combo:output": "50kW",
    "socket:type2_combo:voltage": "500",
    "website": "https://www.mobie.pt",
    "id": "node/8234959780"
  },
  "geometry": {
    "type": "Point",
    "coordinates": [
      -7.2155942,
      40.5438566
    ]
  }
},
{
  "type": "Feature",
  "id": "node/8255594126",
  "properties": {
    "access": "yes",
    "addr:country": "PT",
    "capacity": "2",
    "construction:amenity": "charging_station",
    "name": "Centro de Negócios Transfronteiriço",
    "network": "none",
    "operator": "Centro de Negócios Transfronteiriço",
    "socket:type2": "2",
    "socket:type2:current": "32",
    "socket:type2:output": "22kW",
    "socket:type2:voltage": "400",
    "id": "node/8255594126"
  },
  "geometry": {
    "type": "Point",
    "coordinates": [
      -6.968886,
      40.3584732
    ]
  }
},
{
  "type": "Feature",
  "id": "node/8270035097",
  "properties": {
    "access": "yes",
    "addr:country": "PT",
    "authentication:membership_card": "yes",
    "authentication:none": "no",
    "capacity": "2",
    "construction:amenity": "charging_station",
    "email": "apoio.cliente@kmlowcost.com",
    "fee": "yes",
    "motorcar": "yes",
    "name": "SLV-00002",
    "network": "Mobi.E",
    "opening_hours": "24/7",
    "operator": "KLC",
    "parking:fee": "no",
    "phone": "+351 800 296 929",
    "ref": "SLV-00002",
    "socket:type2": "2",
    "socket:type2:current": "32",
    "socket:type2:output": "22kW",
    "socket:type2:voltage": "400",
    "website": "https://www.mobie.pt",
    "id": "node/8270035097"
  },
  "geometry": {
    "type": "Point",
    "coordinates": [
      -8.4416525,
      37.1856891
    ]
  }
},
{
  "type": "Feature",
  "id": "node/8270299204",
  "properties": {
    "access": "yes",
    "addr:country": "PT",
    "authentication:membership_card": "yes",
    "authentication:none": "no",
    "capacity": "2",
    "construction:amenity": "charging_station",
    "email": "mobilidade-eletrica@edp.pt",
    "fee": "yes",
    "maxstay": "unlimited",
    "motorcar": "yes",
    "name": "OLH-00002",
    "network": "Mobi.E",
    "opening_hours": "24/7",
    "operator": "EDP Comercial",
    "parking:fee": "no",
    "phone": "+351 800 222 222",
    "ref": "OLH-00002",
    "socket:type2": "2",
    "socket:type2:current": "32",
    "socket:type2:output": "22kW",
    "socket:type2:voltage": "400",
    "website": "https://www.mobie.pt",
    "id": "node/8270299204"
  },
  "geometry": {
    "type": "Point",
    "coordinates": [
      -7.8473468,
      37.0234219
    ]
  }
},
{
  "type": "Feature",
  "id": "node/8270337363",
  "properties": {
    "access": "yes",
    "addr:country": "PT",
    "authentication:membership_card": "yes",
    "authentication:none": "no",
    "capacity": "2",
    "construction:amenity": "charging_station",
    "email": "mobilidade.electricacrc@galp.com",
    "fee": "yes",
    "motorcar": "yes",
    "name": "VRS-00002",
    "network": "Mobi.E",
    "opening_hours": "24/7",
    "operator": "Galp Power",
    "parking:fee": "no",
    "phone": "+351 800 249 249",
    "ref": "VRS-00002",
    "socket:type2": "2",
    "socket:type2:current": "32",
    "socket:type2:output": "22kW",
    "socket:type2:voltage": "400",
    "website": "https://www.mobie.pt",
    "id": "node/8270337363"
  },
  "geometry": {
    "type": "Point",
    "coordinates": [
      -7.4174654,
      37.1905709
    ]
  }
},
{
  "type": "Feature",
  "id": "node/8270425679",
  "properties": {
    "access": "yes",
    "addr:country": "PT",
    "authentication:membership_card": "yes",
    "authentication:none": "no",
    "capacity": "2",
    "construction:amenity": "charging_station",
    "fee": "yes",
    "motorcar": "yes",
    "name": "CRV-00001",
    "network": "Mobi.E",
    "opening_hours": "24/7",
    "operator": "SEGMA",
    "parking:fee": "no",
    "ref": "CRV-00001",
    "socket:type2": "2",
    "socket:type2:current": "32",
    "socket:type2:output": "22kW",
    "socket:type2:voltage": "400",
    "website": "https://www.mobie.pt",
    "id": "node/8270425679"
  },
  "geometry": {
    "type": "Point",
    "coordinates": [
      -31.1136004,
      39.6728739
    ]
  }
},
{
  "type": "Feature",
  "id": "node/8279648612",
  "properties": {
    "access": "yes",
    "addr:country": "PT",
    "authentication:membership_card": "yes",
    "authentication:none": "no",
    "capacity": "2",
    "construction:amenity": "charging_station",
    "email": "mobilidade-eletrica@edp.pt",
    "fee": "yes",
    "motorcar": "yes",
    "name": "ALM-00039 - McDonalds",
    "network": "Mobi.E",
    "opening_hours": "24/7",
    "operator": "EDP Comercial",
    "parking:fee": "no",
    "phone": "+351 800 222 222",
    "ref": "ALM-00039",
    "socket:type2": "2",
    "socket:type2:current": "32",
    "socket:type2:output": "22kW",
    "socket:type2:voltage": "400",
    "website": "https://www.mobie.pt",
    "id": "node/8279648612"
  },
  "geometry": {
    "type": "Point",
    "coordinates": [
      -9.1633084,
      38.6624293
    ]
  }
},
{
  "type": "Feature",
  "id": "node/8284949049",
  "properties": {
    "access": "yes",
    "addr:country": "PT",
    "authentication:membership_card": "yes",
    "authentication:none": "no",
    "capacity": "1",
    "construction:amenity": "charging_station",
    "fee": "yes",
    "motorcar": "yes",
    "name": "OER-00116",
    "network": "Mobi.E",
    "opening_hours": "24/7",
    "operator": "GreenCharge",
    "parking:fee": "no",
    "ref": "OER-00116",
    "socket:type2": "1",
    "socket:type2:current": "32",
    "socket:type2:output": "22kW",
    "socket:type2:voltage": "400",
    "website": "https://www.mobie.pt/",
    "id": "node/8284949049"
  },
  "geometry": {
    "type": "Point",
    "coordinates": [
      -9.3144053,
      38.6926311
    ]
  }
},
{
  "type": "Feature",
  "id": "node/8286317371",
  "properties": {
    "access": "yes",
    "addr:country": "PT",
    "authentication:membership_card": "yes",
    "authentication:none": "no",
    "capacity": "2",
    "construction:amenity": "charging_station",
    "email": "mobilidade.electricacrc@galp.com",
    "fee": "yes",
    "motorcar": "yes",
    "name": "AGD-00004",
    "network": "Mobi.E",
    "opening_hours": "24/7",
    "operator": "Galp Power",
    "parking:fee": "no",
    "phone": "+351 800 249 249",
    "ref": "AGD-00004",
    "socket:type2": "2",
    "socket:type2:current": "32",
    "socket:type2:output": "22kW",
    "socket:type2:voltage": "400",
    "website": "https://www.mobie.pt",
    "id": "node/8286317371"
  },
  "geometry": {
    "type": "Point",
    "coordinates": [
      -8.4430368,
      40.5722778
    ]
  }
},
{
  "type": "Feature",
  "id": "node/8286412765",
  "properties": {
    "access": "yes",
    "addr:city": "Aveiro",
    "addr:country": "PT",
    "authentication:membership_card": "yes",
    "authentication:none": "no",
    "capacity": "2",
    "construction:amenity": "charging_station",
    "email": "apoio.cliente@kmlowcost.com",
    "fee": "yes",
    "motorcar": "yes",
    "name": "AVR-00013 - Lidl",
    "network": "Mobi.E",
    "opening_hours": "24/7",
    "operator": "KLC",
    "parking:fee": "no",
    "phone": "+351 800 296 929",
    "ref": "AVR-00013",
    "socket:chademo": "1",
    "socket:chademo:current": "120",
    "socket:chademo:output": "50kW",
    "socket:chademo:voltage": "500",
    "socket:type2_cable": "1",
    "socket:type2_cable:current": "63",
    "socket:type2_cable:output": "43kW",
    "socket:type2_cable:voltage": "400",
    "socket:type2_combo": "1",
    "socket:type2_combo:current": "125",
    "socket:type2_combo:output": "50kW",
    "socket:type2_combo:voltage": "500",
    "website": "https://www.mobie.pt",
    "id": "node/8286412765"
  },
  "geometry": {
    "type": "Point",
    "coordinates": [
      -8.6121601,
      40.6630482
    ]
  }
},
{
  "type": "Feature",
  "id": "node/8289337270",
  "properties": {
    "access": "yes",
    "addr:country": "PT",
    "authentication:membership_card": "yes",
    "authentication:none": "no",
    "capacity": "2",
    "construction:amenity": "charging_station",
    "email": "mobilidade-eletrica@edp.pt",
    "fee": "yes",
    "motorcar": "yes",
    "name": "BRR-00001",
    "network": "Mobi.E",
    "opening_hours": "24/7",
    "operator": "EDP Comercial",
    "parking:fee": "no",
    "phone": "+351 800 222 222",
    "ref": "BRR-00001",
    "socket:type2": "2",
    "socket:type2:current": "32",
    "socket:type2:output": "22kW",
    "socket:type2:voltage": "400",
    "website": "https://www.mobie.pt",
    "id": "node/8289337270"
  },
  "geometry": {
    "type": "Point",
    "coordinates": [
      -9.0674999,
      38.6570002
    ]
  }
},
{
  "type": "Feature",
  "id": "node/8289337323",
  "properties": {
    "access": "yes",
    "addr:country": "PT",
    "authentication:membership_card": "yes",
    "authentication:none": "no",
    "capacity": "2",
    "construction:amenity": "charging_station",
    "email": "ajuda@powerdot.pt",
    "fee": "yes",
    "motorcar": "yes",
    "name": "SXL-00001",
    "network": "Mobi.E",
    "opening_hours": "24/7",
    "operator": "Powerdot",
    "parking:fee": "no",
    "phone": "+351 800 180 292",
    "ref": "SXL-00001",
    "socket:type2": "2",
    "socket:type2:current": "32",
    "socket:type2:output": "22kW",
    "socket:type2:voltage": "400",
    "website": "https://www.mobie.pt",
    "id": "node/8289337323"
  },
  "geometry": {
    "type": "Point",
    "coordinates": [
      -9.1024156,
      38.6363872
    ]
  }
},
{
  "type": "Feature",
  "id": "node/8289959235",
  "properties": {
    "access": "yes",
    "addr:country": "PT",
    "authentication:membership_card": "yes",
    "authentication:none": "no",
    "capacity": "2",
    "construction:amenity": "charging_station",
    "email": "suporte@evpower.pt",
    "fee": "yes",
    "motorcar": "yes",
    "name": "CVD-00002",
    "network": "Mobi.E",
    "opening_hours": "24/7",
    "operator": "EV Power",
    "parking:fee": "no",
    "phone": "+351 800 254 565",
    "ref": "CVD-00002",
    "socket:type2": "2",
    "socket:type2:current": "16",
    "socket:type2:output": "11kW",
    "socket:type2:voltage": "400",
    "website": "https://www.mobie.pt",
    "id": "node/8289959235"
  },
  "geometry": {
    "type": "Point",
    "coordinates": [
      -7.4559174,
      39.4159178
    ]
  }
},
{
  "type": "Feature",
  "id": "node/8294833213",
  "properties": {
    "access": "yes",
    "addr:country": "PT",
    "authentication:membership_card": "yes",
    "authentication:none": "no",
    "capacity": "1",
    "construction:amenity": "charging_station",
    "fee": "yes",
    "motorcar": "yes",
    "name": "OER-XXXXX",
    "network": "Mobi.E",
    "opening_hours": "24/7",
    "operator": "unknown",
    "parking:fee": "no",
    "ref": "OER-XXXXX",
    "socket:type2": "1",
    "socket:type2:current": "32",
    "socket:type2:output": "22kW",
    "socket:type2:voltage": "400",
    "website": "https://www.mobie.pt",
    "id": "node/8294833213"
  },
  "geometry": {
    "type": "Point",
    "coordinates": [
      -9.2418321,
      38.7257985
    ]
  }
},
{
  "type": "Feature",
  "id": "node/8298190295",
  "properties": {
    "access": "yes",
    "addr:country": "PT",
    "authentication:membership_card": "yes",
    "authentication:none": "no",
    "capacity": "2",
    "construction:amenity": "charging_station",
    "email": "apoio.cliente@kmlowcost.com",
    "fee": "yes",
    "motorcar": "yes",
    "name": "LSB-00026",
    "network": "Mobi.E",
    "opening_hours": "24/7",
    "operator": "KLC",
    "parking:fee": "no",
    "phone": "+351 800 296 929",
    "ref": "LSB-90026",
    "socket:type2": "2",
    "socket:type2:current": "32",
    "socket:type2:output": "22kW",
    "socket:type2:voltage": "400",
    "website": "https://www.mobie.pt",
    "id": "node/8298190295"
  },
  "geometry": {
    "type": "Point",
    "coordinates": [
      -9.1824433,
      38.760081
    ]
  }
},
{
  "type": "Feature",
  "id": "node/8308938783",
  "properties": {
    "access": "yes",
    "addr:country": "PT",
    "authentication:membership_card": "yes",
    "authentication:none": "no",
    "capacity": "1",
    "construction:amenity": "charging_station",
    "fee": "yes",
    "name": "OER-00110",
    "network": "Mobi.E",
    "opening_hours": "24/7",
    "operator": "GreenCharge",
    "parking:fee": "no",
    "ref": "OER-00110",
    "socket:type2": "1",
    "socket:type2:current": "32",
    "socket:type2:output": "22kW",
    "socket:type2:voltage": "400",
    "id": "node/8308938783"
  },
  "geometry": {
    "type": "Point",
    "coordinates": [
      -9.226048,
      38.7138037
    ]
  }
},
{
  "type": "Feature",
  "id": "node/8308978354",
  "properties": {
    "access": "yes",
    "addr:country": "PT",
    "authentication:membership_card": "yes",
    "authentication:none": "no",
    "capacity": "4",
    "construction:amenity": "charging_station",
    "email": "mobilidade-eletrica@edp.pt",
    "fee": "yes",
    "location": "underground",
    "motorcar": "yes",
    "name": "LSB-XXXXX - Parque Estacionamento SABA Campo Grande",
    "network": "Mobi.E",
    "opening_hours": "24/7",
    "operator": "EDP Comercial",
    "parking:fee": "yes",
    "phone": "+351 800 222 222",
    "ref": "LSB-XXXXX",
    "socket:type2": "4",
    "socket:type2:current": "32",
    "socket:type2:output": "7.4kW",
    "socket:type2:voltage": "230",
    "website": "https://www.mobie.pt",
    "id": "node/8308978354"
  },
  "geometry": {
    "type": "Point",
    "coordinates": [
      -9.1585348,
      38.7595168
    ]
  }
},
{
  "type": "Feature",
  "id": "node/8309422368",
  "properties": {
    "access": "yes",
    "addr:country": "PT",
    "authentication:membership_card": "yes",
    "authentication:none": "no",
    "capacity": "10",
    "construction:amenity": "charging_station",
    "fee": "yes",
    "motorcar": "yes",
    "name": "ILH-XXXXX",
    "network": "Mobi.E",
    "opening_hours": "24/7",
    "operator": "unknown",
    "parking:fee": "no",
    "ref": "ILH-XXXXX",
    "socket:type2": "10",
    "socket:type2:current": "32",
    "socket:type2:output": "22kW",
    "socket:type2:voltage": "400",
    "website": "https://www.mobie.pt",
    "id": "node/8309422368"
  },
  "geometry": {
    "type": "Point",
    "coordinates": [
      -8.7318634,
      40.6461826
    ]
  }
},
{
  "type": "Feature",
  "id": "node/8309480651",
  "properties": {
    "access": "yes",
    "addr:country": "PT",
    "authentication:membership_card": "yes",
    "authentication:none": "no",
    "capacity": "2",
    "construction:amenity": "charging_station",
    "fee": "yes",
    "motorcar": "yes",
    "name": "VNG-XXXXX - Intermarché",
    "network": "Mobi.E",
    "opening_hours": "24/7",
    "operator": "unknown",
    "parking:fee": "no",
    "ref": "VNG-XXXXX",
    "socket:type2": "2",
    "socket:type2:current": "32",
    "socket:type2:output": "22kW",
    "socket:type2:voltage": "400",
    "website": "https://www.mobie.pt",
    "id": "node/8309480651"
  },
  "geometry": {
    "type": "Point",
    "coordinates": [
      -8.6322203,
      41.0422458
    ]
  }
},
{
  "type": "Feature",
  "id": "node/8309551644",
  "properties": {
    "access": "yes",
    "addr:country": "PT",
    "authentication:membership_card": "yes",
    "authentication:none": "no",
    "capacity": "2",
    "construction:amenity": "charging_station",
    "email": "apoio.cliente@kmlowcost.com",
    "fee": "yes",
    "motorcar": "yes",
    "name": "AMT-00002",
    "network": "Mobi.E",
    "opening_hours": "24/7",
    "operator": "KLC",
    "parking:fee": "no",
    "phone": "+351 800 296 929",
    "ref": "AMT-00002",
    "socket:type2": "2",
    "socket:type2:current": "32",
    "socket:type2:output": "22kW",
    "socket:type2:voltage": "400",
    "website": "https://www.mobie.pt",
    "id": "node/8309551644"
  },
  "geometry": {
    "type": "Point",
    "coordinates": [
      -8.0735417,
      41.2675506
    ]
  }
},
{
  "type": "Feature",
  "id": "node/8309572509",
  "properties": {
    "access": "yes",
    "addr:country": "PT",
    "authentication:membership_card": "yes",
    "authentication:none": "no",
    "capacity": "2",
    "construction:amenity": "charging_station",
    "email": "mobilidade-eletrica@edp.pt",
    "fee": "yes",
    "motorcar": "yes",
    "name": "VCD-00004",
    "network": "Mobi.E",
    "opening_hours": "24/7",
    "operator": "EDP Comercial",
    "parking:fee": "no",
    "phone": "+351 800 222 222",
    "ref": "VCD-00004",
    "socket:type2": "2",
    "socket:type2:current": "32",
    "socket:type2:output": "22kW",
    "socket:type2:voltage": "400",
    "website": "https://www.mobie.pt",
    "id": "node/8309572509"
  },
  "geometry": {
    "type": "Point",
    "coordinates": [
      -8.747668,
      41.3499197
    ]
  }
},
{
  "type": "Feature",
  "id": "node/8313020065",
  "properties": {
    "access": "yes",
    "addr:country": "PT",
    "authentication:membership_card": "yes",
    "authentication:none": "no",
    "capacity": "2",
    "construction:amenity": "charging_station",
    "email": "mobilidade.electricacrc@galp.com",
    "fee": "yes",
    "motorcar": "yes",
    "name": "VLN-00002",
    "network": "Mobi.E",
    "opening_hours": "24/7",
    "operator": "Galp Power",
    "parking:fee": "no",
    "phone": "+351 800 249 249",
    "ref": "VLN-00002",
    "socket:type2": "2",
    "socket:type2:current": "32",
    "socket:type2:output": "22kW",
    "socket:type2:voltage": "400",
    "website": "https://www.mobie.pt",
    "id": "node/8313020065"
  },
  "geometry": {
    "type": "Point",
    "coordinates": [
      -8.6410341,
      42.0269535
    ]
  }
},
{
  "type": "Feature",
  "id": "node/8313046071",
  "properties": {
    "access": "yes",
    "addr:country": "PT",
    "authentication:membership_card": "yes",
    "authentication:none": "no",
    "capacity": "2",
    "construction:amenity": "charging_station",
    "email": "mobilidade-eletrica@edp.pt",
    "fee": "yes",
    "motorcar": "yes",
    "name": "CMN-00001",
    "network": "Mobi.E",
    "opening_hours": "24/7",
    "operator": "EDP Comercial",
    "parking:fee": "no",
    "phone": "+351 800 222 222",
    "ref": "CMN-00001",
    "socket:type2": "2",
    "socket:type2:current": "32",
    "socket:type2:output": "22kW",
    "socket:type2:voltage": "400",
    "website": "https://www.mobie.pt",
    "id": "node/8313046071"
  },
  "geometry": {
    "type": "Point",
    "coordinates": [
      -8.8372977,
      41.8773594
    ]
  }
},
{
  "type": "Feature",
  "id": "node/8322482750",
  "properties": {
    "access": "yes",
    "addr:city": "Penafiel",
    "addr:country": "PT",
    "authentication:membership_card": "yes",
    "authentication:none": "no",
    "capacity": "2",
    "construction:amenity": "charging_station",
    "email": "mobilidade.electricacrc@galp.com",
    "fee": "yes",
    "motorcar": "yes",
    "name": "PNF-00009",
    "network": "Mobi.E",
    "opening_hours": "24/7",
    "operator": "Galp Power",
    "parking:fee": "no",
    "phone": "+351 800 249 249",
    "ref": "PNF-00009",
    "socket:chademo": "1",
    "socket:chademo:current": "120",
    "socket:chademo:output": "50kW",
    "socket:chademo:voltage": "500",
    "socket:type2_cable": "1",
    "socket:type2_cable:current": "63",
    "socket:type2_cable:output": "43kW",
    "socket:type2_cable:voltage": "400",
    "socket:type2_combo": "1",
    "socket:type2_combo:current": "125",
    "socket:type2_combo:output": "50kW",
    "socket:type2_combo:voltage": "500",
    "website": "https://www.mobie.pt",
    "id": "node/8322482750"
  },
  "geometry": {
    "type": "Point",
    "coordinates": [
      -8.2970729,
      41.1945167
    ]
  }
},
{
  "type": "Feature",
  "id": "node/8362478493",
  "properties": {
    "access": "yes",
    "addr:country": "PT",
    "authentication:membership_card": "yes",
    "authentication:none": "no",
    "capacity": "2",
    "construction:amenity": "charging_station",
    "fee": "yes",
    "motorcar": "yes",
    "name": "PST-XXXXX",
    "network": "Mobi.E",
    "opening_hours": "24/7",
    "operator": "Mobi.E",
    "parking:fee": "no",
    "ref": "PST-XXXXX",
    "socket:type2": "2",
    "socket:type2:current": "32",
    "socket:type2:output": "7.4kW",
    "socket:type2:voltage": "230",
    "website": "https://www.mobie.pt",
    "id": "node/8362478493"
  },
  "geometry": {
    "type": "Point",
    "coordinates": [
      -16.33887,
      33.0572787
    ]
  }
},
{
  "type": "Feature",
  "id": "node/8379226900",
  "properties": {
    "access": "yes",
    "addr:city": "Alverca do Ribatejo",
    "addr:country": "PT",
    "authentication:membership_card": "yes",
    "authentication:none": "no",
    "capacity": "2",
    "construction:amenity": "charging_station",
    "email": "mobilidade.electricacrc@galp.com",
    "fee": "yes",
    "motorcar": "yes",
    "name": "VFX-XXXXX",
    "network": "Mobi.E",
    "opening_hours": "24/7",
    "operator": "Galp Power",
    "parking:fee": "no",
    "phone": "+351 800 249 249",
    "ref": "VFX-XXXXX",
    "socket:chademo": "1",
    "socket:chademo:current": "120",
    "socket:chademo:output": "50kW",
    "socket:chademo:voltage": "500",
    "socket:type2_cable": "1",
    "socket:type2_cable:current": "63",
    "socket:type2_cable:output": "43kW",
    "socket:type2_cable:voltage": "400",
    "socket:type2_combo": "1",
    "socket:type2_combo:current": "125",
    "socket:type2_combo:output": "50kW",
    "socket:type2_combo:voltage": "500",
    "website": "https://www.mobie.pt",
    "id": "node/8379226900"
  },
  "geometry": {
    "type": "Point",
    "coordinates": [
      -9.0446596,
      38.8923021
    ]
  }
},
{
  "type": "Feature",
  "id": "node/8385342223",
  "properties": {
    "access": "yes",
    "addr:city": "Porto",
    "addr:country": "PT",
    "addr:street": "Estrada da Circunvalação",
    "authentication:membership_card": "yes",
    "authentication:none": "no",
    "capacity": "2",
    "construction:amenity": "charging_station",
    "email": "mobilidade.electricacrc@galp.com",
    "fee": "yes",
    "motorcar": "yes",
    "name": "PRT-XXXXX",
    "network": "Mobi.E",
    "opening_hours": "24/7",
    "operator": "Galp Geste",
    "parking:fee": "no",
    "phone": "+351 800 249 249",
    "ref": "PRT-XXXXX",
    "socket:chademo": "1",
    "socket:chademo:current": "120",
    "socket:chademo:output": "50kW",
    "socket:chademo:voltage": "500",
    "socket:type2_cable": "1",
    "socket:type2_cable:current": "63",
    "socket:type2_cable:output": "43kW",
    "socket:type2_cable:voltage": "400",
    "socket:type2_combo": "1",
    "socket:type2_combo:current": "125",
    "socket:type2_combo:output": "50kW",
    "socket:type2_combo:voltage": "500",
    "website": "https://www.mobie.pt",
    "id": "node/8385342223"
  },
  "geometry": {
    "type": "Point",
    "coordinates": [
      -8.5781778,
      41.1458363
    ]
  }
},
{
  "type": "Feature",
  "id": "node/8385455670",
  "properties": {
    "access": "yes",
    "addr:city": "Porto Salvo",
    "addr:country": "PT",
    "authentication:membership_card": "yes",
    "authentication:none": "no",
    "capacity": "1",
    "construction:amenity": "charging_station",
    "email": "suporte@mobiletric.com",
    "fee": "yes",
    "motorcar": "yes",
    "name": "OER-00088 - Tagus Park",
    "network": "Mobi.E",
    "opening_hours": "24/7",
    "operator": "Mobiletric",
    "parking:fee": "no",
    "phone": "+351 800 210 204",
    "ref": "OER-00088",
    "socket:chademo": "1",
    "socket:chademo:current": "120",
    "socket:chademo:output": "50kW",
    "socket:chademo:voltage": "500",
    "socket:type2_combo": "1",
    "socket:type2_combo:current": "350",
    "socket:type2_combo:output": "160kW",
    "socket:type2_combo:voltage": "920",
    "website": "https://www.mobie.pt",
    "id": "node/8385455670"
  },
  "geometry": {
    "type": "Point",
    "coordinates": [
      -9.3041217,
      38.7447161
    ]
  }
},
{
  "type": "Feature",
  "id": "node/8385478021",
  "properties": {
    "access": "yes",
    "addr:country": "PT",
    "addr:street": "Avenida do Brasil",
    "authentication:membership_card": "yes",
    "authentication:none": "no",
    "capacity": "2",
    "construction:amenity": "charging_station",
    "email": "suporte@mobiletric.com",
    "fee": "yes",
    "motorcar": "yes",
    "name": "OER-00066 - Estação de Santo Amaro de Oeiras",
    "network": "Mobi.E",
    "opening_hours": "24/7",
    "operator": "Mobiletric",
    "parking:fee": "no",
    "phone": "+351 800 210 204",
    "ref": "OER-00066",
    "socket:chademo": "1",
    "socket:chademo:current": "120",
    "socket:chademo:output": "50kW",
    "socket:chademo:voltage": "500",
    "socket:type2_cable": "1",
    "socket:type2_cable:current": "63",
    "socket:type2_cable:output": "43kW",
    "socket:type2_cable:voltage": "400",
    "socket:type2_combo": "1",
    "socket:type2_combo:current": "125",
    "socket:type2_combo:output": "50kW",
    "socket:type2_combo:voltage": "500",
    "website": "https://www.mobie.pt",
    "id": "node/8385478021"
  },
  "geometry": {
    "type": "Point",
    "coordinates": [
      -9.3120134,
      38.6871842
    ]
  }
},
{
  "type": "Feature",
  "id": "node/8397159084",
  "properties": {
    "access": "yes",
    "addr:country": "PT",
    "authentication:membership_card": "yes",
    "authentication:none": "no",
    "capacity": "6",
    "construction:amenity": "charging_station",
    "email": "mobilidade.electricacrc@galp.com",
    "fee": "yes",
    "motorcar": "yes",
    "name": "LSB-00347/348/349 - Aeroporto Parque P6",
    "network": "Mobi.E",
    "opening_hours": "24/7",
    "operator": "Galp Power",
    "parking:fee": "no",
    "phone": "+351 800 249 249",
    "ref": "LSB-00347;LSB-00348;LSB-00349",
    "socket:type2": "6",
    "socket:type2:current": "16",
    "socket:type2:output": "3.7kW",
    "socket:type2:voltage": "230",
    "website": "https://www.mobie.pt",
    "id": "node/8397159084"
  },
  "geometry": {
    "type": "Point",
    "coordinates": [
      -9.1261813,
      38.7711895
    ]
  }
},
{
  "type": "Feature",
  "id": "node/8397185634",
  "properties": {
    "access": "yes",
    "addr:country": "PT",
    "authentication:membership_card": "yes",
    "authentication:none": "no",
    "capacity": "2",
    "construction:amenity": "charging_station",
    "email": "suporte@mobiletric.com",
    "fee": "yes",
    "motorcar": "yes",
    "name": "ACN-00003 - Intermarché",
    "network": "Mobi.E",
    "opening_hours": "24/7",
    "operator": "Mobiletric",
    "parking:fee": "no",
    "phone": "+351 800 210 204",
    "ref": "ACN-00003",
    "socket:type2": "2",
    "socket:type2:current": "32",
    "socket:type2:output": "22kW",
    "socket:type2:voltage": "400",
    "website": "https://www.mobie.pt",
    "id": "node/8397185634"
  },
  "geometry": {
    "type": "Point",
    "coordinates": [
      -8.6882021,
      39.5190138
    ]
  }
},
{
  "type": "Feature",
  "id": "node/8408172093",
  "properties": {
    "access": "yes",
    "addr:city": "Trofa",
    "addr:country": "PT",
    "addr:street": "Rua Dom Pedro V",
    "authentication:membership_card": "yes",
    "authentication:none": "no",
    "capacity": "2",
    "construction:amenity": "charging_station",
    "email": "mobilidade.electricacrc@galp.com",
    "fee": "yes",
    "motorcar": "yes",
    "name": "TRF-XXXXX",
    "network": "Mobi.E",
    "opening_hours": "24/7",
    "operator": "Galp Geste",
    "parking:fee": "no",
    "phone": "+351 800 249 249",
    "ref": "TRF-XXXXX",
    "socket:chademo": "1",
    "socket:chademo:current": "120",
    "socket:chademo:output": "50kW",
    "socket:chademo:voltage": "500",
    "socket:type2_cable": "1",
    "socket:type2_cable:current": "63",
    "socket:type2_cable:output": "43kW",
    "socket:type2_cable:voltage": "400",
    "socket:type2_combo": "1",
    "socket:type2_combo:current": "125",
    "socket:type2_combo:output": "50kW",
    "socket:type2_combo:voltage": "500",
    "website": "https://www.mobie.pt",
    "id": "node/8408172093"
  },
  "geometry": {
    "type": "Point",
    "coordinates": [
      -8.556953,
      41.343476
    ]
  }
},
{
  "type": "Feature",
  "id": "node/8413309492",
  "properties": {
    "access": "customers",
    "addr:country": "PT",
    "amenity:wikipedia": "en:Tesla Supercharger",
    "authentication:none": "no",
    "brand": "Tesla Supercharger",
    "brand:wikidata": "Q17089620",
    "brand:wikipedia": "en:Tesla Supercharger",
    "capacity": "12",
    "construction:amenity": "charging_station",
    "fee": "yes",
    "motorcar": "yes",
    "name": "Matosinhos Supercharger",
    "network": "Tesla",
    "note": "V3",
    "opening_hours": "24/7",
    "operator": "Tesla",
    "parking:fee": "no",
    "socket:tesla_supercharger_ccs": "12",
    "socket:tesla_supercharger_ccs:output": "250 kW",
    "id": "node/8413309492"
  },
  "geometry": {
    "type": "Point",
    "coordinates": [
      -8.6883456,
      41.2081822
    ]
  }
},
{
  "type": "Feature",
  "id": "node/8419322091",
  "properties": {
    "access": "yes",
    "addr:country": "PT",
    "authentication:membership_card": "yes",
    "authentication:none": "no",
    "capacity": "2",
    "construction:amenity": "charging_station",
    "email": "ajuda@powerdot.pt",
    "fee": "yes",
    "motorcar": "yes",
    "name": "VIS-00007",
    "network": "Mobi.E",
    "opening_hours": "Mo-Sa 09:00-20:00",
    "operator": "Powerdot",
    "parking:fee": "no",
    "phone": "+351 800 180 292",
    "ref": "VIS-00007",
    "socket:type2": "2",
    "socket:type2:current": "32",
    "socket:type2:output": "22kW",
    "socket:type2:voltage": "400",
    "website": "https://www.mobie.pt",
    "id": "node/8419322091"
  },
  "geometry": {
    "type": "Point",
    "coordinates": [
      -7.9323703,
      40.6694457
    ]
  }
},
{
  "type": "Feature",
  "id": "node/8450481852",
  "properties": {
    "access": "yes",
    "addr:country": "PT",
    "authentication:membership_card": "yes",
    "authentication:none": "no",
    "capacity": "2",
    "construction:amenity": "charging_station",
    "email": "apoio.cliente@kmlowcost.com",
    "fee": "yes",
    "motorcar": "yes",
    "name": "ORQ-00001",
    "network": "Mobi.E",
    "opening_hours": "24/7",
    "operator": "KLC",
    "parking:fee": "no",
    "phone": "+351 800 296 929",
    "ref": "ORQ-00001",
    "socket:type2": "2",
    "socket:type2:current": "32",
    "socket:type2:output": "22kW",
    "socket:type2:voltage": "400",
    "website": "https://www.mobie.pt",
    "id": "node/8450481852"
  },
  "geometry": {
    "type": "Point",
    "coordinates": [
      -8.225083,
      37.653167
    ]
  }
},
{
  "type": "Feature",
  "id": "node/8477321982",
  "properties": {
    "access": "yes",
    "addr:city": "Fafe",
    "addr:country": "PT",
    "authentication:membership_card": "yes",
    "authentication:none": "no",
    "capacity": "2",
    "construction:amenity": "charging_station",
    "email": "apoio.cliente@kmlowcost.com",
    "fee": "yes",
    "motorcar": "yes",
    "name": "FAF-00005 - Pingo Doce",
    "network": "Mobi.E",
    "opening_hours": "24/7",
    "operator": "KLC",
    "parking:fee": "no",
    "phone": "+351 800 296 929",
    "ref": "FAF-00005",
    "socket:chademo": "1",
    "socket:chademo:current": "120",
    "socket:chademo:output": "50kW",
    "socket:chademo:voltage": "500",
    "socket:type2_cable": "1",
    "socket:type2_cable:current": "63",
    "socket:type2_cable:output": "43kW",
    "socket:type2_cable:voltage": "400",
    "socket:type2_combo": "1",
    "socket:type2_combo:current": "125",
    "socket:type2_combo:output": "50kW",
    "socket:type2_combo:voltage": "500",
    "website": "https://www.mobie.pt",
    "id": "node/8477321982"
  },
  "geometry": {
    "type": "Point",
    "coordinates": [
      -8.165535,
      41.4457092
    ]
  }
},
{
  "type": "Feature",
  "id": "node/8486791114",
  "properties": {
    "access": "yes",
    "addr:country": "PT",
    "authentication:membership_card": "yes",
    "authentication:none": "no",
    "capacity": "2",
    "construction:amenity": "charging_station",
    "email": "ajuda@powerdot.pt",
    "fee": "yes",
    "motorcar": "yes",
    "name": "SCD-00002 - Intermaché",
    "network": "Mobi.E",
    "opening_hours": "24/7",
    "operator": "Powerdot",
    "parking:fee": "no",
    "phone": "+351 800 180 292",
    "ref": "SCD-00002",
    "socket:type2": "2",
    "socket:type2:current": "32",
    "socket:type2:output": "22kW",
    "socket:type2:voltage": "400",
    "website": "https://www.mobie.pt",
    "id": "node/8486791114"
  },
  "geometry": {
    "type": "Point",
    "coordinates": [
      -8.129247,
      40.403559
    ]
  }
},
{
  "type": "Feature",
  "id": "node/8497383440",
  "properties": {
    "access": "yes",
    "addr:city": "Lousada",
    "addr:country": "PT",
    "addr:street": "Rua do Comércio",
    "authentication:membership_card": "yes",
    "authentication:none": "no",
    "capacity": "2",
    "construction:amenity": "charging_station",
    "email": "mobilidade.electricacrc@galp.com",
    "fee": "yes",
    "motorcar": "yes",
    "name": "LOU-XXXXX - Galp",
    "network": "Mobi.E",
    "opening_hours": "24/7",
    "operator": "Galp Power",
    "parking:fee": "no",
    "phone": "+351 800 249 249",
    "ref": "LOU-XXXXX",
    "socket:chademo": "1",
    "socket:chademo:current": "120",
    "socket:chademo:output": "50kW",
    "socket:chademo:voltage": "500",
    "socket:type2_cable": "1",
    "socket:type2_cable:current": "63",
    "socket:type2_cable:output": "43kW",
    "socket:type2_cable:voltage": "400",
    "socket:type2_combo": "1",
    "socket:type2_combo:current": "125",
    "socket:type2_combo:output": "50kW",
    "socket:type2_combo:voltage": "500",
    "website": "https://www.mobie.pt",
    "id": "node/8497383440"
  },
  "geometry": {
    "type": "Point",
    "coordinates": [
      -8.290467,
      41.266847
    ]
  }
},
{
  "type": "Feature",
  "id": "node/8513200747",
  "properties": {
    "access": "customers",
    "addr:country": "PT",
    "amenity:wikipedia": "en:Tesla Supercharger",
    "authentication:none": "no",
    "brand": "Tesla Supercharger",
    "brand:wikidata": "Q17089620",
    "brand:wikipedia": "en:Tesla Supercharger",
    "capacity": "8",
    "construction:amenity": "charging_station",
    "fee": "yes",
    "motorcar": "yes",
    "name": "Castelo Branco Supercharger",
    "network": "Tesla",
    "note": "V3",
    "opening_hours": "24/7",
    "operator": "Tesla",
    "parking:fee": "no",
    "socket:tesla_supercharger_ccs": "8",
    "socket:tesla_supercharger_ccs:output": "250 kW",
    "id": "node/8513200747"
  },
  "geometry": {
    "type": "Point",
    "coordinates": [
      -7.5155403,
      39.8064962
    ]
  }
},
{
  "type": "Feature",
  "id": "node/8522435566",
  "properties": {
    "access": "yes",
    "addr:country": "PT",
    "authentication:membership_card": "yes",
    "authentication:none": "no",
    "capacity": "1",
    "construction:amenity": "charging_station",
    "fee": "yes",
    "motorcar": "yes",
    "name": "OER-XXXXX",
    "network": "Mobi.E",
    "opening_hours": "24/7",
    "operator": "unknown",
    "parking:fee": "no",
    "ref": "OER-XXXXX",
    "socket:type2": "1",
    "socket:type2:current": "32",
    "socket:type2:output": "22kW",
    "socket:type2:voltage": "400",
    "website": "https://www.mobie.pt",
    "id": "node/8522435566"
  },
  "geometry": {
    "type": "Point",
    "coordinates": [
      -9.2977059,
      38.7118521
    ]
  }
},
{
  "type": "Feature",
  "id": "node/8536726565",
  "properties": {
    "access": "private",
    "addr:city": "Setúbal",
    "addr:country": "PT",
    "authentication:membership_card": "yes",
    "authentication:none": "no",
    "capacity": "2",
    "construction:amenity": "charging_station",
    "email": "geral.pt@helexia.eu",
    "fee": "yes",
    "name": "STB-XXXXX",
    "network": "Mobi.E",
    "opening_hours": "24/7",
    "operator": "Helexia II",
    "parking:fee": "no",
    "phone": "+351 800 100 303",
    "ref": "STB-XXXXX",
    "socket:chademo": "1",
    "socket:chademo:current": "120",
    "socket:chademo:output": "50kW",
    "socket:chademo:voltage": "500",
    "socket:type2_cable": "1",
    "socket:type2_cable:current": "63",
    "socket:type2_cable:output": "43kW",
    "socket:type2_cable:voltage": "400",
    "socket:type2_combo": "1",
    "socket:type2_combo:current": "125",
    "socket:type2_combo:output": "50kW",
    "socket:type2_combo:voltage": "500",
    "website": "https://www.mobie.pt",
    "id": "node/8536726565"
  },
  "geometry": {
    "type": "Point",
    "coordinates": [
      -8.834293,
      38.5300062
    ]
  }
},
{
  "type": "Feature",
  "id": "node/8634952659",
  "properties": {
    "access": "yes",
    "addr:city": "Ramada",
    "addr:country": "PT",
    "addr:street": "Avenida Augusto Hilário",
    "authentication:membership_card": "yes",
    "authentication:none": "no",
    "capacity": "1",
    "construction:amenity": "charging_station",
    "fee": "yes",
    "motorcar": "yes",
    "name": "ODV-XXXXX - BP",
    "network": "Mobi.E",
    "opening_hours": "24/7",
    "operator": "unknown",
    "parking:fee": "no",
    "ref": "ODV-XXXXX",
    "socket:chademo": "1",
    "socket:chademo:current": "120",
    "socket:chademo:output": "50kW",
    "socket:chademo:voltage": "500",
    "socket:type2_cable": "1",
    "socket:type2_cable:current": "63",
    "socket:type2_cable:output": "43kW",
    "socket:type2_cable:voltage": "400",
    "socket:type2_combo": "1",
    "socket:type2_combo:current": "125",
    "socket:type2_combo:output": "50kW",
    "socket:type2_combo:voltage": "500",
    "website": "https://www.mobie.pt",
    "id": "node/8634952659"
  },
  "geometry": {
    "type": "Point",
    "coordinates": [
      -9.1878879,
      38.8143438
    ]
  }
},
{
  "type": "Feature",
  "id": "node/8730840559",
  "properties": {
    "access": "yes",
    "addr:city": "Lisboa",
    "addr:country": "PT",
    "addr:street": "Campo Grande",
    "authentication:membership_card": "yes",
    "authentication:none": "no",
    "capacity": "1",
    "construction:amenity": "charging_station",
    "email": "suporte@mobiletric.com",
    "fee": "yes",
    "motorcar": "yes",
    "name": "LSB-00351 - Faculdade de Ciências",
    "network": "Mobi.E",
    "opening_hours": "24/7",
    "operator": "Mobiletric",
    "parking:fee": "no",
    "phone": "+351 800 210 204",
    "ref": "LSB-00351",
    "socket:chademo": "1",
    "socket:chademo:current": "200",
    "socket:chademo:output": "100kW",
    "socket:chademo:voltage": "500",
    "socket:type2_combo": "1",
    "socket:type2_combo:current": "200",
    "socket:type2_combo:output": "180kW",
    "socket:type2_combo:voltage": "920",
    "website": "https://www.mobie.pt",
    "id": "node/8730840559"
  },
  "geometry": {
    "type": "Point",
    "coordinates": [
      -9.155248,
      38.756393
    ]
  }
},
{
  "type": "Feature",
  "id": "node/8733708461",
  "properties": {
    "access": "yes",
    "addr:city": "Quinta do Conde",
    "addr:country": "PT",
    "addr:street": "Avenida Norton de Matos",
    "authentication:membership_card": "yes",
    "authentication:none": "no",
    "capacity": "2",
    "construction:amenity": "charging_station",
    "email": "apoio.cliente@kmlowcost.com",
    "fee": "yes",
    "motorcar": "yes",
    "name": "SSB-00005 - Lidl",
    "network": "Mobi.E",
    "opening_hours": "24/7",
    "operator": "KLC",
    "parking:fee": "no",
    "phone": "+351 800 296 929",
    "ref": "SSB-00005",
    "socket:chademo": "1",
    "socket:chademo:current": "120",
    "socket:chademo:output": "50kW",
    "socket:chademo:voltage": "500",
    "socket:type2_cable": "1",
    "socket:type2_cable:current": "63",
    "socket:type2_cable:output": "43kW",
    "socket:type2_cable:voltage": "400",
    "socket:type2_combo": "1",
    "socket:type2_combo:current": "125",
    "socket:type2_combo:output": "50kW",
    "socket:type2_combo:voltage": "500",
    "website": "https://www.mobie.pt",
    "id": "node/8733708461"
  },
  "geometry": {
    "type": "Point",
    "coordinates": [
      -9.0375829,
      38.5659859
    ]
  }
},
{
  "type": "Feature",
  "id": "node/8733708462",
  "properties": {
    "access": "yes",
    "addr:city": "Setúbal",
    "addr:country": "PT",
    "addr:street": "Avenida de Moçambique",
    "authentication:membership_card": "yes",
    "authentication:none": "no",
    "capacity": "2",
    "construction:amenity": "charging_station",
    "email": "apoio.cliente@kmlowcost.com",
    "fee": "yes",
    "motorcar": "yes",
    "name": "STB-00018 - Lidl",
    "network": "Mobi.E",
    "opening_hours": "24/7",
    "operator": "KLC",
    "parking:fee": "no",
    "phone": "+351 800 296 929",
    "ref": "STB-00018",
    "socket:chademo": "1",
    "socket:chademo:current": "120",
    "socket:chademo:output": "50kW",
    "socket:chademo:voltage": "500",
    "socket:type2_cable": "1",
    "socket:type2_cable:current": "63",
    "socket:type2_cable:output": "43kW",
    "socket:type2_cable:voltage": "400",
    "socket:type2_combo": "1",
    "socket:type2_combo:current": "125",
    "socket:type2_combo:output": "50kW",
    "socket:type2_combo:voltage": "500",
    "website": "https://www.mobie.pt",
    "id": "node/8733708462"
  },
  "geometry": {
    "type": "Point",
    "coordinates": [
      -8.890685,
      38.538838
    ]
  }
},
{
  "type": "Feature",
  "id": "node/8733712596",
  "properties": {
    "access": "yes",
    "addr:city": "Belverde",
    "addr:country": "PT",
    "addr:street": "Avenida do Mar",
    "authentication:membership_card": "yes",
    "authentication:none": "no",
    "capacity": "2",
    "construction:amenity": "charging_station",
    "email": "apoio.cliente@kmlowcost.com",
    "fee": "yes",
    "motorcar": "yes",
    "name": "SXL-00015 - Lidl",
    "network": "Mobi.E",
    "opening_hours": "24/7",
    "operator": "KLC",
    "parking:fee": "no",
    "phone": "+351 800 296 929",
    "ref": "SXL-00015",
    "socket:chademo": "1",
    "socket:chademo:current": "120",
    "socket:chademo:output": "50kW",
    "socket:chademo:voltage": "500",
    "socket:type2_cable": "1",
    "socket:type2_cable:current": "63",
    "socket:type2_cable:output": "43kW",
    "socket:type2_cable:voltage": "400",
    "socket:type2_combo": "1",
    "socket:type2_combo:current": "125",
    "socket:type2_combo:output": "50kW",
    "socket:type2_combo:voltage": "500",
    "website": "https://www.mobie.pt",
    "id": "node/8733712596"
  },
  "geometry": {
    "type": "Point",
    "coordinates": [
      -9.1409647,
      38.5976844
    ]
  }
},
{
  "type": "Feature",
  "id": "node/8733712597",
  "properties": {
    "access": "yes",
    "addr:city": "Beja",
    "addr:country": "PT",
    "authentication:membership_card": "yes",
    "authentication:none": "no",
    "capacity": "2",
    "construction:amenity": "charging_station",
    "email": "apoio.cliente@kmlowcost.com",
    "fee": "yes",
    "motorcar": "yes",
    "name": "BJA-00012 - Lidl",
    "network": "Mobi.E",
    "opening_hours": "24/7",
    "operator": "KLC",
    "parking:fee": "no",
    "phone": "+351 800 296 929",
    "ref": "BJA-00012",
    "socket:chademo": "1",
    "socket:chademo:current": "120",
    "socket:chademo:output": "50kW",
    "socket:chademo:voltage": "500",
    "socket:type2_cable": "1",
    "socket:type2_cable:current": "63",
    "socket:type2_cable:output": "43kW",
    "socket:type2_cable:voltage": "400",
    "socket:type2_combo": "1",
    "socket:type2_combo:current": "125",
    "socket:type2_combo:output": "50kW",
    "socket:type2_combo:voltage": "500",
    "website": "https://www.mobie.pt",
    "id": "node/8733712597"
  },
  "geometry": {
    "type": "Point",
    "coordinates": [
      -7.871028,
      38.005801
    ]
  }
},
{
  "type": "Feature",
  "id": "node/8733712653",
  "properties": {
    "access": "yes",
    "addr:city": "Loures",
    "addr:country": "PT",
    "authentication:membership_card": "yes",
    "authentication:none": "no",
    "capacity": "2",
    "construction:amenity": "charging_station",
    "email": "apoio.cliente@kmlowcost.com",
    "fee": "yes",
    "motorcar": "yes",
    "name": "LRS-00054 - Lidl",
    "network": "Mobi.E",
    "opening_hours": "24/7",
    "operator": "KLC",
    "parking:fee": "no",
    "phone": "+351 800 296 929",
    "ref": "LRS-00054",
    "socket:chademo": "1",
    "socket:chademo:current": "120",
    "socket:chademo:output": "50kW",
    "socket:chademo:voltage": "500",
    "socket:type2_cable": "1",
    "socket:type2_cable:current": "63",
    "socket:type2_cable:output": "43kW",
    "socket:type2_cable:voltage": "400",
    "socket:type2_combo": "1",
    "socket:type2_combo:current": "125",
    "socket:type2_combo:output": "50kW",
    "socket:type2_combo:voltage": "500",
    "website": "https://www.mobie.pt",
    "id": "node/8733712653"
  },
  "geometry": {
    "type": "Point",
    "coordinates": [
      -9.1483209,
      38.8153334
    ]
  }
},
{
  "type": "Feature",
  "id": "node/8733779262",
  "properties": {
    "access": "yes",
    "addr:city": "Tires",
    "addr:country": "PT",
    "authentication:membership_card": "yes",
    "authentication:none": "no",
    "capacity": "2",
    "construction:amenity": "charging_station",
    "email": "apoio.cliente@kmlowcost.com",
    "fee": "yes",
    "motorcar": "yes",
    "name": "CSC-00072 - Lidl",
    "network": "Mobi.E",
    "opening_hours": "24/7",
    "operator": "KLC",
    "parking:fee": "no",
    "phone": "+351 800 296 929",
    "ref": "CSC-00072",
    "socket:chademo": "1",
    "socket:chademo:current": "120",
    "socket:chademo:output": "50kW",
    "socket:chademo:voltage": "500",
    "socket:type2_cable": "1",
    "socket:type2_cable:current": "63",
    "socket:type2_cable:output": "43kW",
    "socket:type2_cable:voltage": "400",
    "socket:type2_combo": "1",
    "socket:type2_combo:current": "125",
    "socket:type2_combo:output": "50kW",
    "socket:type2_combo:voltage": "500",
    "website": "https://www.mobie.pt",
    "id": "node/8733779262"
  },
  "geometry": {
    "type": "Point",
    "coordinates": [
      -9.34494,
      38.714822
    ]
  }
},
{
  "type": "Feature",
  "id": "node/8733779263",
  "properties": {
    "access": "yes",
    "addr:city": "Beloura",
    "addr:country": "PT",
    "addr:street": "Avenida Pedro Álvares Cabral",
    "authentication:membership_card": "yes",
    "authentication:none": "no",
    "capacity": "2",
    "construction:amenity": "charging_station",
    "email": "apoio.cliente@kmlowcost.com",
    "fee": "yes",
    "motorcar": "yes",
    "name": "SNT-00048 - Lidl",
    "network": "Mobi.E",
    "opening_hours": "24/7",
    "operator": "KLC",
    "parking:fee": "no",
    "phone": "+351 800 296 929",
    "ref": "SNT-00048",
    "socket:chademo": "1",
    "socket:chademo:current": "120",
    "socket:chademo:output": "50kW",
    "socket:chademo:voltage": "500",
    "socket:type2_cable": "1",
    "socket:type2_cable:current": "63",
    "socket:type2_cable:output": "43kW",
    "socket:type2_cable:voltage": "400",
    "socket:type2_combo": "1",
    "socket:type2_combo:current": "125",
    "socket:type2_combo:output": "50kW",
    "socket:type2_combo:voltage": "500",
    "website": "https://www.mobie.pt",
    "id": "node/8733779263"
  },
  "geometry": {
    "type": "Point",
    "coordinates": [
      -9.3778965,
      38.7592405
    ]
  }
},
{
  "type": "Feature",
  "id": "node/8733832871",
  "properties": {
    "access": "yes",
    "addr:city": "Tomar",
    "addr:country": "PT",
    "authentication:membership_card": "yes",
    "authentication:none": "no",
    "capacity": "2",
    "construction:amenity": "charging_station",
    "email": "apoio.cliente@kmlowcost.com",
    "fee": "yes",
    "motorcar": "yes",
    "name": "TMR-00005 - Lidl",
    "network": "Mobi.E",
    "opening_hours": "24/7",
    "operator": "KLC",
    "parking:fee": "no",
    "phone": "+351 800 296 929",
    "ref": "TMR-00005",
    "socket:chademo": "1",
    "socket:chademo:current": "120",
    "socket:chademo:output": "50kW",
    "socket:chademo:voltage": "500",
    "socket:type2_cable": "1",
    "socket:type2_cable:current": "63",
    "socket:type2_cable:output": "43kW",
    "socket:type2_cable:voltage": "400",
    "socket:type2_combo": "1",
    "socket:type2_combo:current": "125",
    "socket:type2_combo:output": "50kW",
    "socket:type2_combo:voltage": "500",
    "website": "https://www.mobie.pt",
    "id": "node/8733832871"
  },
  "geometry": {
    "type": "Point",
    "coordinates": [
      -8.4019186,
      39.6100745
    ]
  }
},
{
  "type": "Feature",
  "id": "node/8733832872",
  "properties": {
    "access": "yes",
    "addr:city": "Torres Vedras",
    "addr:country": "PT",
    "authentication:membership_card": "yes",
    "authentication:none": "no",
    "capacity": "2",
    "construction:amenity": "charging_station",
    "email": "apoio.cliente@kmlowcost.com",
    "fee": "yes",
    "motorcar": "yes",
    "name": "TVD-00020 - Lidl",
    "network": "Mobi.E",
    "opening_hours": "24/7",
    "operator": "KLC",
    "parking:fee": "no",
    "phone": "+351 800 296 929",
    "ref": "TVD-00020",
    "socket:chademo": "1",
    "socket:chademo:current": "120",
    "socket:chademo:output": "50kW",
    "socket:chademo:voltage": "500",
    "socket:type2_cable": "1",
    "socket:type2_cable:current": "63",
    "socket:type2_cable:output": "43kW",
    "socket:type2_cable:voltage": "400",
    "socket:type2_combo": "1",
    "socket:type2_combo:current": "125",
    "socket:type2_combo:output": "50kW",
    "socket:type2_combo:voltage": "500",
    "website": "https://www.mobie.pt",
    "id": "node/8733832872"
  },
  "geometry": {
    "type": "Point",
    "coordinates": [
      -9.2618384,
      39.0821933
    ]
  }
},
{
  "type": "Feature",
  "id": "node/8733832873",
  "properties": {
    "access": "yes",
    "addr:city": "Ericeira",
    "addr:country": "PT",
    "authentication:membership_card": "yes",
    "authentication:none": "no",
    "capacity": "2",
    "construction:amenity": "charging_station",
    "email": "apoio.cliente@kmlowcost.com",
    "fee": "yes",
    "motorcar": "yes",
    "name": "MFR-00016 - Lidl",
    "network": "Mobi.E",
    "opening_hours": "24/7",
    "operator": "KLC",
    "parking:fee": "no",
    "phone": "+351 800 296 929",
    "ref": "MFR-00016",
    "socket:chademo": "1",
    "socket:chademo:current": "120",
    "socket:chademo:output": "50kW",
    "socket:chademo:voltage": "500",
    "socket:type2_cable": "1",
    "socket:type2_cable:current": "63",
    "socket:type2_cable:output": "43kW",
    "socket:type2_cable:voltage": "400",
    "socket:type2_combo": "1",
    "socket:type2_combo:current": "125",
    "socket:type2_combo:output": "50kW",
    "socket:type2_combo:voltage": "500",
    "website": "https://www.mobie.pt",
    "id": "node/8733832873"
  },
  "geometry": {
    "type": "Point",
    "coordinates": [
      -9.4079278,
      38.9648086
    ]
  }
},
{
  "type": "Feature",
  "id": "node/8757554771",
  "properties": {
    "access": "yes",
    "addr:country": "PT",
    "authentication:membership_card": "yes",
    "authentication:none": "no",
    "capacity": "2",
    "construction:amenity": "charging_station",
    "fee": "yes",
    "motorcar": "yes",
    "name": "BRG-00029",
    "network": "Mobi.E",
    "opening_hours": "24/7",
    "operator": "MEO",
    "parking:fee": "no",
    "ref": "BRG-00029",
    "socket:chademo": "1",
    "socket:chademo:current": "75",
    "socket:chademo:output": "30kW",
    "socket:chademo:voltage": "500",
    "socket:type2_combo": "1",
    "socket:type2_combo:current": "75",
    "socket:type2_combo:output": "30kW",
    "socket:type2_combo:voltage": "920",
    "website": "https://www.mobie.pt",
    "id": "node/8757554771"
  },
  "geometry": {
    "type": "Point",
    "coordinates": [
      -8.4487994,
      41.564976
    ]
  }
},
{
  "type": "Feature",
  "id": "node/8757687010",
  "properties": {
    "access": "yes",
    "addr:city": "Coimbra",
    "addr:country": "PT",
    "authentication:membership_card": "yes",
    "authentication:none": "no",
    "capacity": "2",
    "construction:amenity": "charging_station",
    "email": "apoio.cliente@kmlowcost.com",
    "fee": "yes",
    "motorcar": "yes",
    "name": "CBR-00019 - Lidl",
    "network": "Mobi.E",
    "opening_hours": "24/7",
    "operator": "KLC",
    "parking:fee": "no",
    "phone": "+351 800 296 929",
    "ref": "CBR-00019",
    "socket:chademo": "1",
    "socket:chademo:current": "120",
    "socket:chademo:output": "50kW",
    "socket:chademo:voltage": "500",
    "socket:type2_cable": "1",
    "socket:type2_cable:current": "63",
    "socket:type2_cable:output": "43kW",
    "socket:type2_cable:voltage": "400",
    "socket:type2_combo": "1",
    "socket:type2_combo:current": "125",
    "socket:type2_combo:output": "50kW",
    "socket:type2_combo:voltage": "500",
    "website": "https://www.mobie.pt",
    "id": "node/8757687010"
  },
  "geometry": {
    "type": "Point",
    "coordinates": [
      -8.4385314,
      40.2278855
    ]
  }
},
{
  "type": "Feature",
  "id": "node/8757688907",
  "properties": {
    "access": "yes",
    "addr:city": "Abrantes",
    "addr:country": "PT",
    "authentication:membership_card": "yes",
    "authentication:none": "no",
    "capacity": "2",
    "construction:amenity": "charging_station",
    "email": "apoio.cliente@kmlowcost.com",
    "fee": "yes",
    "motorcar": "yes",
    "name": "ABT-00004 - Lidl",
    "network": "Mobi.E",
    "opening_hours": "24/7",
    "operator": "KLC",
    "parking:fee": "no",
    "phone": "+351 800 296 929",
    "ref": "ABT-00004",
    "socket:chademo": "1",
    "socket:chademo:current": "120",
    "socket:chademo:output": "50kW",
    "socket:chademo:voltage": "500",
    "socket:type2_cable": "1",
    "socket:type2_cable:current": "63",
    "socket:type2_cable:output": "43kW",
    "socket:type2_cable:voltage": "400",
    "socket:type2_combo": "1",
    "socket:type2_combo:current": "125",
    "socket:type2_combo:output": "50kW",
    "socket:type2_combo:voltage": "500",
    "website": "https://www.mobie.pt",
    "id": "node/8757688907"
  },
  "geometry": {
    "type": "Point",
    "coordinates": [
      -8.2007603,
      39.4688336
    ]
  }
},
{
  "type": "Feature",
  "id": "node/8757714041",
  "properties": {
    "access": "yes",
    "addr:city": "Espinho",
    "addr:country": "PT",
    "authentication:membership_card": "yes",
    "authentication:none": "no",
    "capacity": "2",
    "construction:amenity": "charging_station",
    "email": "apoio.cliente@kmlowcost.com",
    "fee": "yes",
    "motorcar": "yes",
    "name": "ESP-00002 - Lidl",
    "network": "Mobi.E",
    "opening_hours": "24/7",
    "operator": "KLC",
    "parking:fee": "no",
    "phone": "+351 800 296 929",
    "ref": "ESP-00002",
    "socket:chademo": "1",
    "socket:chademo:current": "120",
    "socket:chademo:output": "50kW",
    "socket:chademo:voltage": "500",
    "socket:type2_cable": "1",
    "socket:type2_cable:current": "63",
    "socket:type2_cable:output": "43kW",
    "socket:type2_cable:voltage": "400",
    "socket:type2_combo": "1",
    "socket:type2_combo:current": "125",
    "socket:type2_combo:output": "50kW",
    "socket:type2_combo:voltage": "500",
    "website": "https://www.mobie.pt",
    "id": "node/8757714041"
  },
  "geometry": {
    "type": "Point",
    "coordinates": [
      -8.6390596,
      41.0001157
    ]
  }
},
{
  "type": "Feature",
  "id": "node/8757714042",
  "properties": {
    "access": "yes",
    "addr:city": "Vila Nova de Gaia",
    "addr:country": "PT",
    "authentication:membership_card": "yes",
    "authentication:none": "no",
    "capacity": "2",
    "construction:amenity": "charging_station",
    "email": "apoio.cliente@kmlowcost.com",
    "fee": "yes",
    "motorcar": "yes",
    "name": "VNG-00061 - Lidl",
    "network": "Mobi.E",
    "opening_hours": "24/7",
    "operator": "KLC",
    "parking:fee": "no",
    "phone": "+351 800 296 929",
    "ref": "VNG-00061",
    "socket:chademo": "1",
    "socket:chademo:current": "120",
    "socket:chademo:output": "50kW",
    "socket:chademo:voltage": "500",
    "socket:type2_cable": "1",
    "socket:type2_cable:current": "63",
    "socket:type2_cable:output": "43kW",
    "socket:type2_cable:voltage": "400",
    "socket:type2_combo": "1",
    "socket:type2_combo:current": "125",
    "socket:type2_combo:output": "50kW",
    "socket:type2_combo:voltage": "500",
    "website": "https://www.mobie.pt",
    "id": "node/8757714042"
  },
  "geometry": {
    "type": "Point",
    "coordinates": [
      -8.6009157,
      41.1266315
    ]
  }
},
{
  "type": "Feature",
  "id": "node/8757714043",
  "properties": {
    "access": "yes",
    "addr:city": "Figueira da Foz",
    "addr:country": "PT",
    "authentication:membership_card": "yes",
    "authentication:none": "no",
    "capacity": "2",
    "construction:amenity": "charging_station",
    "email": "apoio.cliente@kmlowcost.com",
    "fee": "yes",
    "motorcar": "yes",
    "name": "FIG-00006 - Lidl",
    "network": "Mobi.E",
    "opening_hours": "24/7",
    "operator": "KLC",
    "parking:fee": "no",
    "phone": "+351 800 296 929",
    "ref": "FIG-00006",
    "socket:chademo": "1",
    "socket:chademo:current": "120",
    "socket:chademo:output": "50kW",
    "socket:chademo:voltage": "500",
    "socket:type2_cable": "1",
    "socket:type2_cable:current": "63",
    "socket:type2_cable:output": "43kW",
    "socket:type2_cable:voltage": "400",
    "socket:type2_combo": "1",
    "socket:type2_combo:current": "125",
    "socket:type2_combo:output": "50kW",
    "socket:type2_combo:voltage": "500",
    "website": "https://www.mobie.pt",
    "id": "node/8757714043"
  },
  "geometry": {
    "type": "Point",
    "coordinates": [
      -8.8498949,
      40.1569836
    ]
  }
},
{
  "type": "Feature",
  "id": "node/8757730287",
  "properties": {
    "access": "yes",
    "addr:city": "Oeiras",
    "addr:country": "PT",
    "addr:street": "Avenida Professor Doutor Cavaco Silva",
    "authentication:membership_card": "yes",
    "authentication:none": "no",
    "capacity": "1",
    "construction:amenity": "charging_station",
    "fee": "yes",
    "motorcar": "yes",
    "name": "OER-XXXXX",
    "network": "Mobi.E",
    "opening_hours": "24/7",
    "operator": "unknown",
    "parking:fee": "no",
    "ref": "OER-XXXXX",
    "socket:chademo": "1",
    "socket:chademo:current": "200",
    "socket:chademo:output": "100kW",
    "socket:chademo:voltage": "500",
    "socket:type2_combo": "1",
    "socket:type2_combo:current": "200",
    "socket:type2_combo:output": "180kW",
    "socket:type2_combo:voltage": "920",
    "website": "https://www.mobie.pt",
    "id": "node/8757730287"
  },
  "geometry": {
    "type": "Point",
    "coordinates": [
      -9.30102,
      38.735924
    ]
  }
},
{
  "type": "Feature",
  "id": "node/8757754343",
  "properties": {
    "access": "yes",
    "addr:city": "Leça da Palmeira",
    "addr:country": "PT",
    "authentication:membership_card": "yes",
    "authentication:none": "no",
    "capacity": "2",
    "construction:amenity": "charging_station",
    "email": "apoio.cliente@kmlowcost.com",
    "fee": "yes",
    "motorcar": "yes",
    "name": "MTS-00035 - Lidl",
    "network": "Mobi.E",
    "opening_hours": "24/7",
    "operator": "KLC",
    "parking:fee": "no",
    "phone": "+351 800 296 929",
    "ref": "MTS-00035",
    "socket:chademo": "1",
    "socket:chademo:current": "120",
    "socket:chademo:output": "50kW",
    "socket:chademo:voltage": "500",
    "socket:type2_cable": "1",
    "socket:type2_cable:current": "63",
    "socket:type2_cable:output": "43kW",
    "socket:type2_cable:voltage": "400",
    "socket:type2_combo": "1",
    "socket:type2_combo:current": "125",
    "socket:type2_combo:output": "50kW",
    "socket:type2_combo:voltage": "500",
    "website": "https://www.mobie.pt",
    "id": "node/8757754343"
  },
  "geometry": {
    "type": "Point",
    "coordinates": [
      -8.6965733,
      41.2041937
    ]
  }
},
{
  "type": "Feature",
  "id": "node/8757790899",
  "properties": {
    "access": "yes",
    "addr:country": "PT",
    "authentication:app": "yes",
    "authentication:none": "no",
    "brand": "Continente",
    "brand:wikidata": "Q2995683",
    "brand:wikipedia": "en:Continente (supermarket)",
    "capacity": "2",
    "construction:amenity": "charging_station",
    "fee": "yes",
    "motorcar": "yes",
    "name": "Continente",
    "network": "Continente Plug&Charge",
    "opening_hours": "Mo-Su 09:00-21:00",
    "operator": "Sonae",
    "parking:fee": "no",
    "shop": "supermarket",
    "socket:type2": "2",
    "socket:type2:current": "32",
    "socket:type2:output": "22kW",
    "socket:type2:voltage": "400",
    "website": "https://plugcharge.continente.pt/",
    "id": "node/8757790899"
  },
  "geometry": {
    "type": "Point",
    "coordinates": [
      -8.622081,
      41.5377871
    ]
  }
},
{
  "type": "Feature",
  "id": "node/8781101648",
  "properties": {
    "access": "yes",
    "addr:city": "Guarda",
    "addr:country": "PT",
    "authentication:membership_card": "yes",
    "authentication:none": "no",
    "capacity": "2",
    "construction:amenity": "charging_station",
    "email": "manutencaors@repsol.com",
    "fee": "yes",
    "motorcar": "yes",
    "name": "GRD-00012 - Repsol",
    "network": "Mobi.E",
    "opening_hours": "24/7",
    "operator": "Repsol",
    "parking:fee": "no",
    "phone": "+351 800 226 624",
    "ref": "GRD-00012",
    "socket:chademo": "1",
    "socket:chademo:current": "120",
    "socket:chademo:output": "50kW",
    "socket:chademo:voltage": "500",
    "socket:type2_cable": "1",
    "socket:type2_cable:current": "63",
    "socket:type2_cable:output": "43kW",
    "socket:type2_cable:voltage": "400",
    "socket:type2_combo": "1",
    "socket:type2_combo:current": "125",
    "socket:type2_combo:output": "50kW",
    "socket:type2_combo:voltage": "500",
    "website": "https://www.mobie.pt",
    "id": "node/8781101648"
  },
  "geometry": {
    "type": "Point",
    "coordinates": [
      -7.243668,
      40.534393
    ]
  }
},
{
  "type": "Feature",
  "id": "node/8781101654",
  "properties": {
    "access": "yes",
    "addr:city": "Lisboa",
    "addr:country": "PT",
    "authentication:membership_card": "yes",
    "authentication:none": "no",
    "capacity": "2",
    "construction:amenity": "charging_station",
    "email": "mobilidade.electricacrc@galp.com",
    "fee": "yes",
    "motorcar": "yes",
    "name": "LSB-00344 - Aeroporto Parque P1",
    "network": "Mobi.E",
    "opening_hours": "24/7",
    "operator": "Galp Power",
    "parking:fee": "no",
    "phone": "+351 800 249 249",
    "ref": "LSB-00344",
    "socket:chademo": "1",
    "socket:chademo:current": "120",
    "socket:chademo:output": "50kW",
    "socket:chademo:voltage": "500",
    "socket:type2_cable": "1",
    "socket:type2_cable:current": "63",
    "socket:type2_cable:output": "43kW",
    "socket:type2_cable:voltage": "400",
    "socket:type2_combo": "1",
    "socket:type2_combo:current": "125",
    "socket:type2_combo:output": "50kW",
    "socket:type2_combo:voltage": "500",
    "website": "https://www.mobie.pt",
    "id": "node/8781101654"
  },
  "geometry": {
    "type": "Point",
    "coordinates": [
      -9.1294467,
      38.7686873
    ]
  }
},
{
  "type": "Feature",
  "id": "node/8781157465",
  "properties": {
    "access": "yes",
    "addr:city": "Cacém",
    "addr:country": "PT",
    "authentication:membership_card": "yes",
    "authentication:none": "no",
    "capacity": "2",
    "construction:amenity": "charging_station",
    "email": "apoio.cliente@kmlowcost.com",
    "fee": "yes",
    "motorcar": "yes",
    "name": "SNT-00047 - Lidl",
    "network": "Mobi.E",
    "opening_hours": "24/7",
    "operator": "KLC",
    "parking:fee": "no",
    "phone": "+351 800 296 929",
    "ref": "SNT-00047",
    "socket:chademo": "1",
    "socket:chademo:current": "120",
    "socket:chademo:output": "50kW",
    "socket:chademo:voltage": "500",
    "socket:type2_cable": "1",
    "socket:type2_cable:current": "63",
    "socket:type2_cable:output": "43kW",
    "socket:type2_cable:voltage": "400",
    "socket:type2_combo": "1",
    "socket:type2_combo:current": "125",
    "socket:type2_combo:output": "50kW",
    "socket:type2_combo:voltage": "500",
    "website": "https://www.mobie.pt",
    "id": "node/8781157465"
  },
  "geometry": {
    "type": "Point",
    "coordinates": [
      -9.3048142,
      38.7629263
    ]
  }
},
{
  "type": "Feature",
  "id": "node/8792974362",
  "properties": {
    "access": "yes",
    "addr:country": "PT",
    "authentication:membership_card": "yes",
    "authentication:none": "no",
    "capacity": "2",
    "construction:amenity": "charging_station",
    "email": "ajuda@powerdot.pt",
    "fee": "yes",
    "motorcar": "yes",
    "name": "VPA-00002",
    "network": "Mobi.E",
    "opening_hours": "24/7",
    "operator": "Powerdot",
    "parking:fee": "no",
    "phone": "+351 800 180 292",
    "ref": "VPA-00002",
    "socket:type2": "2",
    "socket:type2:current": "32",
    "socket:type2:output": "22kW",
    "socket:type2:voltage": "400",
    "website": "https://www.mobie.pt",
    "id": "node/8792974362"
  },
  "geometry": {
    "type": "Point",
    "coordinates": [
      -7.645527,
      41.4929043
    ]
  }
},
{
  "type": "Feature",
  "id": "node/8818748676",
  "properties": {
    "access": "yes",
    "addr:city": "Santa Comba Dão",
    "addr:country": "PT",
    "authentication:membership_card": "yes",
    "authentication:none": "no",
    "capacity": "2",
    "construction:amenity": "charging_station",
    "email": "manutencaors@repsol.com",
    "fee": "yes",
    "motorcar": "yes",
    "name": "SCD-XXXXX - Repsol",
    "network": "Mobi.E",
    "opening_hours": "24/7",
    "operator": "Repsol",
    "parking:fee": "no",
    "phone": "+351 800 226 624",
    "ref": "SCD-XXXXX",
    "socket:chademo": "1",
    "socket:chademo:current": "120",
    "socket:chademo:output": "50kW",
    "socket:chademo:voltage": "500",
    "socket:type2_cable": "1",
    "socket:type2_cable:current": "63",
    "socket:type2_cable:output": "43kW",
    "socket:type2_cable:voltage": "400",
    "socket:type2_combo": "1",
    "socket:type2_combo:current": "125",
    "socket:type2_combo:output": "50kW",
    "socket:type2_combo:voltage": "500",
    "website": "https://www.mobie.pt",
    "id": "node/8818748676"
  },
  "geometry": {
    "type": "Point",
    "coordinates": [
      -8.1285206,
      40.3977298
    ]
  }
},
{
  "type": "Feature",
  "id": "node/8829299062",
  "properties": {
    "access": "yes",
    "addr:city": "Coimbra",
    "addr:country": "PT",
    "addr:street": "Avenida Inês de Castro",
    "authentication:membership_card": "yes",
    "authentication:none": "no",
    "capacity": "2",
    "construction:amenity": "charging_station",
    "email": "mobilidade-eletrica@edp.pt",
    "fee": "yes",
    "motorcar": "yes",
    "name": "CBR-XXXXX - BP",
    "network": "Mobi.E",
    "opening_hours": "24/7",
    "operator": "EDP Comercial",
    "parking:fee": "no",
    "phone": "+351 800 222 222",
    "ref": "CBR-XXXXX",
    "socket:chademo": "1",
    "socket:chademo:current": "120",
    "socket:chademo:output": "50kW",
    "socket:chademo:voltage": "500",
    "socket:type2_cable": "1",
    "socket:type2_cable:current": "63",
    "socket:type2_cable:output": "43kW",
    "socket:type2_cable:voltage": "400",
    "socket:type2_combo": "1",
    "socket:type2_combo:current": "125",
    "socket:type2_combo:output": "50kW",
    "socket:type2_combo:voltage": "500",
    "website": "https://www.mobie.pt",
    "id": "node/8829299062"
  },
  "geometry": {
    "type": "Point",
    "coordinates": [
      -8.4307893,
      40.2012017
    ]
  }
},
{
  "type": "Feature",
  "id": "node/8829299063",
  "properties": {
    "access": "yes",
    "addr:country": "PT",
    "authentication:membership_card": "yes",
    "authentication:none": "no",
    "capacity": "2",
    "construction:amenity": "charging_station",
    "email": "mobilidade.electricacrc@galp.com",
    "fee": "yes",
    "motorcar": "yes",
    "name": "GDM-XXXXX",
    "network": "Mobi.E",
    "opening_hours": "24/7",
    "operator": "Galp Power",
    "parking:fee": "no",
    "phone": "+351 800 249 249",
    "ref": "GDM-XXXXX",
    "socket:chademo": "1",
    "socket:chademo:current": "120",
    "socket:chademo:output": "50kW",
    "socket:chademo:voltage": "500",
    "socket:type2_cable": "1",
    "socket:type2_cable:current": "63",
    "socket:type2_cable:output": "43kW",
    "socket:type2_cable:voltage": "400",
    "socket:type2_combo": "1",
    "socket:type2_combo:current": "125",
    "socket:type2_combo:output": "50kW",
    "socket:type2_combo:voltage": "500",
    "website": "https://www.mobie.pt",
    "id": "node/8829299063"
  },
  "geometry": {
    "type": "Point",
    "coordinates": [
      -8.5761962,
      41.1959929
    ]
  }
},
{
  "type": "Feature",
  "id": "node/8830322331",
  "properties": {
    "access": "yes",
    "addr:country": "PT",
    "authentication:membership_card": "yes",
    "authentication:none": "no",
    "capacity": "2",
    "construction:amenity": "charging_station",
    "fee": "yes",
    "motorcar": "yes",
    "name": "VLG-00012 - Santa Justa",
    "network": "Mobi.E",
    "opening_hours": "24/7",
    "operator": "Evio",
    "parking:fee": "no",
    "ref": "VLG-00012",
    "socket:type2": "2",
    "socket:type2:current": "32",
    "socket:type2:output": "22kW",
    "socket:type2:voltage": "400",
    "website": "https://www.mobie.pt",
    "id": "node/8830322331"
  },
  "geometry": {
    "type": "Point",
    "coordinates": [
      -8.4769055,
      41.184513
    ]
  }
},
{
  "type": "Feature",
  "id": "node/8833237248",
  "properties": {
    "access": "yes",
    "addr:city": "Malveira",
    "addr:country": "PT",
    "authentication:membership_card": "yes",
    "authentication:none": "no",
    "capacity": "2",
    "construction:amenity": "charging_station",
    "email": "ajuda@powerdot.pt",
    "fee": "yes",
    "motorcar": "yes",
    "name": "MFR-00018 - Intermarché",
    "network": "Mobi.E",
    "opening_hours": "24/7",
    "operator": "Powerdot",
    "parking:fee": "no",
    "phone": "+351 800 180 292",
    "ref": "MFR-00018",
    "socket:chademo": "1",
    "socket:chademo:current": "120",
    "socket:chademo:output": "50kW",
    "socket:chademo:voltage": "500",
    "socket:type2_cable": "1",
    "socket:type2_cable:current": "63",
    "socket:type2_cable:output": "43kW",
    "socket:type2_cable:voltage": "400",
    "socket:type2_combo": "1",
    "socket:type2_combo:current": "125",
    "socket:type2_combo:output": "50kW",
    "socket:type2_combo:voltage": "500",
    "website": "https://www.mobie.pt",
    "id": "node/8833237248"
  },
  "geometry": {
    "type": "Point",
    "coordinates": [
      -9.2518781,
      38.9408363
    ]
  }
},
{
  "type": "Feature",
  "id": "node/8833293780",
  "properties": {
    "access": "yes",
    "addr:city": "Águeda",
    "addr:country": "PT",
    "authentication:membership_card": "yes",
    "authentication:none": "no",
    "capacity": "2",
    "construction:amenity": "charging_station",
    "email": "apoio.cliente@kmlowcost.com",
    "fee": "yes",
    "motorcar": "yes",
    "name": "AGD-00006 - Pingo Doce",
    "network": "Mobi.E",
    "opening_hours": "24/7",
    "operator": "KLC",
    "parking:fee": "no",
    "phone": "+351 800 296 929",
    "ref": "AGD-00006",
    "socket:chademo": "1",
    "socket:chademo:current": "120",
    "socket:chademo:output": "50kW",
    "socket:chademo:voltage": "500",
    "socket:type2_cable": "1",
    "socket:type2_cable:current": "63",
    "socket:type2_cable:output": "43kW",
    "socket:type2_cable:voltage": "400",
    "socket:type2_combo": "1",
    "socket:type2_combo:current": "125",
    "socket:type2_combo:output": "50kW",
    "socket:type2_combo:voltage": "500",
    "website": "https://www.mobie.pt",
    "id": "node/8833293780"
  },
  "geometry": {
    "type": "Point",
    "coordinates": [
      -8.454532,
      40.590635
    ]
  }
},
{
  "type": "Feature",
  "id": "node/8833398842",
  "properties": {
    "access": "yes",
    "addr:city": "Torres Novas",
    "addr:country": "PT",
    "authentication:membership_card": "yes",
    "authentication:none": "no",
    "capacity": "2",
    "construction:amenity": "charging_station",
    "email": "apoio.cliente@kmlowcost.com",
    "fee": "yes",
    "motorcar": "yes",
    "name": "TNV-00005 - Pingo Doce",
    "network": "Mobi.E",
    "opening_hours": "24/7",
    "operator": "KLC",
    "parking:fee": "no",
    "phone": "+351 800 296 929",
    "ref": "TNV-00005",
    "socket:chademo": "1",
    "socket:chademo:current": "120",
    "socket:chademo:output": "50kW",
    "socket:chademo:voltage": "500",
    "socket:type2_cable": "1",
    "socket:type2_cable:current": "32",
    "socket:type2_cable:output": "22kW",
    "socket:type2_cable:voltage": "400",
    "socket:type2_combo": "1",
    "socket:type2_combo:current": "125",
    "socket:type2_combo:output": "50kW",
    "socket:type2_combo:voltage": "500",
    "website": "https://www.mobie.pt",
    "id": "node/8833398842"
  },
  "geometry": {
    "type": "Point",
    "coordinates": [
      -8.5212973,
      39.463053
    ]
  }
},
{
  "type": "Feature",
  "id": "node/8833416439",
  "properties": {
    "access": "yes",
    "addr:city": "Malveira",
    "addr:country": "PT",
    "authentication:membership_card": "yes",
    "authentication:none": "no",
    "capacity": "1",
    "construction:amenity": "charging_station",
    "email": "apoio.cliente@kmlowcost.com",
    "fee": "yes",
    "motorcar": "yes",
    "name": "MFR-00019 - Pingo Doce",
    "network": "Mobi.E",
    "opening_hours": "24/7",
    "operator": "KLC",
    "parking:fee": "no",
    "phone": "+351 800 296 929",
    "ref": "MFR-00019",
    "socket:chademo": "1",
    "socket:chademo:current": "120",
    "socket:chademo:output": "50kW",
    "socket:chademo:voltage": "500",
    "socket:type2_combo": "1",
    "socket:type2_combo:current": "120",
    "socket:type2_combo:output": "60kW",
    "socket:type2_combo:voltage": "950",
    "website": "https://www.mobie.pt",
    "id": "node/8833416439"
  },
  "geometry": {
    "type": "Point",
    "coordinates": [
      -9.2454414,
      38.9297345
    ]
  }
},
{
  "type": "Feature",
  "id": "node/8833480188",
  "properties": {
    "access": "yes",
    "addr:city": "Aveiro",
    "addr:country": "PT",
    "authentication:membership_card": "yes",
    "authentication:none": "no",
    "capacity": "2",
    "construction:amenity": "charging_station",
    "email": "apoio.cliente@kmlowcost.com",
    "fee": "yes",
    "motorcar": "yes",
    "name": "AVR-00028 - Pingo Doce",
    "network": "Mobi.E",
    "opening_hours": "24/7",
    "operator": "KLC",
    "parking:fee": "no",
    "phone": "+351 800 296 929",
    "ref": "AVR-00028",
    "socket:chademo": "1",
    "socket:chademo:current": "120",
    "socket:chademo:output": "50kW",
    "socket:chademo:voltage": "500",
    "socket:type2_cable": "1",
    "socket:type2_cable:current": "63",
    "socket:type2_cable:output": "43kW",
    "socket:type2_cable:voltage": "400",
    "socket:type2_combo": "1",
    "socket:type2_combo:current": "125",
    "socket:type2_combo:output": "50kW",
    "socket:type2_combo:voltage": "500",
    "website": "https://www.mobie.pt",
    "id": "node/8833480188"
  },
  "geometry": {
    "type": "Point",
    "coordinates": [
      -8.6214536,
      40.6500296
    ]
  }
},
{
  "type": "Feature",
  "id": "node/8850662958",
  "properties": {
    "access": "yes",
    "addr:country": "PT",
    "authentication:membership_card": "yes",
    "authentication:none": "no",
    "capacity": "2",
    "construction:amenity": "charging_station",
    "fee": "yes",
    "motorcar": "yes",
    "name": "LGA-00002",
    "network": "Mobi.E",
    "opening_hours": "24/7",
    "operator": "Mobi.E",
    "parking:fee": "no",
    "ref": "LGA-00002",
    "socket:type2": "2",
    "socket:type2:current": "32",
    "socket:type2:output": "22kW",
    "socket:type2:voltage": "400",
    "website": "https://www.mobie.pt",
    "id": "node/8850662958"
  },
  "geometry": {
    "type": "Point",
    "coordinates": [
      -8.4694225,
      37.0997642
    ]
  }
},
{
  "type": "Feature",
  "id": "node/8868413626",
  "properties": {
    "access": "yes",
    "addr:country": "PT",
    "authentication:membership_card": "yes",
    "authentication:none": "no",
    "capacity": "2",
    "construction:amenity": "charging_station",
    "email": "comercial@iberdrola.pt",
    "fee": "yes",
    "motorcar": "yes",
    "name": "MTS-XXXXX",
    "network": "Mobi.E",
    "opening_hours": "24/7",
    "operator": "Iberdrola",
    "parking:fee": "no",
    "phone": "+351 800 607 717",
    "ref": "MTS-XXXXX",
    "socket:type2": "2",
    "socket:type2:current": "32",
    "socket:type2:output": "22kW",
    "socket:type2:voltage": "400",
    "website": "https://www.mobie.pt",
    "id": "node/8868413626"
  },
  "geometry": {
    "type": "Point",
    "coordinates": [
      -8.6815824,
      41.1845153
    ]
  }
},
{
  "type": "Feature",
  "id": "node/8868413627",
  "properties": {
    "access": "yes",
    "addr:city": "Matosinhos",
    "addr:country": "PT",
    "addr:street": "Rua de Goa",
    "authentication:membership_card": "yes",
    "authentication:none": "no",
    "capacity": "1",
    "construction:amenity": "charging_station",
    "email": "comercial@iberdrola.pt",
    "fee": "yes",
    "motorcar": "yes",
    "name": "MTS-XXXXX",
    "network": "Mobi.E",
    "opening_hours": "24/7",
    "operator": "Iberdrola",
    "parking:fee": "no",
    "phone": "+351 800 607 717",
    "ref": "MTS-XXXXX",
    "socket:chademo": "1",
    "socket:chademo:current": "120",
    "socket:chademo:output": "50kW",
    "socket:chademo:voltage": "500",
    "socket:type2_combo": "1",
    "socket:type2_combo:current": "350",
    "socket:type2_combo:output": "160kW",
    "socket:type2_combo:voltage": "920",
    "website": "https://www.mobie.pt",
    "id": "node/8868413627"
  },
  "geometry": {
    "type": "Point",
    "coordinates": [
      -8.6815381,
      41.1844456
    ]
  }
},
{
  "type": "Feature",
  "id": "node/8930776931",
  "properties": {
    "access": "yes",
    "addr:country": "PT",
    "authentication:membership_card": "yes",
    "authentication:none": "no",
    "capacity": "1",
    "construction:amenity": "charging_station",
    "fee": "yes",
    "motorcar": "yes",
    "name": "LSB-00376",
    "network": "Mobi.E",
    "opening_hours": "24/7",
    "operator": "Ucharge",
    "parking:fee": "yes",
    "ref": "LSB-00376",
    "socket:chademo": "1",
    "socket:chademo:current": "120",
    "socket:chademo:output": "50kW",
    "socket:chademo:voltage": "500",
    "socket:type2_combo": "1",
    "socket:type2_combo:current": "125",
    "socket:type2_combo:output": "50kW",
    "socket:type2_combo:voltage": "500",
    "website": "https://www.mobie.pt",
    "id": "node/8930776931"
  },
  "geometry": {
    "type": "Point",
    "coordinates": [
      -9.096353,
      38.7747311
    ]
  }
},
{
  "type": "Feature",
  "id": "node/8958089018",
  "properties": {
    "access": "yes",
    "addr:country": "PT",
    "authentication:membership_card": "yes",
    "authentication:none": "no",
    "capacity": "2",
    "construction:amenity": "charging_station",
    "email": "ajuda@powerdot.pt",
    "fee": "yes",
    "motorcar": "yes",
    "name": "VNG-00063 - WashClub",
    "network": "Mobi.E",
    "opening_hours": "24/7",
    "operator": "Powerdot",
    "parking:fee": "no",
    "phone": "+351 800 180 292",
    "ref": "VNG-00063",
    "socket:chademo": "1",
    "socket:chademo:current": "120",
    "socket:chademo:output": "50kW",
    "socket:chademo:voltage": "500",
    "socket:type2_cable": "1",
    "socket:type2_cable:current": "63",
    "socket:type2_cable:output": "43kW",
    "socket:type2_cable:voltage": "400",
    "socket:type2_combo": "1",
    "socket:type2_combo:current": "125",
    "socket:type2_combo:output": "50kW",
    "socket:type2_combo:voltage": "500",
    "website": "https://www.mobie.pt",
    "id": "node/8958089018"
  },
  "geometry": {
    "type": "Point",
    "coordinates": [
      -8.544727,
      41.092544
    ]
  }
},
{
  "type": "Feature",
  "id": "node/8964307128",
  "properties": {
    "access": "yes",
    "addr:country": "PT",
    "authentication:membership_card": "yes",
    "authentication:none": "no",
    "capacity": "1",
    "construction:amenity": "charging_station",
    "email": "mobilidade-eletrica@edp.pt",
    "fee": "yes",
    "name": "ASL-XXXXX",
    "network": "Mobi.E",
    "opening_hours": "24/7",
    "operator": "EDP Comercial",
    "parking:fee": "no",
    "phone": "+351 800 222 222",
    "ref": "ASL-XXXXX",
    "socket:chademo": "1",
    "socket:chademo:current": "120",
    "socket:chademo:output": "50kW",
    "socket:chademo:voltage": "500",
    "socket:type2_combo": "1",
    "socket:type2_combo:current": "350",
    "socket:type2_combo:output": "160kW",
    "socket:type2_combo:voltage": "920",
    "website": "https://www.mobie.pt",
    "id": "node/8964307128"
  },
  "geometry": {
    "type": "Point",
    "coordinates": [
      -8.5848217,
      38.5155144
    ]
  }
},
{
  "type": "Feature",
  "id": "node/8964307129",
  "properties": {
    "access": "yes",
    "addr:country": "PT",
    "authentication:membership_card": "yes",
    "authentication:none": "no",
    "capacity": "2",
    "construction:amenity": "charging_station",
    "email": "mobilidade-eletrica@edp.pt",
    "fee": "yes",
    "motorcar": "yes",
    "name": "ASL-XXXXX",
    "network": "Mobi.E",
    "opening_hours": "24/7",
    "operator": "EDP Comercial",
    "parking:fee": "no",
    "phone": "+351 800 222 222",
    "ref": "ASL-XXXXX",
    "socket:chademo": "1",
    "socket:chademo:current": "120",
    "socket:chademo:output": "50kW",
    "socket:chademo:voltage": "500",
    "socket:type2_cable": "1",
    "socket:type2_cable:current": "63",
    "socket:type2_cable:output": "43kW",
    "socket:type2_cable:voltage": "400",
    "socket:type2_combo": "1",
    "socket:type2_combo:current": "125",
    "socket:type2_combo:output": "50kW",
    "socket:type2_combo:voltage": "500",
    "website": "https://www.mobie.pt",
    "id": "node/8964307129"
  },
  "geometry": {
    "type": "Point",
    "coordinates": [
      -8.5847774,
      38.5154641
    ]
  }
},
{
  "type": "Feature",
  "id": "node/8964307130",
  "properties": {
    "access": "yes",
    "addr:country": "PT",
    "authentication:membership_card": "yes",
    "authentication:none": "no",
    "capacity": "2",
    "construction:amenity": "charging_station",
    "email": "mobilidade-eletrica@edp.pt",
    "fee": "yes",
    "motorcar": "yes",
    "name": "ASL-XXXXX",
    "network": "Mobi.E",
    "opening_hours": "24/7",
    "operator": "EDP Comercial",
    "parking:fee": "no",
    "phone": "+351 800 222 222",
    "ref": "ASL-XXXXX",
    "socket:chademo": "1",
    "socket:chademo:current": "120",
    "socket:chademo:output": "50kW",
    "socket:chademo:voltage": "500",
    "socket:type2_cable": "1",
    "socket:type2_cable:current": "63",
    "socket:type2_cable:output": "43kW",
    "socket:type2_cable:voltage": "400",
    "socket:type2_combo": "1",
    "socket:type2_combo:current": "125",
    "socket:type2_combo:output": "50kW",
    "socket:type2_combo:voltage": "500",
    "website": "https://www.mobie.pt",
    "id": "node/8964307130"
  },
  "geometry": {
    "type": "Point",
    "coordinates": [
      -8.5859174,
      38.5154672
    ]
  }
},
{
  "type": "Feature",
  "id": "node/8964307131",
  "properties": {
    "access": "yes",
    "addr:country": "PT",
    "authentication:membership_card": "yes",
    "authentication:none": "no",
    "capacity": "1",
    "construction:amenity": "charging_station",
    "email": "mobilidade-eletrica@edp.pt",
    "fee": "yes",
    "name": "ASL-XXXXX",
    "network": "Mobi.E",
    "opening_hours": "24/7",
    "operator": "EDP Comercial",
    "parking:fee": "no",
    "phone": "+351 800 222 222",
    "ref": "ASL-XXXXX",
    "socket:chademo": "1",
    "socket:chademo:current": "120",
    "socket:chademo:output": "50kW",
    "socket:chademo:voltage": "500",
    "socket:type2_combo": "1",
    "socket:type2_combo:current": "350",
    "socket:type2_combo:output": "160kW",
    "socket:type2_combo:voltage": "920",
    "website": "https://www.mobie.pt",
    "id": "node/8964307131"
  },
  "geometry": {
    "type": "Point",
    "coordinates": [
      -8.5858718,
      38.5154022
    ]
  }
},
{
  "type": "Feature",
  "id": "node/8964307132",
  "properties": {
    "access": "yes",
    "addr:country": "PT",
    "authentication:membership_card": "yes",
    "authentication:none": "no",
    "capacity": "2",
    "construction:amenity": "charging_station",
    "email": "mobilidade-eletrica@edp.pt",
    "fee": "yes",
    "motorcar": "yes",
    "name": "AJT-XXXXX",
    "network": "Mobi.E",
    "opening_hours": "24/7",
    "operator": "EDP Comercial",
    "parking:fee": "no",
    "phone": "+351 800 222 222",
    "ref": "AJT-XXXXX",
    "socket:chademo": "1",
    "socket:chademo:current": "120",
    "socket:chademo:output": "50kW",
    "socket:chademo:voltage": "500",
    "socket:type2_cable": "1",
    "socket:type2_cable:current": "63",
    "socket:type2_cable:output": "43kW",
    "socket:type2_cable:voltage": "400",
    "socket:type2_combo": "1",
    "socket:type2_combo:current": "125",
    "socket:type2_combo:output": "50kW",
    "socket:type2_combo:voltage": "500",
    "website": "https://www.mobie.pt",
    "id": "node/8964307132"
  },
  "geometry": {
    "type": "Point",
    "coordinates": [
      -8.2421158,
      37.9233195
    ]
  }
},
{
  "type": "Feature",
  "id": "node/8964307133",
  "properties": {
    "access": "yes",
    "addr:country": "PT",
    "authentication:membership_card": "yes",
    "authentication:none": "no",
    "capacity": "1",
    "construction:amenity": "charging_station",
    "email": "mobilidade-eletrica@edp.pt",
    "fee": "yes",
    "name": "AJT-XXXXX",
    "network": "Mobi.E",
    "opening_hours": "24/7",
    "operator": "EDP Comercial",
    "parking:fee": "no",
    "phone": "+351 800 222 222",
    "ref": "AJT-XXXXX",
    "socket:chademo": "1",
    "socket:chademo:current": "120",
    "socket:chademo:output": "50kW",
    "socket:chademo:voltage": "500",
    "socket:type2_combo": "1",
    "socket:type2_combo:current": "350",
    "socket:type2_combo:output": "160kW",
    "socket:type2_combo:voltage": "920",
    "website": "https://www.mobie.pt",
    "id": "node/8964307133"
  },
  "geometry": {
    "type": "Point",
    "coordinates": [
      -8.2421185,
      37.9233999
    ]
  }
},
{
  "type": "Feature",
  "id": "node/8964307134",
  "properties": {
    "access": "yes",
    "addr:country": "PT",
    "authentication:membership_card": "yes",
    "authentication:none": "no",
    "capacity": "1",
    "construction:amenity": "charging_station",
    "email": "mobilidade-eletrica@edp.pt",
    "fee": "yes",
    "name": "AJT-XXXXX",
    "network": "Mobi.E",
    "opening_hours": "24/7",
    "operator": "EDP Comercial",
    "parking:fee": "no",
    "phone": "+351 800 222 222",
    "ref": "AJT-XXXXX",
    "socket:chademo": "1",
    "socket:chademo:current": "120",
    "socket:chademo:output": "50kW",
    "socket:chademo:voltage": "500",
    "socket:type2_combo": "1",
    "socket:type2_combo:current": "350",
    "socket:type2_combo:output": "160kW",
    "socket:type2_combo:voltage": "920",
    "website": "https://www.mobie.pt",
    "id": "node/8964307134"
  },
  "geometry": {
    "type": "Point",
    "coordinates": [
      -8.2432491,
      37.9238865
    ]
  }
},
{
  "type": "Feature",
  "id": "node/8964307135",
  "properties": {
    "access": "yes",
    "addr:country": "PT",
    "authentication:membership_card": "yes",
    "authentication:none": "no",
    "capacity": "2",
    "construction:amenity": "charging_station",
    "email": "mobilidade-eletrica@edp.pt",
    "fee": "yes",
    "motorcar": "yes",
    "name": "AJT-XXXXX",
    "network": "Mobi.E",
    "opening_hours": "24/7",
    "operator": "EDP Comercial",
    "parking:fee": "no",
    "phone": "+351 800 222 222",
    "ref": "AJT-XXXXX",
    "socket:chademo": "1",
    "socket:chademo:current": "120",
    "socket:chademo:output": "50kW",
    "socket:chademo:voltage": "500",
    "socket:type2_cable": "1",
    "socket:type2_cable:current": "63",
    "socket:type2_cable:output": "43kW",
    "socket:type2_cable:voltage": "400",
    "socket:type2_combo": "1",
    "socket:type2_combo:current": "125",
    "socket:type2_combo:output": "50kW",
    "socket:type2_combo:voltage": "500",
    "website": "https://www.mobie.pt",
    "id": "node/8964307135"
  },
  "geometry": {
    "type": "Point",
    "coordinates": [
      -8.2432517,
      37.9239584
    ]
  }
},
{
  "type": "Feature",
  "id": "node/8968514560",
  "properties": {
    "access": "yes",
    "addr:country": "PT",
    "authentication:membership_card": "yes",
    "authentication:none": "no",
    "capacity": "2",
    "construction:amenity": "charging_station",
    "email": "apoio.cliente@kmlowcost.com",
    "fee": "yes",
    "motorcar": "yes",
    "name": "AVR-00030 - Pingo Doce",
    "network": "Mobi.E",
    "opening_hours": "24/7",
    "operator": "KLC",
    "parking:fee": "no",
    "phone": "+351 800 296 929",
    "ref": "AVR-00030",
    "socket:type2": "2",
    "socket:type2:current": "32",
    "socket:type2:output": "22kW",
    "socket:type2:voltage": "400",
    "website": "https://www.mobie.pt",
    "id": "node/8968514560"
  },
  "geometry": {
    "type": "Point",
    "coordinates": [
      -8.6214434,
      40.6499969
    ]
  }
},
{
  "type": "Feature",
  "id": "node/8969154278",
  "properties": {
    "access": "yes",
    "addr:country": "PT",
    "authentication:membership_card": "yes",
    "authentication:none": "no",
    "capacity": "2",
    "construction:amenity": "charging_station",
    "email": "mobilidade-eletrica@edp.pt",
    "fee": "yes",
    "motorcar": "yes",
    "name": "CNT-XXXXX",
    "network": "Mobi.E",
    "opening_hours": "24/7",
    "operator": "EDP Comercial",
    "parking:fee": "no",
    "phone": "+351 800 222 222",
    "ref": "CNT-XXXXX",
    "socket:chademo": "1",
    "socket:chademo:current": "120",
    "socket:chademo:output": "50kW",
    "socket:chademo:voltage": "500",
    "socket:type2_cable": "1",
    "socket:type2_cable:current": "63",
    "socket:type2_cable:output": "43kW",
    "socket:type2_cable:voltage": "400",
    "socket:type2_combo": "1",
    "socket:type2_combo:current": "125",
    "socket:type2_combo:output": "50kW",
    "socket:type2_combo:voltage": "500",
    "website": "https://www.mobie.pt",
    "id": "node/8969154278"
  },
  "geometry": {
    "type": "Point",
    "coordinates": [
      -8.4939276,
      40.3318374
    ]
  }
},
{
  "type": "Feature",
  "id": "node/8969154280",
  "properties": {
    "access": "yes",
    "addr:country": "PT",
    "authentication:membership_card": "yes",
    "authentication:none": "no",
    "capacity": "2",
    "construction:amenity": "charging_station",
    "email": "mobilidade-eletrica@edp.pt",
    "fee": "yes",
    "motorcar": "yes",
    "name": "CNT-XXXXX",
    "network": "Mobi.E",
    "opening_hours": "24/7",
    "operator": "EDP Comercial",
    "parking:fee": "no",
    "phone": "+351 800 222 222",
    "ref": "CNT-XXXXX",
    "socket:chademo": "1",
    "socket:chademo:current": "120",
    "socket:chademo:output": "50kW",
    "socket:chademo:voltage": "500",
    "socket:type2_cable": "1",
    "socket:type2_cable:current": "63",
    "socket:type2_cable:output": "43kW",
    "socket:type2_cable:voltage": "400",
    "socket:type2_combo": "1",
    "socket:type2_combo:current": "125",
    "socket:type2_combo:output": "50kW",
    "socket:type2_combo:voltage": "500",
    "website": "https://www.mobie.pt",
    "id": "node/8969154280"
  },
  "geometry": {
    "type": "Point",
    "coordinates": [
      -8.4923994,
      40.3342511
    ]
  }
},
{
  "type": "Feature",
  "id": "node/8972736829",
  "properties": {
    "access": "yes",
    "addr:country": "PT",
    "authentication:membership_card": "yes",
    "authentication:none": "no",
    "capacity": "2",
    "construction:amenity": "charging_station",
    "email": "apoio.cliente@kmlowcost.com",
    "fee": "yes",
    "motorcar": "yes",
    "name": "MFR-XXXXX",
    "network": "Mobi.E",
    "opening_hours": "24/7",
    "operator": "KLC",
    "parking:fee": "no",
    "phone": "+351 800 296 929",
    "ref": "MFR-XXXXX",
    "socket:chademo": "1",
    "socket:chademo:current": "120",
    "socket:chademo:output": "50kW",
    "socket:chademo:voltage": "500",
    "socket:type2_cable": "1",
    "socket:type2_cable:current": "63",
    "socket:type2_cable:output": "43kW",
    "socket:type2_cable:voltage": "400",
    "socket:type2_combo": "1",
    "socket:type2_combo:current": "125",
    "socket:type2_combo:output": "50kW",
    "socket:type2_combo:voltage": "500",
    "website": "https://www.mobie.pt",
    "id": "node/8972736829"
  },
  "geometry": {
    "type": "Point",
    "coordinates": [
      -9.256212,
      38.931494
    ]
  }
},
{
  "type": "Feature",
  "id": "node/8974461104",
  "properties": {
    "access": "yes",
    "addr:country": "PT",
    "authentication:membership_card": "yes",
    "authentication:none": "no",
    "capacity": "2",
    "construction:amenity": "charging_station",
    "email": "apoio.cliente@kmlowcost.com",
    "fee": "yes",
    "motorcar": "yes",
    "name": "ACT-00002",
    "network": "Mobi.E",
    "opening_hours": "24/7",
    "operator": "KLC",
    "parking:fee": "no",
    "phone": "+351 800 296 929",
    "ref": "ACT-90002",
    "socket:type2": "2",
    "socket:type2:current": "32",
    "socket:type2:output": "22kW",
    "socket:type2:voltage": "400",
    "website": "https://www.mobie.pt",
    "id": "node/8974461104"
  },
  "geometry": {
    "type": "Point",
    "coordinates": [
      -7.770162,
      37.4417409
    ]
  }
},
{
  "type": "Feature",
  "id": "node/8986590706",
  "properties": {
    "access": "yes",
    "addr:country": "PT",
    "authentication:membership_card": "yes",
    "authentication:none": "no",
    "capacity": "2",
    "construction:amenity": "charging_station",
    "email": "ajuda@powerdot.pt",
    "fee": "yes",
    "location": "underground",
    "motorcar": "yes",
    "name": "PRT-00088 - Parque do Marquês",
    "network": "Mobi.E",
    "opening_hours": "24/7",
    "operator": "Powerdot",
    "parking:fee": "yes",
    "phone": "+351 800 180 292",
    "ref": "PRT-00088",
    "socket:type2": "2",
    "socket:type2:current": "32",
    "socket:type2:output": "22kW",
    "socket:type2:voltage": "400",
    "website": "https://www.mobie.pt",
    "id": "node/8986590706"
  },
  "geometry": {
    "type": "Point",
    "coordinates": [
      -8.605531,
      41.1608862
    ]
  }
},
{
  "type": "Feature",
  "id": "node/8989497392",
  "properties": {
    "access": "yes",
    "addr:country": "PT",
    "authentication:membership_card": "yes",
    "authentication:none": "no",
    "capacity": "2",
    "construction:amenity": "charging_station",
    "fee": "yes",
    "motorcar": "yes",
    "name": "LSB-XXXXX",
    "network": "Mobi.E",
    "opening_hours": "24/7",
    "operator": "unknown",
    "parking:fee": "no",
    "ref": "LSB-XXXXX",
    "socket:chademo": "1",
    "socket:chademo:current": "120",
    "socket:chademo:output": "50kW",
    "socket:chademo:voltage": "500",
    "socket:type2_cable": "1",
    "socket:type2_cable:current": "63",
    "socket:type2_cable:output": "43kW",
    "socket:type2_cable:voltage": "400",
    "socket:type2_combo": "1",
    "socket:type2_combo:current": "125",
    "socket:type2_combo:output": "50kW",
    "socket:type2_combo:voltage": "500",
    "website": "https://www.mobie.pt",
    "id": "node/8989497392"
  },
  "geometry": {
    "type": "Point",
    "coordinates": [
      -9.1683228,
      38.7397125
    ]
  }
},
{
  "type": "Feature",
  "id": "node/8989497394",
  "properties": {
    "access": "yes",
    "addr:country": "PT",
    "authentication:membership_card": "yes",
    "authentication:none": "no",
    "capacity": "2",
    "construction:amenity": "charging_station",
    "email": "mobilidade-eletrica@edp.pt",
    "fee": "yes",
    "motorcar": "yes",
    "name": "FIG-XXXXX/X - BP",
    "network": "Mobi.E",
    "opening_hours": "24/7",
    "operator": "EDP Comercial",
    "parking:fee": "no",
    "phone": "+351 800 222 222",
    "ref": "FIG-XXXXX;FIG-XXXXX",
    "socket:chademo": "2",
    "socket:chademo:current": "120",
    "socket:chademo:output": "50kW",
    "socket:chademo:voltage": "500",
    "socket:type2_combo": "2",
    "socket:type2_combo:current": "125",
    "socket:type2_combo:output": "50kW",
    "socket:type2_combo:voltage": "500",
    "website": "https://www.mobie.pt",
    "id": "node/8989497394"
  },
  "geometry": {
    "type": "Point",
    "coordinates": [
      -8.8525654,
      40.1215506
    ]
  }
},
{
  "type": "Feature",
  "id": "node/8990093859",
  "properties": {
    "access": "yes",
    "addr:country": "PT",
    "authentication:membership_card": "yes",
    "authentication:none": "no",
    "capacity": "1",
    "construction:amenity": "charging_station",
    "fee": "yes",
    "motorcar": "yes",
    "name": "OER-00105",
    "network": "Mobi.E",
    "opening_hours": "24/7",
    "operator": "GreenCharge",
    "parking:fee": "no",
    "ref": "OER-00105",
    "socket:type2": "1",
    "socket:type2:current": "32",
    "socket:type2:output": "22kW",
    "socket:type2:voltage": "400",
    "website": "https://www.mobie.pt/",
    "id": "node/8990093859"
  },
  "geometry": {
    "type": "Point",
    "coordinates": [
      -9.3031836,
      38.7398034
    ]
  }
},
{
  "type": "Feature",
  "id": "node/9023863812",
  "properties": {
    "access": "yes",
    "addr:country": "PT",
    "addr:street": "Área de Serviço de Santarém",
    "authentication:membership_card": "yes",
    "authentication:none": "no",
    "capacity": "2",
    "construction:amenity": "charging_station",
    "email": "mobilidade-eletrica@edp.pt",
    "fee": "yes",
    "motorcar": "yes",
    "name": "STR-XXXXX",
    "network": "Mobi.E",
    "opening_hours": "24/7",
    "operator": "EDP Comercial",
    "parking:fee": "no",
    "phone": "+351 800 222 222",
    "ref": "STR-XXXXX",
    "socket:chademo": "1",
    "socket:chademo:current": "120",
    "socket:chademo:output": "50kW",
    "socket:chademo:voltage": "500",
    "socket:type2_cable": "1",
    "socket:type2_cable:current": "63",
    "socket:type2_cable:output": "43kW",
    "socket:type2_cable:voltage": "400",
    "socket:type2_combo": "2",
    "socket:type2_combo:current": "125",
    "socket:type2_combo:output": "50kW",
    "socket:type2_combo:voltage": "500",
    "website": "https://www.mobie.pt",
    "id": "node/9023863812"
  },
  "geometry": {
    "type": "Point",
    "coordinates": [
      -8.6382359,
      39.3924057
    ]
  }
},
{
  "type": "Feature",
  "id": "node/9033085848",
  "properties": {
    "access": "yes",
    "addr:country": "PT",
    "authentication:membership_card": "yes",
    "authentication:none": "no",
    "capacity": "2",
    "construction:amenity": "charging_station",
    "email": "mobilidade-eletrica@edp.pt",
    "fee": "yes",
    "motorcar": "yes",
    "name": "GDL-XXXXX",
    "network": "Mobi.E",
    "opening_hours": "24/7",
    "operator": "EDP Comercial",
    "parking:fee": "no",
    "phone": "+351 800 222 222",
    "ref": "GDL-XXXXX",
    "socket:chademo": "1",
    "socket:chademo:current": "120",
    "socket:chademo:output": "50kW",
    "socket:chademo:voltage": "500",
    "socket:type2_cable": "1",
    "socket:type2_cable:current": "63",
    "socket:type2_cable:output": "43kW",
    "socket:type2_cable:voltage": "400",
    "socket:type2_combo": "1",
    "socket:type2_combo:current": "125",
    "socket:type2_combo:output": "50kW",
    "socket:type2_combo:voltage": "500",
    "website": "https://www.mobie.pt",
    "id": "node/9033085848"
  },
  "geometry": {
    "type": "Point",
    "coordinates": [
      -8.4914041,
      38.1677418
    ]
  }
},
{
  "type": "Feature",
  "id": "node/9033085849",
  "properties": {
    "access": "yes",
    "addr:country": "PT",
    "authentication:membership_card": "yes",
    "authentication:none": "no",
    "capacity": "2",
    "construction:amenity": "charging_station",
    "email": "mobilidade-eletrica@edp.pt",
    "fee": "yes",
    "motorcar": "yes",
    "name": "GDL-XXXXX",
    "network": "Mobi.E",
    "opening_hours": "24/7",
    "operator": "EDP Comercial",
    "parking:fee": "no",
    "phone": "+351 800 222 222",
    "ref": "GDL-XXXXX",
    "socket:chademo": "1",
    "socket:chademo:current": "120",
    "socket:chademo:output": "50kW",
    "socket:chademo:voltage": "500",
    "socket:type2_cable": "1",
    "socket:type2_cable:current": "63",
    "socket:type2_cable:output": "43kW",
    "socket:type2_cable:voltage": "400",
    "socket:type2_combo": "1",
    "socket:type2_combo:current": "125",
    "socket:type2_combo:output": "50kW",
    "socket:type2_combo:voltage": "500",
    "website": "https://www.mobie.pt",
    "id": "node/9033085849"
  },
  "geometry": {
    "type": "Point",
    "coordinates": [
      -8.4919612,
      38.1669278
    ]
  }
},
{
  "type": "Feature",
  "id": "node/9043918681",
  "properties": {
    "access": "yes",
    "addr:country": "PT",
    "authentication:membership_card": "yes",
    "authentication:none": "no",
    "capacity": "1",
    "construction:amenity": "charging_station",
    "fee": "yes",
    "motorcar": "yes",
    "name": "ETR-XXXXX",
    "network": "Mobi.E",
    "opening_hours": "24/7",
    "operator": "EDP Comercial",
    "parking:fee": "no",
    "ref": "ETR-XXXXX",
    "socket:chademo": "1",
    "socket:chademo:current": "120",
    "socket:chademo:output": "50kW",
    "socket:chademo:voltage": "500",
    "socket:type2_combo": "1",
    "socket:type2_combo:current": "350",
    "socket:type2_combo:output": "160kW",
    "socket:type2_combo:voltage": "920",
    "website": "https://www.mobie.pt",
    "id": "node/9043918681"
  },
  "geometry": {
    "type": "Point",
    "coordinates": [
      -8.536574,
      40.7552282
    ]
  }
},
{
  "type": "Feature",
  "id": "node/9043918683",
  "properties": {
    "access": "yes",
    "addr:country": "PT",
    "authentication:membership_card": "yes",
    "authentication:none": "no",
    "capacity": "1",
    "construction:amenity": "charging_station",
    "fee": "yes",
    "motorcar": "yes",
    "name": "PBL-XXXXX",
    "network": "Mobi.E",
    "opening_hours": "24/7",
    "operator": "Galp Geste",
    "parking:fee": "no",
    "ref": "PBL-XXXXX",
    "socket:chademo": "1",
    "socket:chademo:current": "120",
    "socket:chademo:output": "50kW",
    "socket:chademo:voltage": "500",
    "socket:type2_combo": "1",
    "socket:type2_combo:current": "350",
    "socket:type2_combo:output": "160kW",
    "socket:type2_combo:voltage": "920",
    "website": "https://www.mobie.pt",
    "id": "node/9043918683"
  },
  "geometry": {
    "type": "Point",
    "coordinates": [
      -8.6005229,
      40.0146514
    ]
  }
},
{
  "type": "Feature",
  "id": "node/9043935718",
  "properties": {
    "access": "yes",
    "addr:country": "PT",
    "authentication:membership_card": "yes",
    "authentication:none": "no",
    "capacity": "1",
    "construction:amenity": "charging_station",
    "fee": "yes",
    "motorcar": "yes",
    "name": "AZB-XXXXX",
    "network": "Mobi.E",
    "opening_hours": "24/7",
    "operator": "Galp Geste",
    "parking:fee": "no",
    "ref": "AZB-XXXXX",
    "socket:chademo": "1",
    "socket:chademo:current": "120",
    "socket:chademo:output": "50kW",
    "socket:chademo:voltage": "500",
    "socket:type2_combo": "1",
    "socket:type2_combo:current": "350",
    "socket:type2_combo:output": "160kW",
    "socket:type2_combo:voltage": "920",
    "website": "https://www.mobie.pt",
    "id": "node/9043935718"
  },
  "geometry": {
    "type": "Point",
    "coordinates": [
      -8.9074198,
      39.1237101
    ]
  }
},
{
  "type": "Feature",
  "id": "node/9043935719",
  "properties": {
    "access": "yes",
    "addr:country": "PT",
    "authentication:membership_card": "yes",
    "authentication:none": "no",
    "capacity": "1",
    "construction:amenity": "charging_station",
    "fee": "yes",
    "motorcar": "yes",
    "name": "AZB-XXXXX",
    "network": "Mobi.E",
    "opening_hours": "24/7",
    "operator": "Galp Geste",
    "parking:fee": "no",
    "ref": "AZB-XXXXX",
    "socket:chademo": "1",
    "socket:chademo:current": "120",
    "socket:chademo:output": "50kW",
    "socket:chademo:voltage": "500",
    "socket:type2_combo": "1",
    "socket:type2_combo:current": "350",
    "socket:type2_combo:output": "160kW",
    "socket:type2_combo:voltage": "920",
    "website": "https://www.mobie.pt",
    "id": "node/9043935719"
  },
  "geometry": {
    "type": "Point",
    "coordinates": [
      -8.9076837,
      39.1224079
    ]
  }
},
{
  "type": "Feature",
  "id": "node/9044026704",
  "properties": {
    "access": "yes",
    "addr:country": "PT",
    "authentication:membership_card": "yes",
    "authentication:none": "no",
    "capacity": "2",
    "construction:amenity": "charging_station",
    "fee": "yes",
    "motorcar": "yes",
    "name": "SMG-00005",
    "network": "Mobi.E",
    "opening_hours": "24/7",
    "operator": "Galp Geste",
    "parking:fee": "no",
    "ref": "SMG-00005",
    "socket:type2": "2",
    "socket:type2:current": "32",
    "socket:type2:output": "22kW",
    "socket:type2:voltage": "400",
    "website": "https://www.mobie.pt",
    "id": "node/9044026704"
  },
  "geometry": {
    "type": "Point",
    "coordinates": [
      -8.6693849,
      39.0536328
    ]
  }
},
{
  "type": "Feature",
  "id": "node/9044097663",
  "properties": {
    "access": "yes",
    "addr:country": "PT",
    "authentication:membership_card": "yes",
    "authentication:none": "no",
    "capacity": "1",
    "construction:amenity": "charging_station",
    "fee": "yes",
    "motorcar": "yes",
    "name": "PLM-XXXXX",
    "network": "Mobi.E",
    "opening_hours": "24/7",
    "operator": "Galp Geste",
    "parking:fee": "no",
    "ref": "PLM-XXXXX",
    "socket:chademo": "1",
    "socket:chademo:current": "120",
    "socket:chademo:output": "50kW",
    "socket:chademo:voltage": "500",
    "socket:type2_combo": "1",
    "socket:type2_combo:current": "350",
    "socket:type2_combo:output": "160kW",
    "socket:type2_combo:voltage": "920",
    "website": "https://www.mobie.pt",
    "id": "node/9044097663"
  },
  "geometry": {
    "type": "Point",
    "coordinates": [
      -8.930047,
      38.5856051
    ]
  }
},
{
  "type": "Feature",
  "id": "node/9065817476",
  "properties": {
    "access": "yes",
    "addr:country": "PT",
    "authentication:membership_card": "yes",
    "authentication:none": "no",
    "capacity": "2",
    "construction:amenity": "charging_station",
    "fee": "yes",
    "motorcar": "yes",
    "name": "ALQ-00003 - Campera",
    "network": "Mobi.E",
    "opening_hours": "24/7",
    "operator": "Galp Power",
    "parking:fee": "no",
    "ref": "ALQ-00003",
    "socket:chademo": "1",
    "socket:chademo:current": "120",
    "socket:chademo:output": "50kW",
    "socket:chademo:voltage": "500",
    "socket:type2_cable": "1",
    "socket:type2_cable:current": "63",
    "socket:type2_cable:output": "43kW",
    "socket:type2_cable:voltage": "400",
    "socket:type2_combo": "1",
    "socket:type2_combo:current": "125",
    "socket:type2_combo:output": "50kW",
    "socket:type2_combo:voltage": "500",
    "website": "https://www.mobie.pt/",
    "id": "node/9065817476"
  },
  "geometry": {
    "type": "Point",
    "coordinates": [
      -8.966652,
      39.028686
    ]
  }
},
{
  "type": "Feature",
  "id": "node/9091815463",
  "properties": {
    "access": "yes",
    "addr:country": "PT",
    "authentication:membership_card": "yes",
    "authentication:none": "no",
    "capacity": "2",
    "construction:amenity": "charging_station",
    "fee": "yes",
    "motorcar": "yes",
    "name": "LRA-00035 - Coviran",
    "network": "Mobi.E",
    "opening_hours": "24/7",
    "operator": "High Green Power",
    "parking:fee": "no",
    "ref": "LRA-00035",
    "socket:type2": "2",
    "socket:type2:current": "32",
    "socket:type2:output": "7.4kW",
    "socket:type2:voltage": "230",
    "website": "https://www.mobie.pt",
    "id": "node/9091815463"
  },
  "geometry": {
    "type": "Point",
    "coordinates": [
      -8.770699,
      39.645377
    ]
  }
},
{
  "type": "Feature",
  "id": "node/9095146044",
  "properties": {
    "access": "yes",
    "addr:country": "PT",
    "authentication:membership_card": "yes",
    "authentication:none": "no",
    "capacity": "2",
    "construction:amenity": "charging_station",
    "fee": "yes",
    "motorcar": "yes",
    "name": "CHM-XXXXX - Câmara Municipal",
    "network": "Mobi.E",
    "opening_hours": "24/7",
    "operator": "unknown",
    "parking:fee": "no",
    "ref": "CHM-XXXXX",
    "socket:chademo": "1",
    "socket:chademo:current": "120",
    "socket:chademo:output": "50kW",
    "socket:chademo:voltage": "500",
    "socket:type2_cable": "1",
    "socket:type2_cable:current": "63",
    "socket:type2_cable:output": "43kW",
    "socket:type2_cable:voltage": "400",
    "socket:type2_combo": "1",
    "socket:type2_combo:current": "125",
    "socket:type2_combo:output": "50kW",
    "socket:type2_combo:voltage": "500",
    "website": "https://www.mobie.pt",
    "id": "node/9095146044"
  },
  "geometry": {
    "type": "Point",
    "coordinates": [
      -8.480617,
      39.35947
    ]
  }
},
{
  "type": "Feature",
  "id": "node/9095146048",
  "properties": {
    "access": "yes",
    "addr:country": "PT",
    "authentication:membership_card": "yes",
    "authentication:none": "no",
    "capacity": "2",
    "construction:amenity": "charging_station",
    "fee": "yes",
    "motorcar": "yes",
    "name": "CHM-XXXXX - Mercado Municipal",
    "network": "Mobi.E",
    "opening_hours": "24/7",
    "operator": "unknown",
    "parking:fee": "no",
    "ref": "CHM-XXXXX",
    "socket:chademo": "1",
    "socket:chademo:current": "120",
    "socket:chademo:output": "50kW",
    "socket:chademo:voltage": "500",
    "socket:type2_cable": "1",
    "socket:type2_cable:current": "63",
    "socket:type2_cable:output": "43kW",
    "socket:type2_cable:voltage": "400",
    "socket:type2_combo": "1",
    "socket:type2_combo:current": "125",
    "socket:type2_combo:output": "50kW",
    "socket:type2_combo:voltage": "500",
    "website": "https://www.mobie.pt",
    "id": "node/9095146048"
  },
  "geometry": {
    "type": "Point",
    "coordinates": [
      -8.482676,
      39.356616
    ]
  }
},
{
  "type": "Feature",
  "id": "node/9108791148",
  "properties": {
    "access": "yes",
    "addr:country": "PT",
    "authentication:membership_card": "yes",
    "authentication:none": "no",
    "capacity": "2",
    "construction:amenity": "charging_station",
    "email": "mobilidade.electricacrc@galp.com",
    "fee": "yes",
    "motorcar": "yes",
    "name": "LRS-00055 - Galp",
    "network": "Mobi.E",
    "opening_hours": "24/7",
    "operator": "Galp Power",
    "parking:fee": "no",
    "phone": "+351 800 249 249",
    "ref": "LRS-00055",
    "socket:chademo": "1",
    "socket:chademo:current": "120",
    "socket:chademo:output": "50kW",
    "socket:chademo:voltage": "500",
    "socket:type2_cable": "1",
    "socket:type2_cable:current": "63",
    "socket:type2_cable:output": "43kW",
    "socket:type2_cable:voltage": "400",
    "socket:type2_combo": "1",
    "socket:type2_combo:current": "125",
    "socket:type2_combo:output": "50kW",
    "socket:type2_combo:voltage": "500",
    "website": "https://www.mobie.pt",
    "id": "node/9108791148"
  },
  "geometry": {
    "type": "Point",
    "coordinates": [
      -9.1627907,
      38.8265281
    ]
  }
},
{
  "type": "Feature",
  "id": "node/9141358127",
  "properties": {
    "access": "yes",
    "addr:city": "Ramada",
    "addr:country": "PT",
    "addr:street": "Avenida Augusto Hilário",
    "authentication:membership_card": "yes",
    "authentication:none": "no",
    "capacity": "1",
    "construction:amenity": "charging_station",
    "email": "apoio.cliente@kmlowcost.com",
    "fee": "yes",
    "motorcar": "yes",
    "name": "ODV-XXXXX - Pingo Doce",
    "network": "Mobi.E",
    "opening_hours": "24/7",
    "operator": "KLC",
    "parking:fee": "no",
    "phone": "+351 800 296 929",
    "ref": "ODV-XXXXX",
    "socket:chademo": "1",
    "socket:chademo:current": "120",
    "socket:chademo:output": "50kW",
    "socket:chademo:voltage": "500",
    "socket:type2_cable": "1",
    "socket:type2_cable:current": "63",
    "socket:type2_cable:output": "43kW",
    "socket:type2_cable:voltage": "400",
    "socket:type2_combo": "1",
    "socket:type2_combo:current": "125",
    "socket:type2_combo:output": "50kW",
    "socket:type2_combo:voltage": "500",
    "website": "https://www.mobie.pt",
    "id": "node/9141358127"
  },
  "geometry": {
    "type": "Point",
    "coordinates": [
      -9.1886339,
      38.8142255
    ]
  }
},
{
  "type": "Feature",
  "id": "node/9191518350",
  "properties": {
    "access": "yes",
    "addr:country": "PT",
    "authentication:membership_card": "yes",
    "authentication:none": "no",
    "capacity": "4",
    "construction:amenity": "charging_station",
    "fee": "yes",
    "motorcar": "yes",
    "name": "LSB-00402/403",
    "network": "Mobi.E",
    "opening_hours": "24/7",
    "operator": "EDP Comercial",
    "parking:fee": "yes",
    "ref": "LSB-00402;LSB-00403",
    "socket:type2": "4",
    "socket:type2:current": "32",
    "socket:type2:output": "22kW",
    "socket:type2:voltage": "400",
    "website": "https://www.mobie.pt/",
    "id": "node/9191518350"
  },
  "geometry": {
    "type": "Point",
    "coordinates": [
      -9.1834559,
      38.7533036
    ]
  }
},
{
  "type": "Feature",
  "id": "node/9191518351",
  "properties": {
    "access": "yes",
    "addr:country": "PT",
    "authentication:membership_card": "yes",
    "authentication:none": "no",
    "capacity": "1",
    "construction:amenity": "charging_station",
    "fee": "yes",
    "motorcar": "yes",
    "name": "LSB-00401",
    "network": "Mobi.E",
    "opening_hours": "24/7",
    "operator": "EDP Comercial",
    "parking:fee": "yes",
    "ref": "LSB-00401",
    "socket:chademo": "1",
    "socket:chademo:current": "120",
    "socket:chademo:output": "50kW",
    "socket:chademo:voltage": "500",
    "socket:type2_combo": "1",
    "socket:type2_combo:current": "350",
    "socket:type2_combo:output": "160kW",
    "socket:type2_combo:voltage": "920",
    "website": "https://www.mobie.pt/",
    "id": "node/9191518351"
  },
  "geometry": {
    "type": "Point",
    "coordinates": [
      -9.1834214,
      38.7532464
    ]
  }
},
{
  "type": "Feature",
  "id": "node/9191518352",
  "properties": {
    "access": "yes",
    "addr:country": "PT",
    "authentication:membership_card": "yes",
    "authentication:none": "no",
    "capacity": "2",
    "construction:amenity": "charging_station",
    "fee": "yes",
    "motorcar": "yes",
    "name": "LSB-00400",
    "network": "Mobi.E",
    "opening_hours": "24/7",
    "operator": "EDP Comercial",
    "parking:fee": "yes",
    "ref": "LSB-00400",
    "socket:chademo": "1",
    "socket:chademo:current": "120",
    "socket:chademo:output": "50kW",
    "socket:chademo:voltage": "500",
    "socket:type2_cable": "1",
    "socket:type2_cable:current": "32",
    "socket:type2_cable:output": "22kW",
    "socket:type2_cable:voltage": "400",
    "socket:type2_combo": "1",
    "socket:type2_combo:current": "125",
    "socket:type2_combo:output": "50kW",
    "socket:type2_combo:voltage": "500",
    "website": "https://www.mobie.pt/",
    "id": "node/9191518352"
  },
  "geometry": {
    "type": "Point",
    "coordinates": [
      -9.1834381,
      38.7532741
    ]
  }
},
{
  "type": "Feature",
  "id": "node/9194542208",
  "properties": {
    "access": "yes",
    "addr:country": "PT",
    "authentication:membership_card": "yes",
    "authentication:none": "no",
    "capacity": "2",
    "construction:amenity": "charging_station",
    "fee": "yes",
    "motorcar": "yes",
    "name": "FUN-XXXXX",
    "network": "Mobi.E",
    "opening_hours": "24/7",
    "operator": "Emacom",
    "parking:fee": "no",
    "ref": "FUN-XXXXX",
    "socket:chademo": "1",
    "socket:chademo:current": "120",
    "socket:chademo:output": "50kW",
    "socket:chademo:voltage": "500",
    "socket:type2": "1",
    "socket:type2:current": "32",
    "socket:type2:output": "22kW",
    "socket:type2:voltage": "400",
    "socket:type2_combo": "1",
    "socket:type2_combo:current": "125",
    "socket:type2_combo:output": "50kW",
    "socket:type2_combo:voltage": "500",
    "website": "https://www.mobie.pt/",
    "id": "node/9194542208"
  },
  "geometry": {
    "type": "Point",
    "coordinates": [
      -16.9030384,
      32.647119
    ]
  }
},
{
  "type": "Feature",
  "id": "node/9194542211",
  "properties": {
    "access": "yes",
    "addr:country": "PT",
    "authentication:membership_card": "yes",
    "authentication:none": "no",
    "capacity": "2",
    "construction:amenity": "charging_station",
    "fee": "yes",
    "motorcar": "yes",
    "name": "AVV-XXXXX",
    "network": "Mobi.E",
    "opening_hours": "24/7",
    "operator": "EVCE",
    "parking:fee": "no",
    "ref": "AVV-XXXXX",
    "socket:chademo": "1",
    "socket:chademo:current": "120",
    "socket:chademo:output": "50kW",
    "socket:chademo:voltage": "500",
    "socket:type2_cable": "1",
    "socket:type2_cable:current": "63",
    "socket:type2_cable:output": "43kW",
    "socket:type2_cable:voltage": "400",
    "socket:type2_combo": "1",
    "socket:type2_combo:current": "125",
    "socket:type2_combo:output": "50kW",
    "socket:type2_combo:voltage": "500",
    "website": "https://www.mobie.pt/",
    "id": "node/9194542211"
  },
  "geometry": {
    "type": "Point",
    "coordinates": [
      -8.4166236,
      41.848174
    ]
  }
},
{
  "type": "Feature",
  "id": "node/9194542212",
  "properties": {
    "access": "yes",
    "addr:country": "PT",
    "authentication:membership_card": "yes",
    "authentication:none": "no",
    "capacity": "1",
    "construction:amenity": "charging_station",
    "fee": "yes",
    "motorcar": "yes",
    "name": "MFR-XXXXX - McDonald's",
    "network": "Mobi.E",
    "opening_hours": "24/7",
    "operator": "unknown",
    "parking:fee": "no",
    "ref": "MFR-XXXXX",
    "socket:chademo": "1",
    "socket:chademo:current": "120",
    "socket:chademo:output": "50kW",
    "socket:chademo:voltage": "500",
    "socket:type2_combo": "1",
    "socket:type2_combo:current": "125",
    "socket:type2_combo:output": "50kW",
    "socket:type2_combo:voltage": "500",
    "website": "https://www.mobie.pt/",
    "id": "node/9194542212"
  },
  "geometry": {
    "type": "Point",
    "coordinates": [
      -9.342281,
      38.9433723
    ]
  }
},
{
  "type": "Feature",
  "id": "node/9196500832",
  "properties": {
    "access": "yes",
    "addr:country": "PT",
    "authentication:membership_card": "yes",
    "authentication:none": "no",
    "capacity": "1",
    "construction:amenity": "charging_station",
    "fee": "yes",
    "motorcar": "yes",
    "name": "BRG-00018",
    "network": "Mobi.E",
    "opening_hours": "24/7",
    "operator": "Prio.E",
    "parking:fee": "no",
    "ref": "BRG-00018",
    "socket:chademo": "1",
    "socket:chademo:current": "120",
    "socket:chademo:output": "50kW",
    "socket:chademo:voltage": "500",
    "socket:type2_combo": "1",
    "socket:type2_combo:current": "125",
    "socket:type2_combo:output": "50kW",
    "socket:type2_combo:voltage": "500",
    "website": "https://www.mobie.pt/",
    "id": "node/9196500832"
  },
  "geometry": {
    "type": "Point",
    "coordinates": [
      -8.4326283,
      41.540535
    ]
  }
},
{
  "type": "Feature",
  "id": "node/9222092137",
  "properties": {
    "access": "yes",
    "addr:country": "PT",
    "authentication:membership_card": "yes",
    "authentication:none": "no",
    "capacity": "10",
    "construction:amenity": "charging_station",
    "fee": "yes",
    "motorcar": "yes",
    "name": "STS-XXXXX - Entreposto LIDL",
    "network": "Mobi.E",
    "opening_hours": "24/7",
    "operator": "unknown",
    "parking:fee": "no",
    "ref": "STS-XXXXX",
    "socket:type2": "10",
    "socket:type2:current": "32",
    "socket:type2:output": "22kW",
    "socket:type2:voltage": "400",
    "website": "https://www.mobie.pt/",
    "id": "node/9222092137"
  },
  "geometry": {
    "type": "Point",
    "coordinates": [
      -8.4980028,
      41.3184185
    ]
  }
},
{
  "type": "Feature",
  "id": "node/9238885737",
  "properties": {
    "access": "yes",
    "addr:country": "PT",
    "authentication:membership_card": "yes",
    "authentication:none": "no",
    "capacity": "1",
    "construction:amenity": "charging_station",
    "fee": "yes",
    "motorcar": "yes",
    "name": "OER-00115",
    "network": "Mobi.E",
    "opening_hours": "24/7",
    "operator": "GreenCharge",
    "parking:fee": "no",
    "ref": "OER-00115",
    "socket:type2": "1",
    "socket:type2:current": "32",
    "socket:type2:output": "22kW",
    "socket:type2:voltage": "400",
    "website": "https://www.mobie.pt/",
    "id": "node/9238885737"
  },
  "geometry": {
    "type": "Point",
    "coordinates": [
      -9.2298333,
      38.7000341
    ]
  }
},
{
  "type": "Feature",
  "id": "node/9238885739",
  "properties": {
    "access": "yes",
    "addr:country": "PT",
    "authentication:membership_card": "yes",
    "authentication:none": "no",
    "capacity": "1",
    "construction:amenity": "charging_station",
    "fee": "yes",
    "motorcar": "yes",
    "name": "OER-00107",
    "network": "Mobi.E",
    "opening_hours": "24/7",
    "operator": "GreenCharge",
    "parking:fee": "no",
    "ref": "OER-00107",
    "socket:type2": "1",
    "socket:type2:current": "32",
    "socket:type2:output": "22kW",
    "socket:type2:voltage": "400",
    "website": "https://www.mobie.pt/",
    "id": "node/9238885739"
  },
  "geometry": {
    "type": "Point",
    "coordinates": [
      -9.3021858,
      38.7014646
    ]
  }
},
{
  "type": "Feature",
  "id": "node/9238885740",
  "properties": {
    "access": "yes",
    "addr:country": "PT",
    "authentication:membership_card": "yes",
    "authentication:none": "no",
    "capacity": "1",
    "construction:amenity": "charging_station",
    "fee": "yes",
    "motorcar": "yes",
    "name": "OER-00106",
    "network": "Mobi.E",
    "opening_hours": "24/7",
    "operator": "GreenCharge",
    "parking:fee": "no",
    "ref": "OER-00106",
    "socket:type2": "1",
    "socket:type2:current": "32",
    "socket:type2:output": "22kW",
    "socket:type2:voltage": "400",
    "website": "https://www.mobie.pt/",
    "id": "node/9238885740"
  },
  "geometry": {
    "type": "Point",
    "coordinates": [
      -9.3096956,
      38.7145031
    ]
  }
},
{
  "type": "Feature",
  "id": "node/9247156726",
  "properties": {
    "access": "yes",
    "addr:country": "PT",
    "authentication:membership_card": "yes",
    "authentication:none": "no",
    "capacity": "2",
    "construction:amenity": "charging_station",
    "fee": "yes",
    "motorcar": "yes",
    "name": "PBL-XXXXX",
    "network": "Mobi.E",
    "opening_hours": "24/7",
    "operator": "Galp Geste",
    "parking:fee": "no",
    "ref": "PBL-XXXXX",
    "socket:chademo": "1",
    "socket:chademo:current": "120",
    "socket:chademo:output": "50kW",
    "socket:chademo:voltage": "500",
    "socket:type2_cable": "1",
    "socket:type2_cable:current": "63",
    "socket:type2_cable:output": "43kW",
    "socket:type2_cable:voltage": "400",
    "socket:type2_combo": "1",
    "socket:type2_combo:current": "125",
    "socket:type2_combo:output": "50kW",
    "socket:type2_combo:voltage": "500",
    "website": "https://www.mobie.pt/",
    "id": "node/9247156726"
  },
  "geometry": {
    "type": "Point",
    "coordinates": [
      -8.6005233,
      40.0146205
    ]
  }
},
{
  "type": "Feature",
  "id": "node/9247173584",
  "properties": {
    "access": "yes",
    "addr:country": "PT",
    "authentication:membership_card": "yes",
    "authentication:none": "no",
    "capacity": "1",
    "construction:amenity": "charging_station",
    "fee": "yes",
    "motorcar": "yes",
    "name": "AVR-XXXXX - Prio",
    "network": "Mobi.E",
    "opening_hours": "24/7",
    "operator": "Prio.E",
    "parking:fee": "no",
    "ref": "AVR-XXXXX",
    "socket:chademo": "1",
    "socket:chademo:current": "120",
    "socket:chademo:output": "50kW",
    "socket:chademo:voltage": "500",
    "socket:type2_combo": "1",
    "socket:type2_combo:current": "125",
    "socket:type2_combo:output": "50kW",
    "socket:type2_combo:voltage": "500",
    "website": "https://www.mobie.pt/",
    "id": "node/9247173584"
  },
  "geometry": {
    "type": "Point",
    "coordinates": [
      -8.655322,
      40.618878
    ]
  }
},
{
  "type": "Feature",
  "id": "node/9247173585",
  "properties": {
    "access": "yes",
    "addr:country": "PT",
    "authentication:membership_card": "yes",
    "authentication:none": "no",
    "capacity": "2",
    "construction:amenity": "charging_station",
    "fee": "yes",
    "motorcar": "yes",
    "name": "AGD-XXXXX - McDonald's",
    "network": "Mobi.E",
    "opening_hours": "24/7",
    "operator": "EDP Comercial",
    "parking:fee": "no",
    "ref": "AGD-XXXXX",
    "socket:chademo": "1",
    "socket:chademo:current": "120",
    "socket:chademo:output": "50kW",
    "socket:chademo:voltage": "500",
    "socket:type2_cable": "1",
    "socket:type2_cable:current": "63",
    "socket:type2_cable:output": "43kW",
    "socket:type2_cable:voltage": "400",
    "socket:type2_combo": "1",
    "socket:type2_combo:current": "125",
    "socket:type2_combo:output": "50kW",
    "socket:type2_combo:voltage": "500",
    "website": "https://www.mobie.pt/",
    "id": "node/9247173585"
  },
  "geometry": {
    "type": "Point",
    "coordinates": [
      -8.457604,
      40.594583
    ]
  }
},
{
  "type": "Feature",
  "id": "node/9261898436",
  "properties": {
    "access": "yes",
    "addr:country": "PT",
    "authentication:membership_card": "yes",
    "authentication:none": "no",
    "capacity": "1",
    "construction:amenity": "charging_station",
    "fee": "yes",
    "motorcar": "yes",
    "name": "OER-00108",
    "network": "Mobi.E",
    "opening_hours": "24/7",
    "operator": "GreenCharge",
    "parking:fee": "no",
    "ref": "OER-00108",
    "socket:type2": "1",
    "socket:type2:current": "32",
    "socket:type2:output": "22kW",
    "socket:type2:voltage": "400",
    "website": "https://www.mobie.pt/",
    "id": "node/9261898436"
  },
  "geometry": {
    "type": "Point",
    "coordinates": [
      -9.3218776,
      38.6766956
    ]
  }
},
{
  "type": "Feature",
  "id": "node/9269624287",
  "properties": {
    "access": "yes",
    "addr:country": "PT",
    "authentication:membership_card": "yes",
    "authentication:none": "no",
    "capacity": "2",
    "construction:amenity": "charging_station",
    "fee": "yes",
    "name": "VFX-XXXXX",
    "network": "Mobi.E",
    "opening_hours": "24/7",
    "operator": "unknown",
    "parking:fee": "no",
    "ref": "VFX-XXXXX",
    "socket:type2": "2",
    "socket:type2:current": "32",
    "socket:type2:output": "22kW",
    "socket:type2:voltage": "400",
    "website": "https://www.mobie.pt/",
    "id": "node/9269624287"
  },
  "geometry": {
    "type": "Point",
    "coordinates": [
      -9.074961,
      38.859971
    ]
  }
},
{
  "type": "Feature",
  "id": "node/9278711569",
  "properties": {
    "access": "yes",
    "addr:country": "PT",
    "authentication:membership_card": "yes",
    "authentication:none": "no",
    "capacity": "4",
    "construction:amenity": "charging_station",
    "fee": "yes",
    "motorcar": "yes",
    "name": "LRA-00048/49 - Parque Santo Agostinho",
    "network": "Mobi.E",
    "opening_hours": "24/7",
    "operator": "Powerdot",
    "parking:fee": "yes",
    "ref": "LRA-00048:LRA-00049",
    "socket:type2": "4",
    "socket:type2:current": "32",
    "socket:type2:output": "22kW",
    "socket:type2:voltage": "400",
    "website": "https://www.mobie.pt/",
    "id": "node/9278711569"
  },
  "geometry": {
    "type": "Point",
    "coordinates": [
      -8.8015038,
      39.7404279
    ]
  }
},
{
  "type": "Feature",
  "id": "node/9281258490",
  "properties": {
    "access": "yes",
    "addr:country": "PT",
    "authentication:membership_card": "yes",
    "authentication:none": "no",
    "capacity": "6",
    "construction:amenity": "charging_station",
    "fee": "yes",
    "motorcar": "yes",
    "name": "BRR-XXXXX - Hospital do Barreiro",
    "network": "Mobi.E",
    "opening_hours": "24/7",
    "operator": "Helexia II",
    "parking:fee": "yes",
    "ref": "BRR-XXXXX",
    "socket:type2": "6",
    "socket:type2:current": "32",
    "socket:type2:output": "22kW",
    "socket:type2:voltage": "400",
    "website": "https://www.mobie.pt/",
    "id": "node/9281258490"
  },
  "geometry": {
    "type": "Point",
    "coordinates": [
      -9.0569039,
      38.6562541
    ]
  }
},
{
  "type": "Feature",
  "id": "node/9281311309",
  "properties": {
    "access": "yes",
    "addr:country": "PT",
    "authentication:membership_card": "yes",
    "authentication:none": "no",
    "capacity": "6",
    "construction:amenity": "charging_station",
    "fee": "yes",
    "motorcar": "yes",
    "name": "LSB-00405/406/407",
    "network": "Mobi.E",
    "opening_hours": "24/7",
    "operator": "EMEL",
    "parking:fee": "yes",
    "ref": "LSB-00405;LSB-00406;LSB-00407",
    "socket:type2": "6",
    "socket:type2:current": "32",
    "socket:type2:output": "7.4kW",
    "socket:type2:voltage": "230",
    "website": "https://www.mobie.pt/",
    "id": "node/9281311309"
  },
  "geometry": {
    "type": "Point",
    "coordinates": [
      -9.1350291,
      38.7123681
    ]
  }
},
{
  "type": "Feature",
  "id": "node/9284214395",
  "properties": {
    "access": "yes",
    "addr:country": "PT",
    "authentication:membership_card": "yes",
    "authentication:none": "no",
    "capacity": "2",
    "construction:amenity": "charging_station",
    "fee": "yes",
    "motorcar": "yes",
    "name": "LSB-00404",
    "network": "Mobi.E",
    "opening_hours": "24/7",
    "operator": "EMEL",
    "parking:fee": "yes",
    "ref": "LSB-00404",
    "socket:type2": "2",
    "socket:type2:current": "32",
    "socket:type2:output": "22kW",
    "socket:type2:voltage": "400",
    "website": "https://www.mobie.pt/",
    "id": "node/9284214395"
  },
  "geometry": {
    "type": "Point",
    "coordinates": [
      -9.1350098,
      38.7123601
    ]
  }
},
{
  "type": "Feature",
  "id": "node/9289779712",
  "properties": {
    "access": "yes",
    "addr:city": "Cacia",
    "addr:country": "PT",
    "addr:street": "Avenida da Europa",
    "authentication:membership_card": "yes",
    "authentication:none": "no",
    "capacity": "2",
    "construction:amenity": "charging_station",
    "email": "mobilidade.electricacrc@galp.com",
    "fee": "yes",
    "motorcar": "yes",
    "name": "AVR-XXXXX - GALP",
    "network": "Mobi.E",
    "opening_hours": "24/7",
    "operator": "Galp Geste",
    "parking:fee": "no",
    "phone": "+351 800 249 249",
    "ref": "AVR-XXXXX",
    "socket:chademo": "1",
    "socket:chademo:current": "120",
    "socket:chademo:output": "50kW",
    "socket:chademo:voltage": "500",
    "socket:type2_cable": "1",
    "socket:type2_cable:current": "63",
    "socket:type2_cable:output": "43kW",
    "socket:type2_cable:voltage": "400",
    "socket:type2_combo": "1",
    "socket:type2_combo:current": "125",
    "socket:type2_combo:output": "50kW",
    "socket:type2_combo:voltage": "500",
    "website": "https://www.mobie.pt",
    "id": "node/9289779712"
  },
  "geometry": {
    "type": "Point",
    "coordinates": [
      -8.609402,
      40.665836
    ]
  }
},
{
  "type": "Feature",
  "id": "node/9316451538",
  "properties": {
    "access": "yes",
    "addr:country": "PT",
    "authentication:membership_card": "yes",
    "authentication:none": "no",
    "capacity": "1",
    "construction:amenity": "charging_station",
    "fee": "yes",
    "motorcar": "yes",
    "name": "PLM-XXXXX",
    "network": "Mobi.E",
    "opening_hours": "24/7",
    "operator": "Galp Geste",
    "parking:fee": "no",
    "ref": "PLM-XXXXX",
    "socket:chademo": "1",
    "socket:chademo:current": "120",
    "socket:chademo:output": "50kW",
    "socket:chademo:voltage": "500",
    "socket:type2_combo": "1",
    "socket:type2_combo:current": "350",
    "socket:type2_combo:output": "160kW",
    "socket:type2_combo:voltage": "920",
    "website": "https://www.mobie.pt",
    "id": "node/9316451538"
  },
  "geometry": {
    "type": "Point",
    "coordinates": [
      -8.9307904,
      38.5848598
    ]
  }
},
{
  "type": "Feature",
  "id": "node/9338579596",
  "properties": {
    "access": "yes",
    "addr:country": "PT",
    "authentication:membership_card": "yes",
    "authentication:none": "no",
    "capacity": "2",
    "construction:amenity": "charging_station",
    "fee": "yes",
    "motorcar": "yes",
    "name": "MFR-XXXXX - McDonald's",
    "network": "Mobi.E",
    "opening_hours": "24/7",
    "operator": "EDP Comercial",
    "parking:fee": "no",
    "ref": "MFR-XXXXX",
    "socket:chademo": "1",
    "socket:chademo:current": "125",
    "socket:chademo:output": "60kW",
    "socket:chademo:voltage": "500",
    "socket:type2": "1",
    "socket:type2:current": "32",
    "socket:type2:output": "22kW",
    "socket:type2:voltage": "400",
    "socket:type2_cable": "1",
    "socket:type2_cable:current": "63",
    "socket:type2_cable:output": "43kW",
    "socket:type2_cable:voltage": "400",
    "socket:type2_combo": "1",
    "socket:type2_combo:current": "250",
    "socket:type2_combo:output": "90kW",
    "socket:type2_combo:voltage": "920",
    "website": "https://www.mobie.pt/",
    "id": "node/9338579596"
  },
  "geometry": {
    "type": "Point",
    "coordinates": [
      -9.250569,
      38.94082
    ]
  }
},
{
  "type": "Feature",
  "id": "node/9338579598",
  "properties": {
    "access": "yes",
    "addr:country": "PT",
    "authentication:membership_card": "yes",
    "authentication:none": "no",
    "capacity": "6",
    "construction:amenity": "charging_station",
    "fee": "yes",
    "motorcar": "yes",
    "name": "VIS-XXXXX - Palácio do Gelo",
    "network": "Mobi.E",
    "opening_hours": "24/7",
    "operator": "unknown",
    "parking:fee": "yes",
    "ref": "VIS-XXXXX",
    "socket:chademo": "2",
    "socket:chademo:current": "120",
    "socket:chademo:output": "50kW",
    "socket:chademo:voltage": "500",
    "socket:type2": "4",
    "socket:type2:current": "32",
    "socket:type2:output": "22kW",
    "socket:type2:voltage": "400",
    "socket:type2_combo": "2",
    "socket:type2_combo:current": "125",
    "socket:type2_combo:output": "50kW",
    "socket:type2_combo:voltage": "500",
    "website": "https://www.mobie.pt/",
    "id": "node/9338579598"
  },
  "geometry": {
    "type": "Point",
    "coordinates": [
      -7.9117983,
      40.6437791
    ]
  }
},
{
  "type": "Feature",
  "id": "node/9374826104",
  "properties": {
    "access": "yes",
    "addr:country": "PT",
    "authentication:membership_card": "yes",
    "authentication:none": "no",
    "capacity": "2",
    "construction:amenity": "charging_station",
    "fee": "yes",
    "motorcar": "yes",
    "name": "MTS-00042 - Instituto CUF",
    "network": "Mobi.E",
    "opening_hours": "24/7",
    "operator": "Galp Power",
    "parking:fee": "yes",
    "ref": "MTS-00042",
    "socket:type2": "2",
    "socket:type2:current": "32",
    "socket:type2:output": "7.4kW",
    "socket:type2:voltage": "230",
    "website": "https://www.mobie.pt/",
    "id": "node/9374826104"
  },
  "geometry": {
    "type": "Point",
    "coordinates": [
      -8.650855,
      41.1815418
    ]
  }
},
{
  "type": "Feature",
  "id": "node/9374826105",
  "properties": {
    "access": "yes",
    "addr:country": "PT",
    "authentication:membership_card": "yes",
    "authentication:none": "no",
    "capacity": "2",
    "construction:amenity": "charging_station",
    "fee": "yes",
    "motorcar": "yes",
    "name": "MTS-00041 - Instituto CUF",
    "network": "Mobi.E",
    "opening_hours": "24/7",
    "operator": "Galp Power",
    "parking:fee": "yes",
    "ref": "MTS-00041",
    "socket:type2": "2",
    "socket:type2:current": "32",
    "socket:type2:output": "22kW",
    "socket:type2:voltage": "400",
    "website": "https://www.mobie.pt/",
    "id": "node/9374826105"
  },
  "geometry": {
    "type": "Point",
    "coordinates": [
      -8.650829,
      41.181513
    ]
  }
},
{
  "type": "Feature",
  "id": "node/9377220322",
  "properties": {
    "access": "yes",
    "addr:country": "PT",
    "authentication:membership_card": "yes",
    "authentication:none": "no",
    "capacity": "2",
    "construction:amenity": "charging_station",
    "fee": "yes",
    "motorcar": "yes",
    "name": "CBR-00040 - Hospital CUF",
    "network": "Mobi.E",
    "opening_hours": "24/7",
    "operator": "Galp Power",
    "parking:fee": "yes",
    "ref": "CBR-00040",
    "socket:type2": "2",
    "socket:type2:current": "32",
    "socket:type2:output": "22kW",
    "socket:type2:voltage": "400",
    "website": "https://www.mobie.pt/",
    "id": "node/9377220322"
  },
  "geometry": {
    "type": "Point",
    "coordinates": [
      -8.4156051,
      40.2225503
    ]
  }
},
{
  "type": "Feature",
  "id": "node/9384511624",
  "properties": {
    "access": "yes",
    "addr:country": "PT",
    "authentication:membership_card": "yes",
    "authentication:none": "no",
    "capacity": "2",
    "construction:amenity": "charging_station",
    "fee": "yes",
    "motorcar": "yes",
    "name": "PRT-00116 - CUF",
    "network": "Mobi.E",
    "opening_hours": "24/7",
    "operator": "Galp Power",
    "parking:fee": "yes",
    "ref": "PRT-00116",
    "socket:type2": "2",
    "socket:type2:current": "32",
    "socket:type2:output": "22kW",
    "socket:type2:voltage": "400",
    "website": "https://www.mobie.pt/",
    "id": "node/9384511624"
  },
  "geometry": {
    "type": "Point",
    "coordinates": [
      -8.6687118,
      41.1761355
    ]
  }
},
{
  "type": "Feature",
  "id": "node/9384511625",
  "properties": {
    "access": "yes",
    "addr:country": "PT",
    "authentication:membership_card": "yes",
    "authentication:none": "no",
    "capacity": "2",
    "construction:amenity": "charging_station",
    "fee": "yes",
    "motorcar": "yes",
    "name": "PRT-00121 - CUF",
    "network": "Mobi.E",
    "opening_hours": "24/7",
    "operator": "Galp Power",
    "parking:fee": "yes",
    "ref": "PRT-00121",
    "socket:type2": "2",
    "socket:type2:current": "32",
    "socket:type2:output": "7.4kW",
    "socket:type2:voltage": "230",
    "website": "https://www.mobie.pt/",
    "id": "node/9384511625"
  },
  "geometry": {
    "type": "Point",
    "coordinates": [
      -8.6686997,
      41.1761052
    ]
  }
},
{
  "type": "Feature",
  "id": "node/9403235634",
  "properties": {
    "access": "yes",
    "addr:city": "Aveiro",
    "addr:country": "PT",
    "authentication:membership_card": "yes",
    "authentication:none": "no",
    "capacity": "3",
    "construction:amenity": "charging_station",
    "fee": "yes",
    "name": "AVR-XXXXX - McDonald's",
    "network": "Mobi.E",
    "opening_hours": "24/7",
    "operator": "EDP Comercial",
    "parking:fee": "no",
    "ref": "AVR-XXXXX",
    "socket:chademo": "1",
    "socket:chademo:current": "125",
    "socket:chademo:output": "60kW",
    "socket:chademo:voltage": "500",
    "socket:type2": "1",
    "socket:type2:current": "32",
    "socket:type2:output": "22kW",
    "socket:type2:voltage": "400",
    "socket:type2_combo": "1",
    "socket:type2_combo:current": "250",
    "socket:type2_combo:output": "90kW",
    "socket:type2_combo:voltage": "920",
    "website": "https://www.mobie.pt/",
    "id": "node/9403235634"
  },
  "geometry": {
    "type": "Point",
    "coordinates": [
      -8.650968,
      40.6324727
    ]
  }
},
{
  "type": "Feature",
  "id": "node/9418117936",
  "properties": {
    "access": "yes",
    "addr:country": "PT",
    "authentication:membership_card": "yes",
    "authentication:none": "no",
    "capacity": "2",
    "construction:amenity": "charging_station",
    "fee": "yes",
    "motorcar": "yes",
    "name": "PDL-00008",
    "network": "Mobi.E",
    "opening_hours": "24/7",
    "operator": "EDP Comercial",
    "parking:fee": "no",
    "ref": "PDL-00008",
    "socket:type2": "2",
    "socket:type2:current": "32",
    "socket:type2:output": "22kW",
    "socket:type2:voltage": "400",
    "website": "https://www.mobie.pt",
    "id": "node/9418117936"
  },
  "geometry": {
    "type": "Point",
    "coordinates": [
      -25.6543394,
      37.7516592
    ]
  }
},
{
  "type": "Feature",
  "id": "node/9426410188",
  "properties": {
    "access": "yes",
    "addr:country": "PT",
    "authentication:membership_card": "yes",
    "authentication:none": "no",
    "capacity": "2",
    "construction:amenity": "charging_station",
    "fee": "yes",
    "motorcar": "yes",
    "name": "VCT-00024 - Galp",
    "network": "Mobi.E",
    "opening_hours": "24/7",
    "operator": "Galp Geste",
    "parking:fee": "no",
    "ref": "VCT-00024",
    "socket:chademo": "1",
    "socket:chademo:current": "120",
    "socket:chademo:output": "50kW",
    "socket:chademo:voltage": "500",
    "socket:type2_cable": "1",
    "socket:type2_cable:current": "63",
    "socket:type2_cable:output": "43kW",
    "socket:type2_cable:voltage": "400",
    "socket:type2_combo": "1",
    "socket:type2_combo:current": "125",
    "socket:type2_combo:output": "50kW",
    "socket:type2_combo:voltage": "500",
    "website": "https://www.mobie.pt/",
    "id": "node/9426410188"
  },
  "geometry": {
    "type": "Point",
    "coordinates": [
      -8.80274,
      41.70709
    ]
  }
},
{
  "type": "Feature",
  "id": "node/9426410189",
  "properties": {
    "access": "yes",
    "addr:country": "PT",
    "authentication:membership_card": "yes",
    "authentication:none": "no",
    "capacity": "2",
    "construction:amenity": "charging_station",
    "fee": "yes",
    "motorcar": "yes",
    "name": "ETR-XXXXX - Galp",
    "network": "Mobi.E",
    "opening_hours": "24/7",
    "operator": "Galp Geste",
    "parking:fee": "no",
    "ref": "ETR-XXXXX",
    "socket:chademo": "1",
    "socket:chademo:current": "120",
    "socket:chademo:output": "50kW",
    "socket:chademo:voltage": "500",
    "socket:type2_cable": "1",
    "socket:type2_cable:current": "63",
    "socket:type2_cable:output": "43kW",
    "socket:type2_cable:voltage": "400",
    "socket:type2_combo": "1",
    "socket:type2_combo:current": "125",
    "socket:type2_combo:output": "50kW",
    "socket:type2_combo:voltage": "500",
    "website": "https://www.mobie.pt/",
    "id": "node/9426410189"
  },
  "geometry": {
    "type": "Point",
    "coordinates": [
      -8.5688231,
      40.7513693
    ]
  }
},
{
  "type": "Feature",
  "id": "node/9426410192",
  "properties": {
    "access": "yes",
    "addr:country": "PT",
    "authentication:membership_card": "yes",
    "authentication:none": "no",
    "capacity": "2",
    "construction:amenity": "charging_station",
    "fee": "yes",
    "motorcar": "yes",
    "name": "AVR-XXXXX - IPDJ",
    "network": "Mobi.E",
    "opening_hours": "24/7",
    "operator": "E-Plug",
    "parking:fee": "no",
    "ref": "AVR-XXXXX",
    "socket:type2": "2",
    "socket:type2:current": "32",
    "socket:type2:output": "22kW",
    "socket:type2:voltage": "400",
    "website": "https://www.mobie.pt/",
    "id": "node/9426410192"
  },
  "geometry": {
    "type": "Point",
    "coordinates": [
      -8.6519992,
      40.632288
    ]
  }
},
{
  "type": "Feature",
  "id": "node/9426410194",
  "properties": {
    "access": "yes",
    "addr:country": "PT",
    "authentication:membership_card": "yes",
    "authentication:none": "no",
    "capacity": "2",
    "construction:amenity": "charging_station",
    "fee": "yes",
    "motorcar": "yes",
    "name": "ESP-XXXXX - Burger King",
    "network": "Mobi.E",
    "opening_hours": "24/7",
    "operator": "unknown",
    "parking:fee": "no",
    "ref": "ESP-XXXXX",
    "socket:chademo": "1",
    "socket:chademo:current": "120",
    "socket:chademo:output": "50kW",
    "socket:chademo:voltage": "500",
    "socket:type2_cable": "1",
    "socket:type2_cable:current": "63",
    "socket:type2_cable:output": "43kW",
    "socket:type2_cable:voltage": "400",
    "socket:type2_combo": "1",
    "socket:type2_combo:current": "125",
    "socket:type2_combo:output": "50kW",
    "socket:type2_combo:voltage": "500",
    "website": "https://www.mobie.pt/",
    "id": "node/9426410194"
  },
  "geometry": {
    "type": "Point",
    "coordinates": [
      -8.637805,
      40.999827
    ]
  }
},
{
  "type": "Feature",
  "id": "node/9432160640",
  "properties": {
    "access": "yes",
    "addr:country": "PT",
    "authentication:membership_card": "yes",
    "authentication:none": "no",
    "capacity": "4",
    "construction:amenity": "charging_station",
    "fee": "yes",
    "motorcar": "yes",
    "name": "BRR-00008/9/10/11 - Empark",
    "network": "Mobi.E",
    "opening_hours": "24/7",
    "operator": "Maksu Services",
    "parking:fee": "yes",
    "ref": "BRR-00008;BRR-00009;BRR-00010;BRR-00011",
    "socket:type2": "4",
    "socket:type2:current": "32",
    "socket:type2:output": "22kW",
    "socket:type2:voltage": "400",
    "website": "https://www.mobie.pt/",
    "id": "node/9432160640"
  },
  "geometry": {
    "type": "Point",
    "coordinates": [
      -9.0784124,
      38.6619475
    ]
  }
},
{
  "type": "Feature",
  "id": "node/9432160641",
  "properties": {
    "access": "yes",
    "addr:country": "PT",
    "authentication:membership_card": "yes",
    "authentication:none": "no",
    "capacity": "2",
    "construction:amenity": "charging_station",
    "fee": "yes",
    "motorcar": "yes",
    "name": "MNC-00004 - Rio Park",
    "network": "Mobi.E",
    "opening_hours": "24/7",
    "operator": "Powerdot",
    "parking:fee": "no",
    "ref": "MNC-00004",
    "socket:type2": "2",
    "socket:type2:current": "32",
    "socket:type2:output": "22kW",
    "socket:type2:voltage": "400",
    "website": "https://www.mobie.pt/",
    "id": "node/9432160641"
  },
  "geometry": {
    "type": "Point",
    "coordinates": [
      -8.4954552,
      42.0748214
    ]
  }
},
{
  "type": "Feature",
  "id": "node/9432160642",
  "properties": {
    "access": "yes",
    "addr:country": "PT",
    "authentication:membership_card": "yes",
    "authentication:none": "no",
    "capacity": "2",
    "construction:amenity": "charging_station",
    "fee": "yes",
    "motorcar": "yes",
    "name": "MNC-00005 - Rio Park",
    "network": "Mobi.E",
    "opening_hours": "24/7",
    "operator": "Powerdot",
    "parking:fee": "no",
    "ref": "MNC-00005",
    "socket:chademo": "1",
    "socket:chademo:current": "120",
    "socket:chademo:output": "50kW",
    "socket:chademo:voltage": "500",
    "socket:type2_cable": "1",
    "socket:type2_cable:current": "63",
    "socket:type2_cable:output": "43kW",
    "socket:type2_cable:voltage": "400",
    "socket:type2_combo": "1",
    "socket:type2_combo:current": "125",
    "socket:type2_combo:output": "50kW",
    "socket:type2_combo:voltage": "500",
    "website": "https://www.mobie.pt/",
    "id": "node/9432160642"
  },
  "geometry": {
    "type": "Point",
    "coordinates": [
      -8.4955464,
      42.0749043
    ]
  }
},
{
  "type": "Feature",
  "id": "node/9432160643",
  "properties": {
    "access": "yes",
    "addr:country": "PT",
    "authentication:membership_card": "yes",
    "authentication:none": "no",
    "capacity": "4",
    "construction:amenity": "charging_station",
    "fee": "yes",
    "motorcar": "yes",
    "name": "LSB-00430/431/432/433 - Empark",
    "network": "Mobi.E",
    "opening_hours": "24/7",
    "operator": "Maksu Services",
    "parking:fee": "yes",
    "ref": "LSB-00430;LSB-00431;LSB-00432;LSB-00433",
    "socket:type2": "4",
    "socket:type2:current": "32",
    "socket:type2:output": "22kW",
    "socket:type2:voltage": "400",
    "website": "https://www.mobie.pt/",
    "id": "node/9432160643"
  },
  "geometry": {
    "type": "Point",
    "coordinates": [
      -9.1404025,
      38.7208868
    ]
  }
},
{
  "type": "Feature",
  "id": "node/9434463992",
  "properties": {
    "access": "yes",
    "addr:country": "PT",
    "authentication:membership_card": "yes",
    "authentication:none": "no",
    "capacity": "2",
    "construction:amenity": "charging_station",
    "fee": "yes",
    "motorcar": "yes",
    "name": "SPS-00003 - Intermarché",
    "network": "Mobi.E",
    "opening_hours": "24/7",
    "operator": "Powerdot",
    "parking:fee": "no",
    "ref": "SPS-00003",
    "socket:chademo": "1",
    "socket:chademo:current": "120",
    "socket:chademo:output": "50kW",
    "socket:chademo:voltage": "500",
    "socket:type2_cable": "1",
    "socket:type2_cable:current": "63",
    "socket:type2_cable:output": "43kW",
    "socket:type2_cable:voltage": "400",
    "socket:type2_combo": "1",
    "socket:type2_combo:current": "125",
    "socket:type2_combo:output": "50kW",
    "socket:type2_combo:voltage": "500",
    "website": "https://www.mobie.pt/",
    "id": "node/9434463992"
  },
  "geometry": {
    "type": "Point",
    "coordinates": [
      -8.06995,
      40.75298
    ]
  }
},
{
  "type": "Feature",
  "id": "node/9439257878",
  "properties": {
    "access": "yes",
    "addr:country": "PT",
    "authentication:membership_card": "yes",
    "authentication:none": "no",
    "capacity": "2",
    "construction:amenity": "charging_station",
    "fee": "yes",
    "motorcar": "yes",
    "name": "ABF-00035 - Repsol",
    "network": "Mobi.E",
    "opening_hours": "24/7",
    "operator": "Repsol",
    "parking:fee": "no",
    "ref": "ABF-00035",
    "socket:chademo": "1",
    "socket:chademo:current": "120",
    "socket:chademo:output": "50kW",
    "socket:chademo:voltage": "500",
    "socket:type2_cable": "1",
    "socket:type2_cable:current": "63",
    "socket:type2_cable:output": "43kW",
    "socket:type2_cable:voltage": "400",
    "socket:type2_combo": "1",
    "socket:type2_combo:current": "125",
    "socket:type2_combo:output": "60kW",
    "socket:type2_combo:voltage": "920",
    "website": "https://www.mobie.pt/",
    "id": "node/9439257878"
  },
  "geometry": {
    "type": "Point",
    "coordinates": [
      -8.2551945,
      37.0958492
    ]
  }
},
{
  "type": "Feature",
  "id": "node/9440272694",
  "properties": {
    "access": "yes",
    "addr:country": "PT",
    "authentication:membership_card": "yes",
    "authentication:none": "no",
    "capacity": "2",
    "construction:amenity": "charging_station",
    "fee": "yes",
    "motorcar": "yes",
    "name": "MNC-00005 - Rio Park",
    "network": "Mobi.E",
    "opening_hours": "24/7",
    "operator": "Powerdot",
    "parking:fee": "no",
    "ref": "MNC-00005",
    "socket:chademo": "1",
    "socket:chademo:current": "120",
    "socket:chademo:output": "50kW",
    "socket:chademo:voltage": "500",
    "socket:type2_cable": "1",
    "socket:type2_cable:current": "63",
    "socket:type2_cable:output": "43kW",
    "socket:type2_cable:voltage": "400",
    "socket:type2_combo": "1",
    "socket:type2_combo:current": "125",
    "socket:type2_combo:output": "50kW",
    "socket:type2_combo:voltage": "500",
    "website": "https://www.mobie.pt/",
    "id": "node/9440272694"
  },
  "geometry": {
    "type": "Point",
    "coordinates": [
      -8.4954236,
      42.0748901
    ]
  }
},
{
  "type": "Feature",
  "id": "node/9440272702",
  "properties": {
    "access": "yes",
    "addr:country": "PT",
    "authentication:membership_card": "yes",
    "authentication:none": "no",
    "capacity": "2",
    "construction:amenity": "charging_station",
    "fee": "yes",
    "motorcar": "yes",
    "name": "PBL-XXXXX",
    "network": "Mobi.E",
    "opening_hours": "24/7",
    "operator": "Galp Geste",
    "parking:fee": "no",
    "ref": "PBL-XXXXX",
    "socket:chademo": "1",
    "socket:chademo:current": "120",
    "socket:chademo:output": "50kW",
    "socket:chademo:voltage": "500",
    "socket:type2_cable": "1",
    "socket:type2_cable:current": "63",
    "socket:type2_cable:output": "43kW",
    "socket:type2_cable:voltage": "400",
    "socket:type2_combo": "1",
    "socket:type2_combo:current": "125",
    "socket:type2_combo:output": "50kW",
    "socket:type2_combo:voltage": "500",
    "website": "https://www.mobie.pt/",
    "id": "node/9440272702"
  },
  "geometry": {
    "type": "Point",
    "coordinates": [
      -8.5997576,
      40.0119355
    ]
  }
},
{
  "type": "Feature",
  "id": "node/9440272703",
  "properties": {
    "access": "yes",
    "addr:country": "PT",
    "authentication:membership_card": "yes",
    "authentication:none": "no",
    "capacity": "4",
    "construction:amenity": "charging_station",
    "fee": "yes",
    "motorcar": "yes",
    "name": "ALQ-00004/5 - Campera",
    "network": "Mobi.E",
    "opening_hours": "24/7",
    "operator": "Galp Power",
    "parking:fee": "no",
    "ref": "ALQ-00004;ALQ-00005",
    "socket:type2": "4",
    "socket:type2:current": "32",
    "socket:type2:output": "22kW",
    "socket:type2:voltage": "400",
    "website": "https://www.mobie.pt/",
    "id": "node/9440272703"
  },
  "geometry": {
    "type": "Point",
    "coordinates": [
      -8.9666314,
      39.0286346
    ]
  }
},
{
  "type": "Feature",
  "id": "node/9440272706",
  "properties": {
    "access": "yes",
    "addr:country": "PT",
    "authentication:membership_card": "yes",
    "authentication:none": "no",
    "capacity": "10",
    "construction:amenity": "charging_station",
    "fee": "yes",
    "motorcar": "yes",
    "name": "GMR-XXXXX/XX/XX/XX/XX",
    "network": "Mobi.E",
    "opening_hours": "24/7",
    "operator": "Mobi.E",
    "parking:fee": "no",
    "ref": "GMR-XXXXX;GMR-XXXXX;GMR-XXXXX;GMR-XXXXX;GMR-XXXXX",
    "socket:type2": "10",
    "socket:type2:current": "32",
    "socket:type2:output": "22kW",
    "socket:type2:voltage": "400",
    "website": "https://www.mobie.pt/",
    "id": "node/9440272706"
  },
  "geometry": {
    "type": "Point",
    "coordinates": [
      -8.2982283,
      41.4479914
    ]
  }
},
{
  "type": "Feature",
  "id": "node/9440272707",
  "properties": {
    "access": "yes",
    "addr:country": "PT",
    "authentication:membership_card": "yes",
    "authentication:none": "no",
    "capacity": "1",
    "construction:amenity": "charging_station",
    "fee": "yes",
    "motorcar": "yes",
    "name": "GMR-XXXXX",
    "network": "Mobi.E",
    "opening_hours": "24/7",
    "operator": "Mobi.E",
    "parking:fee": "no",
    "ref": "GMR-XXXXX",
    "socket:chademo": "1",
    "socket:chademo:current": "125",
    "socket:chademo:output": "50kW",
    "socket:chademo:voltage": "500",
    "socket:type2_combo": "1",
    "socket:type2_combo:current": "375",
    "socket:type2_combo:output": "150kW",
    "socket:type2_combo:voltage": "920",
    "website": "https://www.mobie.pt/",
    "id": "node/9440272707"
  },
  "geometry": {
    "type": "Point",
    "coordinates": [
      -8.2980928,
      41.4480961
    ]
  }
},
{
  "type": "Feature",
  "id": "node/9440272708",
  "properties": {
    "access": "yes",
    "addr:country": "PT",
    "authentication:membership_card": "yes",
    "authentication:none": "no",
    "capacity": "3",
    "construction:amenity": "charging_station",
    "fee": "yes",
    "motorcar": "yes",
    "name": "GMR-XXXXX/XX/XX",
    "network": "Mobi.E",
    "opening_hours": "24/7",
    "operator": "Mobi.E",
    "parking:fee": "no",
    "ref": "GMR-XXXXX;GMR-XXXXX;GMR-XXXXX",
    "socket:chademo": "3",
    "socket:chademo:current": "125",
    "socket:chademo:output": "50kW",
    "socket:chademo:voltage": "500",
    "socket:type2_combo": "3",
    "socket:type2_combo:current": "150",
    "socket:type2_combo:output": "60kW",
    "socket:type2_combo:voltage": "920",
    "website": "https://www.mobie.pt/",
    "id": "node/9440272708"
  },
  "geometry": {
    "type": "Point",
    "coordinates": [
      -8.2981465,
      41.4480468
    ]
  }
}
]
}
