{
  "version": 0.6,
  "generator": "Overpass API 0.7.57 93a4d346",
  "osm3s": {
    "copyright": "The data included in this document is from www.openstreetmap.org. The data is made available under ODbL."
  },
  "elements": [

{
  "type": "node",
  "id": 966120833,
  "lat": 38.7692823,
  "lon": -9.0940586,
  "tags": {
    "access": "yes",
    "addr:city": "Lisboa",
    "addr:country": "PT",
    "addr:postcode": "1990-231",
    "addr:street": "Rua do Bojador",
    "authentication:membership_card": "yes",
    "authentication:none": "no",
    "capacity": "2",
    "disused:amenity": "charging_station",
    "email": "mobilidade.electricacrc@galp.com",
    "fee": "yes",
    "motorcar": "yes",
    "name": "LSB-00034 - Altice Arena",
    "network": "Mobi.E",
    "opening_hours": "24/7",
    "operator": "Galp Power",
    "parking:fee": "no",
    "phone": "+351 800 249 249",
    "ref": "LSB-90034",
    "socket:type2": "2",
    "socket:type2:current": "32",
    "socket:type2:output": "22kW",
    "socket:type2:voltage": "400",
    "website": "https://www.mobie.pt"
  }
},
{
  "type": "node",
  "id": 966120976,
  "lat": 41.8048300,
  "lon": -6.7580000,
  "tags": {
    "access": "yes",
    "addr:city": "Bragança",
    "addr:country": "PT",
    "addr:postcode": "5300",
    "addr:street": "Jardim António José de Almeida",
    "authentication:membership_card": "yes",
    "authentication:none": "no",
    "capacity": "2",
    "disused:amenity": "charging_station",
    "email": "ajuda@powerdot.pt",
    "fee": "yes",
    "motorcar": "yes",
    "name": "BGC-00002",
    "network": "Mobi.E",
    "opening_hours": "24/7",
    "operator": "Powerdot",
    "parking:fee": "no",
    "phone": "+351 800 180 292",
    "ref": "BGC-90002",
    "socket:type2": "2",
    "socket:type2:current": "16",
    "socket:type2:output": "3.7kW",
    "socket:type2:voltage": "230",
    "website": "https://www.mobie.pt"
  }
},
{
  "type": "node",
  "id": 2084642560,
  "lat": 41.6947381,
  "lon": -8.8311839,
  "tags": {
    "access": "yes",
    "addr:country": "PT",
    "addr:street": "Avenida dos Combatentes da Grande Guerra",
    "authentication:membership_card": "yes",
    "authentication:none": "no",
    "capacity": "2",
    "disused:amenity": "charging_station",
    "email": "mobilidade.electricacrc@galp.com",
    "fee": "yes",
    "motorcar": "yes",
    "name": "VCT-00002",
    "network": "Mobi.E",
    "opening_hours": "24/7",
    "operator": "Galp Power",
    "parking:fee": "no",
    "phone": "+351 800 249 249",
    "ref": "VCT-90002",
    "socket:type2": "2",
    "socket:type2:current": "32",
    "socket:type2:output": "7.4kW",
    "socket:type2:voltage": "230",
    "website": "https://www.mobie.pt"
  }
},
{
  "type": "node",
  "id": 2731614731,
  "lat": 41.6431572,
  "lon": -8.7712526,
  "tags": {
    "access": "yes",
    "addr:country": "PT",
    "authentication:membership_card": "yes",
    "authentication:none": "no",
    "capacity": "2",
    "disused:amenity": "charging_station",
    "email": "apoio.cliente@kmlowcost.com",
    "fee": "yes",
    "motorcar": "yes",
    "name": "VCT-00007",
    "network": "Mobi.E",
    "opening_hours": "24/7",
    "operator": "KLC",
    "parking:fee": "no",
    "phone": "+351 800 296 929",
    "ref": "VCT-90007",
    "socket:type2": "2",
    "socket:type2:current": "16",
    "socket:type2:output": "3.7kW",
    "socket:type2:voltage": "230",
    "website": "https://www.mobie.pt"
  }
},
{
  "type": "node",
  "id": 3341794812,
  "lat": 41.0693332,
  "lon": -8.6561008,
  "tags": {
    "access": "yes",
    "addr:country": "PT",
    "authentication:membership_card": "yes",
    "authentication:none": "no",
    "capacity": "2",
    "disused:amenity": "charging_station",
    "email": "mobilidade-eletrica@edp.pt",
    "fee": "yes",
    "motorcar": "yes",
    "name": "VNG-00012",
    "network": "Mobi.E",
    "opening_hours": "24/7",
    "operator": "EDP Comercial",
    "parking:fee": "no",
    "phone": "+351 800 222 222",
    "ref": "VNG-00012",
    "socket:type2": "2",
    "socket:type2:current": "32",
    "socket:type2:output": "7.4kW",
    "socket:type2:voltage": "230",
    "website": "https://www.mobie.pt"
  }
},
{
  "type": "node",
  "id": 3575235106,
  "lat": 38.7011451,
  "lon": -9.3866320,
  "tags": {
    "access": "yes",
    "addr:country": "PT",
    "authentication:membership_card": "yes",
    "authentication:none": "no",
    "capacity": "2",
    "disused:amenity": "charging_station",
    "email": "mobilidade-eletrica@edp.pt",
    "fee": "yes",
    "motorcar": "yes",
    "name": "CSC-00005",
    "network": "Mobi.E",
    "opening_hours": "24/7",
    "operator": "EDP Comercial",
    "parking:fee": "no",
    "phone": "+351 800 222 222",
    "ref": "CSC-00005",
    "socket:type2": "2",
    "socket:type2:current": "16",
    "socket:type2:output": "11kW",
    "socket:type2:voltage": "400",
    "website": "https://www.mobie.pt"
  }
},
{
  "type": "node",
  "id": 3612876421,
  "lat": 41.4448216,
  "lon": -8.2915479,
  "tags": {
    "access": "yes",
    "addr:country": "PT",
    "authentication:membership_card": "yes",
    "authentication:none": "no",
    "capacity": "2",
    "disused:amenity": "charging_station",
    "email": "mobilidade.electricacrc@galp.com",
    "fee": "yes",
    "motorcar": "yes",
    "name": "GMR-00001",
    "network": "Mobi.E",
    "opening_hours": "24/7",
    "operator": "Galp Power",
    "parking:fee": "no",
    "phone": "+351 800 249 249",
    "ref": "GMR-00001",
    "socket:type2": "2",
    "socket:type2:current": "32",
    "socket:type2:output": "7.4kW",
    "socket:type2:voltage": "230",
    "website": "https://www.mobie.pt"
  }
},
{
  "type": "node",
  "id": 3703042039,
  "lat": 38.7339863,
  "lon": -9.1054622,
  "tags": {
    "access": "yes",
    "addr:city": "Lisboa",
    "addr:country": "PT",
    "addr:housenumber": "41",
    "addr:postcode": "1950-142 Beato",
    "addr:street": "Alameda do Beato",
    "authentication:membership_card": "yes",
    "authentication:none": "no",
    "capacity": "2",
    "disused:amenity": "charging_station",
    "email": "ajuda@powerdot.pt",
    "fee": "yes",
    "motorcar": "yes",
    "name": "LSB-00146",
    "network": "Mobi.E",
    "opening_hours": "24/7",
    "operator": "Powerdot",
    "parking:fee": "no",
    "phone": "+351 800 180 292",
    "ref": "LSB-90146",
    "socket:type2": "2",
    "socket:type2:current": "16",
    "socket:type2:output": "3.7kW",
    "socket:type2:voltage": "230",
    "website": "https://www.mobie.pt"
  }
},
{
  "type": "node",
  "id": 3703171660,
  "lat": 38.7458280,
  "lon": -9.1015777,
  "tags": {
    "access": "yes",
    "addr:city": "Lisboa",
    "addr:country": "PT",
    "addr:street": "Rua do Vale Formoso",
    "authentication:membership_card": "yes",
    "authentication:none": "no",
    "capacity": "2",
    "disused:amenity": "charging_station",
    "email": "mobilidade.electricacrc@galp.com",
    "fee": "yes",
    "motorcar": "yes",
    "name": "LSB-00149",
    "network": "Mobi.E",
    "opening_hours": "24/7",
    "operator": "Galp Power",
    "parking:fee": "no",
    "phone": "+351 800 249 249",
    "ref": "LSB-90149",
    "socket:type2": "2",
    "socket:type2:current": "16",
    "socket:type2:output": "3.7kW",
    "socket:type2:voltage": "230",
    "website": "https://www.mobie.pt"
  }
},
{
  "type": "node",
  "id": 3706318963,
  "lat": 38.7628680,
  "lon": -9.1048522,
  "tags": {
    "access": "yes",
    "addr:city": "Lisboa",
    "addr:country": "PT",
    "addr:housenumber": "9",
    "addr:postcode": "1800",
    "addr:street": "Avenida de Pádua",
    "authentication:membership_card": "yes",
    "authentication:none": "no",
    "capacity": "2",
    "disused:amenity": "charging_station",
    "email": "mobilidade.electricacrc@galp.com",
    "fee": "yes",
    "motorcar": "yes",
    "name": "LSB-00148",
    "network": "Mobi.E",
    "opening_hours": "24/7",
    "operator": "Galp Power",
    "parking:fee": "no",
    "phone": "+351 800 249 249",
    "ref": "LSB-90148",
    "socket:type2": "2",
    "socket:type2:current": "16",
    "socket:type2:output": "3.7kW",
    "socket:type2:voltage": "230",
    "website": "https://www.mobie.pt"
  }
},
{
  "type": "node",
  "id": 3724919265,
  "lat": 38.7410880,
  "lon": -9.1468283,
  "tags": {
    "access": "yes",
    "addr:city": "Lisboa",
    "addr:country": "PT",
    "addr:housenumber": "75",
    "addr:postcode": "1050-189",
    "addr:street": "Avenida da República",
    "authentication:membership_card": "yes",
    "authentication:none": "no",
    "capacity": "2",
    "disused:amenity": "charging_station",
    "email": "ajuda@powerdot.pt",
    "fee": "yes",
    "motorcar": "yes",
    "name": "LSB-00103",
    "network": "Mobi.E",
    "opening_hours": "24/7",
    "operator": "Powerdot",
    "parking:fee": "no",
    "phone": "+351 800 180 292",
    "ref": "LSB-90103",
    "socket:type2": "2",
    "socket:type2:current": "32",
    "socket:type2:output": "22kW",
    "socket:type2:voltage": "400",
    "website": "https://www.mobie.pt"
  }
},
{
  "type": "node",
  "id": 3930754460,
  "lat": 39.7397780,
  "lon": -8.8030895,
  "tags": {
    "access": "yes",
    "addr:city": "Leiria",
    "addr:country": "PT",
    "addr:street": "Avenida Nossa Senhora de Fátima",
    "authentication:membership_card": "yes",
    "authentication:none": "no",
    "capacity": "2",
    "disused:amenity": "charging_station",
    "email": "mobilidade-eletrica@edp.pt",
    "fee": "yes",
    "motorcar": "yes",
    "name": "LRA-00010",
    "network": "Mobi.E",
    "opening_hours": "24/7",
    "operator": "EDP Comercial",
    "parking:fee": "no",
    "phone": "+351 800 222 222",
    "ref": "LRA-00010",
    "socket:type2": "2",
    "socket:type2:current": "16",
    "socket:type2:output": "3.7kW",
    "socket:type2:voltage": "230",
    "website": "https://www.mobie.pt"
  }
},
{
  "type": "node",
  "id": 4241719655,
  "lat": 40.5158941,
  "lon": -8.0783937,
  "tags": {
    "access": "yes",
    "addr:country": "PT",
    "authentication:membership_card": "yes",
    "authentication:none": "no",
    "capacity": "2",
    "disused:amenity": "charging_station",
    "fee": "yes",
    "motorcar": "yes",
    "name": "TND-00001",
    "network": "Mobi.E",
    "opening_hours": "24/7",
    "operator": "Mobi.E",
    "parking:fee": "no",
    "ref": "TND-00001",
    "socket:type2": "2",
    "socket:type2:current": "16",
    "socket:type2:output": "3.7kW",
    "socket:type2:voltage": "230",
    "website": "https://www.mobie.pt"
  }
},
{
  "type": "node",
  "id": 4241719656,
  "lat": 40.5254292,
  "lon": -8.0680584,
  "tags": {
    "access": "yes",
    "addr:country": "PT",
    "authentication:membership_card": "yes",
    "authentication:none": "no",
    "capacity": "2",
    "disused:amenity": "charging_station",
    "fee": "yes",
    "motorcar": "yes",
    "name": "TND-00003",
    "network": "Mobi.E",
    "opening_hours": "24/7",
    "operator": "Mobi.E",
    "ref": "TND-00003",
    "socket:type2": "2",
    "socket:type2:current": "16",
    "socket:type2:output": "3.7kW",
    "socket:type2:voltage": "230",
    "website": "https://www.mobie.pt"
  }
},
{
  "type": "node",
  "id": 4285884096,
  "lat": 39.1361909,
  "lon": -9.3802133,
  "tags": {
    "access": "yes",
    "addr:city": "Silveira",
    "addr:country": "PT",
    "addr:postcode": "2560-042",
    "addr:street": "Avenida do Atlântico",
    "authentication:membership_card": "yes",
    "authentication:none": "no",
    "capacity": "2",
    "disused:amenity": "charging_station",
    "email": "mobilidade.electricacrc@galp.com",
    "fee": "yes",
    "motorcar": "yes",
    "name": "TVD-00006",
    "network": "Mobi.E",
    "opening_hours": "24/7",
    "operator": "Galp Power",
    "parking:fee": "no",
    "phone": "+351 800 249 249",
    "ref": "TVD-90006",
    "socket:type2": "2",
    "socket:type2:current": "32",
    "socket:type2:output": "7.4kW",
    "socket:type2:voltage": "230",
    "website": "https://www.mobie.pt"
  }
},
{
  "type": "node",
  "id": 4285884098,
  "lat": 39.4061490,
  "lon": -9.1328483,
  "tags": {
    "access": "yes",
    "addr:city": "Caldas da Rainha",
    "addr:country": "PT",
    "addr:housenumber": "9",
    "addr:postcode": "2500-140",
    "addr:street": "Rua Francisco Almeida Caiado",
    "authentication:membership_card": "yes",
    "authentication:none": "no",
    "capacity": "2",
    "disused:amenity": "charging_station",
    "email": "mobilidade.electricacrc@galp.com",
    "fee": "yes",
    "motorcar": "yes",
    "name": "CLD-00001",
    "network": "Mobi.E",
    "opening_hours": "24/7",
    "operator": "Galp Power",
    "parking:fee": "no",
    "phone": "+351 800 249 249",
    "ref": "CLD-00001",
    "socket:type2": "2",
    "socket:type2:current": "32",
    "socket:type2:output": "7.4kW",
    "socket:type2:voltage": "230",
    "website": "https://www.mobie.pt"
  }
},
{
  "type": "node",
  "id": 4479029544,
  "lat": 39.4066636,
  "lon": -9.1389587,
  "tags": {
    "access": "yes",
    "addr:country": "PT",
    "authentication:membership_card": "yes",
    "authentication:none": "no",
    "capacity": "2",
    "disused:amenity": "charging_station",
    "email": "ajuda@powerdot.pt",
    "fee": "yes",
    "motorcar": "yes",
    "name": "CLD-00002",
    "network": "Mobi.E",
    "opening_hours": "24/7",
    "operator": "Powerdot",
    "parking:fee": "no",
    "phone": "+351 800 180 292",
    "ref": "CLD-00002",
    "socket:type2": "2",
    "socket:type2:current": "32",
    "socket:type2:output": "7.4kW",
    "socket:type2:voltage": "230",
    "website": "https://www.mobie.pt"
  }
},
{
  "type": "node",
  "id": 5050852345,
  "lat": 41.7031948,
  "lon": -8.7119698,
  "tags": {
    "access": "yes",
    "addr:city": "Viana do Castelo",
    "addr:country": "PT",
    "authentication:membership_card": "yes",
    "authentication:none": "no",
    "capacity": "2",
    "disused:amenity": "charging_station",
    "email": "apoio.cliente@kmlowcost.com",
    "fee": "yes",
    "motorcar": "yes",
    "name": "VCT-00009",
    "network": "Mobi.E",
    "opening_hours": "24/7",
    "operator": "KLC",
    "parking:fee": "no",
    "phone": "+351 800 296 929",
    "ref": "VCT-90009",
    "socket:type2": "2",
    "socket:type2:current": "16",
    "socket:type2:output": "3.7kW",
    "socket:type2:voltage": "230",
    "website": "https://www.mobie.pt"
  }
},
{
  "type": "node",
  "id": 5349379982,
  "lat": 40.8351596,
  "lon": -8.4795222,
  "tags": {
    "access": "yes",
    "addr:country": "PT",
    "authentication:membership_card": "yes",
    "authentication:none": "no",
    "capacity": "2",
    "disused:amenity": "charging_station",
    "email": "electric@prioenergy.com",
    "fee": "yes",
    "motorcar": "yes",
    "name": "OAZ-00002",
    "network": "Mobi.E",
    "opening_hours": "24/7",
    "operator": "Prio.E",
    "parking:fee": "no",
    "phone": "+351 800 450 111",
    "ref": "OAZ-00002",
    "socket:type2": "2",
    "socket:type2:current": "32",
    "socket:type2:output": "22kW",
    "socket:type2:voltage": "400",
    "website": "https://www.mobie.pt"
  }
},
{
  "type": "node",
  "id": 5349380815,
  "lat": 40.8319797,
  "lon": -8.4852973,
  "tags": {
    "access": "yes",
    "addr:country": "PT",
    "authentication:membership_card": "yes",
    "authentication:none": "no",
    "capacity": "2",
    "disused:amenity": "charging_station",
    "email": "electric@prioenergy.com",
    "fee": "yes",
    "motorcar": "yes",
    "name": "OAZ-00001",
    "network": "Mobi.E",
    "opening_hours": "24/7",
    "operator": "Prio.E",
    "parking:fee": "no",
    "phone": "+351 800 450 111",
    "ref": "OAZ-00001",
    "socket:type2": "2",
    "socket:type2:current": "32",
    "socket:type2:output": "22kW",
    "socket:type2:voltage": "400",
    "website": "https://www.mobie.pt"
  }
},
{
  "type": "node",
  "id": 5377877445,
  "lat": 40.0150415,
  "lon": -8.6004505,
  "tags": {
    "access": "yes",
    "addr:country": "PT",
    "authentication:membership_card": "yes",
    "authentication:none": "no",
    "capacity": "2",
    "disused:amenity": "charging_station",
    "email": "mobilidade.electricacrc@galp.com",
    "fee": "yes",
    "motorcar": "yes",
    "name": "PBL-00002",
    "network": "Mobi.E",
    "opening_hours": "24/7",
    "operator": "Galp Geste",
    "parking:fee": "no",
    "phone": "+351 800 249 249",
    "ref": "PBL-00002",
    "socket:chademo": "1",
    "socket:chademo:current": "120",
    "socket:chademo:output": "50kW",
    "socket:chademo:voltage": "500",
    "socket:type2_cable": "1",
    "socket:type2_cable:current": "63",
    "socket:type2_cable:output": "43kW",
    "socket:type2_cable:voltage": "400",
    "socket:type2_combo": "1",
    "socket:type2_combo:current": "125",
    "socket:type2_combo:output": "50kW",
    "socket:type2_combo:voltage": "500",
    "website": "https://www.mobie.pt"
  }
},
{
  "type": "node",
  "id": 5389653561,
  "lat": 39.1222347,
  "lon": -8.9083822,
  "tags": {
    "access": "yes",
    "addr:country": "PT",
    "authentication:membership_card": "yes",
    "authentication:none": "no",
    "capacity": "2",
    "disused:amenity": "charging_station",
    "email": "mobilidade.electricacrc@galp.com",
    "fee": "yes",
    "motorcar": "yes",
    "name": "AZB-00001",
    "network": "Mobi.E",
    "opening_hours": "24/7",
    "operator": "Galp Geste",
    "parking:fee": "no",
    "phone": "+351 800 249 249",
    "ref": "AZB-00001",
    "socket:chademo": "1",
    "socket:chademo:current": "120",
    "socket:chademo:output": "50kW",
    "socket:chademo:voltage": "500",
    "socket:type2_cable": "1",
    "socket:type2_cable:current": "63",
    "socket:type2_cable:output": "43kW",
    "socket:type2_cable:voltage": "400",
    "socket:type2_combo": "1",
    "socket:type2_combo:current": "125",
    "socket:type2_combo:output": "50kW",
    "socket:type2_combo:voltage": "500",
    "website": "https://www.mobie.pt"
  }
},
{
  "type": "node",
  "id": 5398312785,
  "lat": 37.1485144,
  "lon": -8.7026607,
  "tags": {
    "access": "yes",
    "authentication:membership_card": "yes",
    "authentication:none": "no",
    "bicycle": "no",
    "capacity": "2",
    "disused:amenity": "charging_station",
    "email": "mobilidade.electricacrc@galp.com",
    "fee": "yes",
    "motorcar": "yes",
    "name": "LGS-00002 - Galp O>E",
    "network": "Mobi.E",
    "opening_hours": "24/7",
    "operator": "Galp Power",
    "parking:fee": "no",
    "phone": "+351 800 249 249",
    "ref": "LGS-00002",
    "socket:chademo": "1",
    "socket:chademo:current": "120",
    "socket:chademo:output": "50kW",
    "socket:chademo:voltage": "500",
    "socket:type2_cable": "1",
    "socket:type2_cable:current": "63",
    "socket:type2_cable:output": "43kW",
    "socket:type2_cable:voltage": "400",
    "socket:type2_combo": "1",
    "socket:type2_combo:current": "125",
    "socket:type2_combo:output": "50kW",
    "socket:type2_combo:voltage": "500",
    "website": "https://www.mobie.pt"
  }
},
{
  "type": "node",
  "id": 5398312786,
  "lat": 37.1488153,
  "lon": -8.7039529,
  "tags": {
    "access": "yes",
    "authentication:membership_card": "yes",
    "authentication:none": "no",
    "bicycle": "no",
    "capacity": "2",
    "disused:amenity": "charging_station",
    "email": "mobilidade.electricacrc@galp.com",
    "fee": "yes",
    "motorcar": "yes",
    "name": "LGS-00003 - Galp E>O",
    "network": "Mobi.E",
    "opening_hours": "24/7",
    "operator": "Galp Power",
    "parking:fee": "no",
    "phone": "+351 800 249 249",
    "ref": "LGS-00003",
    "socket:chademo": "1",
    "socket:chademo:current": "120",
    "socket:chademo:output": "50kW",
    "socket:chademo:voltage": "500",
    "socket:type2_cable": "1",
    "socket:type2_cable:current": "63",
    "socket:type2_cable:output": "43kW",
    "socket:type2_cable:voltage": "400",
    "socket:type2_combo": "1",
    "socket:type2_combo:current": "125",
    "socket:type2_combo:output": "50kW",
    "socket:type2_combo:voltage": "500",
    "website": "https://www.mobie.pt"
  }
},
{
  "type": "node",
  "id": 5951971807,
  "lat": 41.2089967,
  "lon": -8.3335702,
  "tags": {
    "access": "yes",
    "addr:country": "PT",
    "authentication:membership_card": "yes",
    "authentication:none": "no",
    "capacity": "2",
    "disused:amenity": "charging_station",
    "fee": "yes",
    "motorcar": "yes",
    "name": "PRD-00001",
    "network": "Mobi.E",
    "opening_hours": "24/7",
    "operator": "Mobi.E",
    "parking:fee": "no",
    "ref": "PRD-00001",
    "socket:type2": "2",
    "socket:type2:current": "32",
    "socket:type2:output": "22kW",
    "socket:type2:voltage": "400",
    "website": "https://www.mobie.pt"
  }
},
{
  "type": "node",
  "id": 6635281052,
  "lat": 40.6618846,
  "lon": -7.9137310,
  "tags": {
    "access": "yes",
    "addr:country": "PT",
    "authentication:membership_card": "yes",
    "authentication:none": "no",
    "capacity": "2",
    "disused:amenity": "charging_station",
    "email": "renewing.charging@mota-engil.pt",
    "fee": "yes",
    "level": "-1",
    "location": "underground",
    "motorcar": "yes",
    "name": "VIS-00056 - Fórum Viseu",
    "network": "Mobi.E",
    "opening_hours": "Mo-Su 09:00-23:00",
    "operator": "Mota Engil II",
    "parking:fee": "yes",
    "phone": "+351 800 020 940",
    "ref": "VIS-00056",
    "socket:type2": "2",
    "socket:type2:current": "32",
    "socket:type2:output": "22kW",
    "socket:type2:voltage": "400",
    "website": "https://www.mobie.pt"
  }
},
{
  "type": "node",
  "id": 6641791821,
  "lat": 40.6293570,
  "lon": -8.6541886,
  "tags": {
    "access": "yes",
    "addr:country": "PT",
    "authentication:membership_card": "yes",
    "authentication:none": "no",
    "capacity": "2",
    "disused:amenity": "charging_station",
    "email": "info@evce.pt",
    "fee": "yes",
    "motorcar": "yes",
    "name": "AVR-00008",
    "network": "Mobi.E",
    "opening_hours": "24/7",
    "operator": "EVCE",
    "parking:fee": "no",
    "phone": "+351 253 623 190",
    "ref": "AVR-00008",
    "socket:type2": "2",
    "socket:type2:current": "32",
    "socket:type2:output": "22kW",
    "socket:type2:voltage": "400",
    "website": "https://www.mobie.pt"
  }
},
{
  "type": "node",
  "id": 6905244952,
  "lat": 37.0255199,
  "lon": -7.9174592,
  "tags": {
    "access": "yes",
    "addr:city": "Faro",
    "addr:country": "PT",
    "addr:street": "Avenida Cidade de Hayward",
    "authentication:membership_card": "yes",
    "authentication:none": "no",
    "capacity": "2",
    "disused:amenity": "charging_station",
    "email": "mobilidade-eletrica@edp.pt",
    "fee": "yes",
    "motorcar": "yes",
    "name": "FAR-00021 - BP",
    "network": "Mobi.E",
    "opening_hours": "24/7",
    "operator": "EDP Comercial",
    "parking:fee": "no",
    "phone": "+351 800 222 222",
    "ref": "FAR-00021",
    "socket:chademo": "1",
    "socket:chademo:current": "120",
    "socket:chademo:output": "50kW",
    "socket:chademo:voltage": "500",
    "socket:type2_cable": "1",
    "socket:type2_cable:current": "63",
    "socket:type2_cable:output": "43kW",
    "socket:type2_cable:voltage": "400",
    "socket:type2_combo": "1",
    "socket:type2_combo:current": "125",
    "socket:type2_combo:output": "50kW",
    "socket:type2_combo:voltage": "500",
    "website": "https://www.mobie.pt"
  }
},
{
  "type": "node",
  "id": 6905683672,
  "lat": 37.0610184,
  "lon": -8.0308731,
  "tags": {
    "access": "yes",
    "addr:city": "Almancil",
    "addr:country": "PT",
    "addr:street": "Centro Comercial Buganvilia Plaza",
    "authentication:membership_card": "yes",
    "authentication:none": "no",
    "capacity": "2",
    "disused:amenity": "charging_station",
    "email": "geral@lcglobal.pt",
    "fee": "yes",
    "motorcar": "yes",
    "name": "LLE-00043 - Buganvilia Plaza",
    "network": "Mobi.E",
    "opening_hours": "24/7",
    "operator": "Loulé Concelho Global",
    "parking:fee": "no",
    "phone": "+351 800 200 289",
    "ref": "LLE-00043",
    "socket:chademo": "1",
    "socket:chademo:current": "120",
    "socket:chademo:output": "50kW",
    "socket:chademo:voltage": "500",
    "socket:type2": "1",
    "socket:type2:current": "32",
    "socket:type2:output": "22kW",
    "socket:type2:voltage": "400",
    "socket:type2_combo": "1",
    "socket:type2_combo:current": "125",
    "socket:type2_combo:output": "50kW",
    "socket:type2_combo:voltage": "500",
    "website": "https://www.mobie.pt"
  }
},
{
  "type": "node",
  "id": 7070428801,
  "lat": 37.0763132,
  "lon": -8.0951241,
  "tags": {
    "access": "yes",
    "addr:city": "Quarteira",
    "addr:country": "PT",
    "addr:postcode": "8125-406",
    "addr:street": "Av. de Ceuta",
    "authentication:membership_card": "yes",
    "authentication:none": "no",
    "capacity": "2",
    "disused:amenity": "charging_station",
    "email": "mobilidade-eletrica@edp.pt",
    "fee": "yes",
    "motorcar": "yes",
    "name": "LLE-00028 - BP",
    "network": "Mobi.E",
    "opening_hours": "24/7",
    "operator": "EDP Comercial",
    "parking:fee": "no",
    "phone": "+351 800 222 222",
    "ref": "LLE-00028",
    "socket:chademo": "1",
    "socket:chademo:current": "120",
    "socket:chademo:output": "50kW",
    "socket:chademo:voltage": "500",
    "socket:type2_cable": "1",
    "socket:type2_cable:current": "63",
    "socket:type2_cable:output": "43kW",
    "socket:type2_cable:voltage": "400",
    "socket:type2_combo": "1",
    "socket:type2_combo:current": "125",
    "socket:type2_combo:output": "50kW",
    "socket:type2_combo:voltage": "500",
    "website": "https://www.mobie.pt"
  }
},
{
  "type": "node",
  "id": 7127068946,
  "lat": 37.0841011,
  "lon": -8.0847815,
  "tags": {
    "access": "yes",
    "addr:city": "Quarteira",
    "addr:country": "PT",
    "addr:street": "Rua A, Vila Sol",
    "authentication:membership_card": "yes",
    "authentication:none": "no",
    "capacity": "2",
    "disused:amenity": "charging_station",
    "email": "suporte@evpower.pt",
    "fee": "yes",
    "motorcar": "yes",
    "name": "LLE-00011",
    "network": "Mobi.E",
    "opening_hours": "24/7",
    "operator": "EV Power",
    "parking:fee": "no",
    "phone": "+351 800 254 565",
    "ref": "LLE-00011",
    "socket:type2": "2",
    "socket:type2:current": "32",
    "socket:type2:output": "22kW",
    "socket:type2:voltage": "400",
    "website": "https://www.mobie.pt"
  }
},
{
  "type": "node",
  "id": 7131880291,
  "lat": 37.0520550,
  "lon": -8.0648956,
  "tags": {
    "access": "yes",
    "addr:city": "Vale de Lobo",
    "addr:country": "PT",
    "addr:street": "Avenida do Mar",
    "authentication:membership_card": "yes",
    "authentication:none": "no",
    "capacity": "2",
    "disused:amenity": "charging_station",
    "fee": "yes",
    "motorcar": "yes",
    "name": "LLE-00018",
    "network": "Mobi.E",
    "opening_hours": "24/7",
    "operator": "CME",
    "parking:fee": "no",
    "phone": "+351 800 916624",
    "ref": "LLE-00018",
    "socket:type2": "2",
    "socket:type2:current": "32",
    "socket:type2:output": "22kW",
    "socket:type2:voltage": "400",
    "website": "https://www.mobie.pt"
  }
},
{
  "type": "node",
  "id": 7131888831,
  "lat": 37.0491908,
  "lon": -8.0634284,
  "tags": {
    "access": "yes",
    "addr:city": "Vale de Lobo",
    "addr:country": "PT",
    "addr:street": "Estrada da Horta",
    "authentication:membership_card": "yes",
    "authentication:none": "no",
    "capacity": "2",
    "disused:amenity": "charging_station",
    "fee": "yes",
    "motorcar": "yes",
    "name": "LLE-00019",
    "network": "Mobi.E",
    "opening_hours": "24/7",
    "operator": "CME",
    "parking:fee": "no",
    "ref": "LLE-00019",
    "socket:type2": "2",
    "socket:type2:current": "32",
    "socket:type2:output": "22kW",
    "socket:type2:voltage": "400",
    "website": "https://www.mobie.pt"
  }
},
{
  "type": "node",
  "id": 7133188012,
  "lat": 37.1045970,
  "lon": -8.0761448,
  "tags": {
    "access": "yes",
    "addr:city": "Quarteira",
    "addr:country": "PT",
    "addr:street": "EN 125 Baceladas",
    "authentication:membership_card": "yes",
    "authentication:none": "no",
    "capacity": "2",
    "disused:amenity": "charging_station",
    "email": "geral@eplug.pt",
    "fee": "yes",
    "motorcar": "yes",
    "name": "LLE-00053 - Tibi",
    "network": "Mobi.E",
    "opening_hours": "24/7",
    "operator": "E-Plug",
    "parking:fee": "no",
    "phone": "+351 211 648 577",
    "ref": "LLE-00053",
    "socket:type2": "2",
    "socket:type2:current": "32",
    "socket:type2:output": "7.4kW",
    "socket:type2:voltage": "230",
    "website": "https://www.mobie.pt"
  }
},
{
  "type": "node",
  "id": 7137653607,
  "lat": 37.1416997,
  "lon": -8.5049307,
  "tags": {
    "access": "yes",
    "addr:city": "Parchal",
    "addr:country": "PT",
    "addr:street": "Parque Industrial do Pateiro",
    "authentication:membership_card": "yes",
    "authentication:none": "no",
    "capacity": "2",
    "disused:amenity": "charging_station",
    "email": "geral@eplug.pt",
    "fee": "yes",
    "motorcar": "yes",
    "name": "LGA-00014",
    "network": "Mobi.E",
    "opening_hours": "Mo-Sa 09:00-13:00,15:00-19:00",
    "operator": "E-Plug",
    "parking:fee": "no",
    "phone": "+351 211 648 577",
    "ref": "LGA-00014",
    "socket:type2": "2",
    "socket:type2:current": "32",
    "socket:type2:output": "22kW",
    "socket:type2:voltage": "400",
    "website": "https://www.mobie.pt"
  }
},
{
  "type": "node",
  "id": 7231661007,
  "lat": 38.7679850,
  "lon": -9.1092179,
  "tags": {
    "access": "yes",
    "addr:country": "PT",
    "authentication:membership_card": "yes",
    "authentication:none": "no",
    "capacity": "2",
    "disused:amenity": "charging_station",
    "email": "mobilidade.electricacrc@galp.com",
    "fee": "yes",
    "motorcar": "yes",
    "name": "LSB-00144",
    "network": "Mobi.E",
    "opening_hours": "24/7",
    "operator": "Galp Power",
    "parking:fee": "no",
    "phone": "+351 800 249 249",
    "ref": "LSB-90144",
    "socket:type2": "2",
    "socket:type2:current": "16",
    "socket:type2:output": "3.7kW",
    "socket:type2:voltage": "230",
    "website": "https://www.mobie.pt"
  }
},
{
  "type": "node",
  "id": 7593143797,
  "lat": 37.5250970,
  "lon": -8.7869305,
  "tags": {
    "access": "yes",
    "addr:city": "Zambujeira do Mar",
    "addr:country": "PT",
    "addr:street": "Beco do Elias",
    "authentication:membership_card": "yes",
    "authentication:none": "no",
    "capacity": "2",
    "disused:amenity": "charging_station",
    "email": "mobilidade.electricacrc@galp.com",
    "fee": "yes",
    "motorcar": "yes",
    "name": "ODM-00002",
    "network": "Mobi.E",
    "opening_hours": "24/7",
    "operator": "Galp Power",
    "parking:fee": "no",
    "phone": "+351 800 249 249",
    "ref": "ODM-00002",
    "socket:type2": "2",
    "socket:type2:current": "16",
    "socket:type2:output": "3.7kW",
    "socket:type2:voltage": "230",
    "website": "https://www.mobie.pt"
  }
},
{
  "type": "node",
  "id": 7636753920,
  "lat": 38.8227923,
  "lon": -9.0880609,
  "tags": {
    "access": "yes",
    "addr:city": "São João da Talha",
    "addr:country": "PT",
    "addr:street": "EN 10",
    "authentication:membership_card": "yes",
    "authentication:none": "no",
    "capacity": "2",
    "disused:amenity": "charging_station",
    "email": "mobilidade-eletrica@edp.pt",
    "fee": "yes",
    "motorcar": "yes",
    "name": "LRS-00044 - BP",
    "network": "Mobi.E",
    "opening_hours": "24/7",
    "operator": "EDP Comercial",
    "parking:fee": "no",
    "phone": "+351 800 222 222",
    "ref": "LRS-00044",
    "socket:chademo": "1",
    "socket:chademo:current": "120",
    "socket:chademo:output": "50kW",
    "socket:chademo:voltage": "500",
    "socket:type2_cable": "1",
    "socket:type2_cable:current": "63",
    "socket:type2_cable:output": "43kW",
    "socket:type2_cable:voltage": "400",
    "socket:type2_combo": "1",
    "socket:type2_combo:current": "125",
    "socket:type2_combo:output": "50kW",
    "socket:type2_combo:voltage": "500",
    "website": "https://www.mobie.pt"
  }
},
{
  "type": "node",
  "id": 7714934291,
  "lat": 37.8794348,
  "lon": -8.1636802,
  "tags": {
    "access": "yes",
    "addr:city": "Aljustrel",
    "addr:country": "PT",
    "authentication:membership_card": "yes",
    "authentication:none": "no",
    "capacity": "2",
    "disused:amenity": "charging_station",
    "email": "ajuda@powerdot.pt",
    "fee": "yes",
    "motorcar": "yes",
    "name": "AJT-00003",
    "network": "Mobi.E",
    "note": "Parking grátis durante 2h",
    "note:en": "Free parking for 2 hours",
    "opening_hours": "07:00-21:00",
    "operator": "Powerdot",
    "parking:fee": "yes",
    "phone": "+351 800 180 292",
    "ref": "AJT-00003",
    "socket:type2": "2",
    "socket:type2:current": "32",
    "socket:type2:output": "7.4kW",
    "socket:type2:voltage": "230",
    "website": "https://www.mobie.pt"
  }
},
{
  "type": "node",
  "id": 7744273361,
  "lat": 38.8462658,
  "lon": -7.5820812,
  "tags": {
    "access": "yes",
    "addr:city": "Estremoz",
    "addr:country": "PT",
    "authentication:membership_card": "yes",
    "authentication:none": "no",
    "capacity": "2",
    "disused:amenity": "charging_station",
    "email": "suporte@mobiletric.com",
    "fee": "yes",
    "motorcar": "yes",
    "name": "ETZ-00005",
    "network": "Mobi.E",
    "opening_hours": "24/7",
    "operator": "Mobiletric",
    "parking:fee": "no",
    "phone": "+351 800 210 204",
    "ref": "ETZ-00005",
    "socket:type2": "2",
    "socket:type2:current": "32",
    "socket:type2:output": "22kW",
    "socket:type2:voltage": "400",
    "website": "https://www.mobie.pt"
  }
},
{
  "type": "node",
  "id": 7773739672,
  "lat": 38.7513494,
  "lon": -8.9388746,
  "tags": {
    "access": "yes",
    "addr:country": "PT",
    "authentication:membership_card": "yes",
    "authentication:none": "no",
    "capacity": "2",
    "disused:amenity": "charging_station",
    "email": "apoio.cliente@kmlowcost.com",
    "fee": "yes",
    "motorcar": "yes",
    "name": "ACH-00004",
    "network": "Mobi.E",
    "opening_hours": "24/7",
    "operator": "KLC",
    "parking:fee": "no",
    "phone": "+351 800 296 929",
    "ref": "ACH-00004",
    "socket:type2": "2",
    "socket:type2:current": "32",
    "socket:type2:output": "22kW",
    "socket:type2:voltage": "400",
    "website": "https://www.mobie.pt"
  }
},
{
  "type": "node",
  "id": 7821005755,
  "lat": 41.3002589,
  "lon": -8.7061928,
  "tags": {
    "access": "yes",
    "addr:country": "PT",
    "addr:street": "Vila do Conde - Fashion Outlet",
    "authentication:membership_card": "yes",
    "authentication:none": "no",
    "capacity": "4",
    "disused:amenity": "charging_station",
    "email": "apoio.cliente@kmlowcost.com",
    "fee": "yes",
    "motorcar": "yes",
    "name": "VCD-00002/3",
    "network": "Mobi.E",
    "opening_hours": "24/7",
    "operator": "KLC",
    "parking:fee": "no",
    "phone": "+351 800 296 929",
    "ref": "VCD-00002:VCD-00003",
    "socket:type2": "4",
    "socket:type2:current": "32",
    "socket:type2:output": "22kW",
    "socket:type2:voltage": "400",
    "website": "https://www.mobie.pt"
  }
},
{
  "type": "node",
  "id": 8001331029,
  "lat": 38.6098946,
  "lon": -9.0986632,
  "tags": {
    "access": "yes",
    "addr:city": "Fogueteiro",
    "addr:country": "PT",
    "authentication:membership_card": "yes",
    "authentication:none": "no",
    "capacity": "2",
    "disused:amenity": "charging_station",
    "email": "mobilidade-eletrica@edp.pt",
    "fee": "yes",
    "motorcar": "yes",
    "name": "SXL-00002 - BP",
    "network": "Mobi.E",
    "opening_hours": "24/7",
    "operator": "EDP Comercial",
    "parking:fee": "no",
    "phone": "+351 800 222 222",
    "ref": "SXL-00002",
    "socket:chademo": "1",
    "socket:chademo:current": "120",
    "socket:chademo:output": "50kW",
    "socket:chademo:voltage": "500",
    "socket:type2_cable": "1",
    "socket:type2_cable:current": "63",
    "socket:type2_cable:output": "43kW",
    "socket:type2_cable:voltage": "400",
    "socket:type2_combo": "1",
    "socket:type2_combo:current": "125",
    "socket:type2_combo:output": "50kW",
    "socket:type2_combo:voltage": "500",
    "website": "https://www.mobie.pt"
  }
},
{
  "type": "node",
  "id": 8009744517,
  "lat": 38.7867878,
  "lon": -9.2962669,
  "tags": {
    "access": "yes",
    "addr:city": "Mira Sintra",
    "addr:country": "PT",
    "addr:street": "Área de Serviço A16",
    "authentication:membership_card": "yes",
    "authentication:none": "no",
    "capacity": "1",
    "disused:amenity": "charging_station",
    "email": "electric@prioenergy.com",
    "fee": "yes",
    "motorcar": "yes",
    "name": "SNT-00033 - Shell E>O",
    "network": "Mobi.E",
    "opening_hours": "24/7",
    "operator": "Prio.E",
    "parking:fee": "no",
    "phone": "+351 800 450 111",
    "ref": "SNT-00033",
    "socket:chademo": "1",
    "socket:chademo:current": "120",
    "socket:chademo:output": "50kW",
    "socket:chademo:voltage": "500",
    "socket:type2_combo": "1",
    "socket:type2_combo:current": "125",
    "socket:type2_combo:output": "50kW",
    "socket:type2_combo:voltage": "500",
    "website": "https://www.mobie.pt"
  }
},
{
  "type": "node",
  "id": 8014347881,
  "lat": 38.7641175,
  "lon": -9.0965952,
  "tags": {
    "access": "yes",
    "addr:city": "Lisboa",
    "addr:country": "PT",
    "addr:street": "Rua do Mar do Norte",
    "authentication:membership_card": "yes",
    "authentication:none": "no",
    "capacity": "1",
    "disused:amenity": "charging_station",
    "email": "suporte@mobiletric.com",
    "fee": "yes",
    "motorcar": "yes",
    "name": "LSB-00206",
    "network": "Mobi.E",
    "opening_hours": "24/7",
    "operator": "Mobiletric",
    "parking:fee": "no",
    "phone": "+351 800 210 204",
    "ref": "LSB-00206",
    "socket:chademo": "1",
    "socket:chademo:current": "120",
    "socket:chademo:output": "50kW",
    "socket:chademo:voltage": "500",
    "socket:type2_combo": "1",
    "socket:type2_combo:current": "125",
    "socket:type2_combo:output": "50kW",
    "socket:type2_combo:voltage": "500",
    "website": "https://www.mobie.pt"
  }
},
{
  "type": "node",
  "id": 8017129726,
  "lat": 38.9195426,
  "lon": -9.2303368,
  "tags": {
    "access": "yes",
    "addr:city": "Venda do Pinheiro",
    "addr:country": "PT",
    "addr:street": "Avenida 9 de Julho",
    "authentication:membership_card": "yes",
    "authentication:none": "no",
    "capacity": "2",
    "disused:amenity": "charging_station",
    "email": "mobilidade-eletrica@edp.pt",
    "fee": "yes",
    "motorcar": "yes",
    "name": "MFR-00008 - BP",
    "network": "Mobi.E",
    "opening_hours": "24/7",
    "operator": "EDP Comercial",
    "parking:fee": "no",
    "phone": "+351 800 222 222",
    "ref": "MFR-00008",
    "socket:chademo": "1",
    "socket:chademo:current": "120",
    "socket:chademo:output": "50kW",
    "socket:chademo:voltage": "500",
    "socket:type2_cable": "1",
    "socket:type2_cable:current": "63",
    "socket:type2_cable:output": "43kW",
    "socket:type2_cable:voltage": "400",
    "socket:type2_combo": "1",
    "socket:type2_combo:current": "125",
    "socket:type2_combo:output": "50kW",
    "socket:type2_combo:voltage": "500",
    "website": "https://www.mobie.pt"
  }
},
{
  "type": "node",
  "id": 8017374244,
  "lat": 39.3919046,
  "lon": -8.6373460,
  "tags": {
    "access": "yes",
    "addr:country": "PT",
    "addr:street": "Área de Serviço de Santarém",
    "authentication:membership_card": "yes",
    "authentication:none": "no",
    "capacity": "2",
    "disused:amenity": "charging_station",
    "email": "apoio.cliente@kmlowcost.com",
    "fee": "yes",
    "motorcar": "yes",
    "name": "STR-00012",
    "network": "Mobi.E",
    "opening_hours": "24/7",
    "operator": "KLC",
    "parking:fee": "no",
    "phone": "+351 800 296 929",
    "ref": "STR-00012",
    "socket:chademo": "1",
    "socket:chademo:current": "120",
    "socket:chademo:output": "50kW",
    "socket:chademo:voltage": "500",
    "socket:type2_cable": "1",
    "socket:type2_cable:current": "63",
    "socket:type2_cable:output": "43kW",
    "socket:type2_cable:voltage": "400",
    "socket:type2_combo": "1",
    "socket:type2_combo:current": "125",
    "socket:type2_combo:output": "50kW",
    "socket:type2_combo:voltage": "500",
    "website": "https://www.mobie.pt"
  }
},
{
  "type": "node",
  "id": 8017374245,
  "lat": 39.3936748,
  "lon": -8.6409992,
  "tags": {
    "access": "yes",
    "addr:country": "PT",
    "addr:street": "Área de Serviço de Santarém",
    "authentication:membership_card": "yes",
    "authentication:none": "no",
    "capacity": "2",
    "disused:amenity": "charging_station",
    "email": "apoio.cliente@kmlowcost.com",
    "fee": "yes",
    "motorcar": "yes",
    "name": "STR-00011",
    "network": "Mobi.E",
    "opening_hours": "24/7",
    "operator": "KLC",
    "parking:fee": "no",
    "phone": "+351 800 296 929",
    "ref": "STR-00011",
    "socket:chademo": "1",
    "socket:chademo:current": "120",
    "socket:chademo:output": "50kW",
    "socket:chademo:voltage": "500",
    "socket:type2_cable": "1",
    "socket:type2_cable:current": "63",
    "socket:type2_cable:output": "43kW",
    "socket:type2_cable:voltage": "400",
    "socket:type2_combo": "1",
    "socket:type2_combo:current": "125",
    "socket:type2_combo:output": "50kW",
    "socket:type2_combo:voltage": "500",
    "website": "https://www.mobie.pt"
  }
},
{
  "type": "node",
  "id": 8040874900,
  "lat": 39.4607118,
  "lon": -8.4933785,
  "tags": {
    "access": "yes",
    "addr:city": "Entroncamento",
    "addr:country": "PT",
    "authentication:membership_card": "yes",
    "authentication:none": "no",
    "capacity": "2",
    "disused:amenity": "charging_station",
    "email": "mobilidade-eletrica@edp.pt",
    "fee": "yes",
    "motorcar": "yes",
    "name": "ENT-00002 - BP",
    "network": "Mobi.E",
    "opening_hours": "24/7",
    "operator": "EDP Comercial",
    "parking:fee": "no",
    "phone": "+351 800 222 222",
    "ref": "ENT-00002",
    "socket:chademo": "1",
    "socket:chademo:current": "120",
    "socket:chademo:output": "50kW",
    "socket:chademo:voltage": "500",
    "socket:type2_cable": "1",
    "socket:type2_cable:current": "63",
    "socket:type2_cable:output": "43kW",
    "socket:type2_cable:voltage": "400",
    "socket:type2_combo": "1",
    "socket:type2_combo:current": "125",
    "socket:type2_combo:output": "50kW",
    "socket:type2_combo:voltage": "500",
    "website": "https://www.mobie.pt"
  }
},
{
  "type": "node",
  "id": 8072522374,
  "lat": 40.6259408,
  "lon": -7.4023481,
  "tags": {
    "access": "yes",
    "addr:city": "Celorico da Beira",
    "addr:country": "PT",
    "authentication:membership_card": "yes",
    "authentication:none": "no",
    "capacity": "1",
    "disused:amenity": "charging_station",
    "email": "apoio.cliente@kmlowcost.com",
    "fee": "yes",
    "motorcar": "yes",
    "name": "CLB-00007 - Muito Menos",
    "network": "Mobi.E",
    "opening_hours": "24/7",
    "operator": "KLC",
    "parking:fee": "no",
    "phone": "+351 800 296 929",
    "ref": "CLB-00007",
    "socket:chademo": "1",
    "socket:chademo:current": "120",
    "socket:chademo:output": "50kW",
    "socket:chademo:voltage": "500",
    "socket:type2_combo": "1",
    "socket:type2_combo:current": "125",
    "socket:type2_combo:output": "50kW",
    "socket:type2_combo:voltage": "500",
    "website": "https://www.mobie.pt"
  }
},
{
  "type": "node",
  "id": 8072590689,
  "lat": 40.8913067,
  "lon": -8.6156528,
  "tags": {
    "access": "yes",
    "addr:city": "Ovar",
    "addr:country": "PT",
    "addr:street": "Rua da Pardala",
    "authentication:membership_card": "yes",
    "authentication:none": "no",
    "capacity": "2",
    "disused:amenity": "charging_station",
    "email": "mobilidade-eletrica@edp.pt",
    "fee": "yes",
    "motorcar": "yes",
    "name": "OVR-00005",
    "network": "Mobi.E",
    "not:operator:wikidata": "Q1341222",
    "opening_hours": "24/7",
    "operator": "EDP Comercial",
    "parking:fee": "no",
    "phone": "+351 800 222 222",
    "ref": "OVR-00005",
    "socket:chademo": "1",
    "socket:chademo:current": "120",
    "socket:chademo:output": "50kW",
    "socket:chademo:voltage": "500",
    "socket:type2_cable": "1",
    "socket:type2_cable:current": "63",
    "socket:type2_cable:output": "43kW",
    "socket:type2_cable:voltage": "400",
    "socket:type2_combo": "1",
    "socket:type2_combo:current": "125",
    "socket:type2_combo:output": "50kW",
    "socket:type2_combo:voltage": "500",
    "website": "https://www.mobie.pt"
  }
},
{
  "type": "node",
  "id": 8076005286,
  "lat": 41.1501485,
  "lon": -8.5993351,
  "tags": {
    "access": "yes",
    "addr:city": "Porto",
    "addr:country": "PT",
    "addr:street": "Campo 24 de Agosto",
    "authentication:membership_card": "yes",
    "authentication:none": "no",
    "capacity": "1",
    "disused:amenity": "charging_station",
    "email": "info@evce.pt",
    "fee": "yes",
    "location": "underground",
    "motorcar": "yes",
    "name": "PRT-00030",
    "network": "Mobi.E",
    "opening_hours": "24/7",
    "operator": "EVCE",
    "parking:fee": "yes",
    "phone": "+351 253 623 190",
    "ref": "PRT-00030",
    "socket:chademo": "1",
    "socket:chademo:current": "120",
    "socket:chademo:output": "50kW",
    "socket:chademo:voltage": "500",
    "socket:type2_combo": "1",
    "socket:type2_combo:current": "125",
    "socket:type2_combo:output": "50kW",
    "socket:type2_combo:voltage": "500",
    "website": "https://www.mobie.pt"
  }
},
{
  "type": "node",
  "id": 8076135982,
  "lat": 41.1861605,
  "lon": -8.6242446,
  "tags": {
    "access": "yes",
    "addr:city": "Matosinhos",
    "addr:country": "PT",
    "addr:street": "Via Norte",
    "authentication:membership_card": "yes",
    "authentication:none": "no",
    "capacity": "2",
    "disused:amenity": "charging_station",
    "email": "mobilidade-eletrica@edp.pt",
    "fee": "yes",
    "motorcar": "yes",
    "name": "MTS-00011 - BP",
    "network": "Mobi.E",
    "opening_hours": "24/7",
    "operator": "EDP Comercial",
    "parking:fee": "no",
    "phone": "+351 800 222 222",
    "ref": "MTS-00011",
    "socket:chademo": "1",
    "socket:chademo:current": "120",
    "socket:chademo:output": "50kW",
    "socket:chademo:voltage": "500",
    "socket:type2_cable": "1",
    "socket:type2_cable:current": "63",
    "socket:type2_cable:output": "43kW",
    "socket:type2_cable:voltage": "400",
    "socket:type2_combo": "1",
    "socket:type2_combo:current": "125",
    "socket:type2_combo:output": "50kW",
    "socket:type2_combo:voltage": "500",
    "website": "https://www.mobie.pt"
  }
},
{
  "type": "node",
  "id": 8079176899,
  "lat": 41.3963094,
  "lon": -8.3193420,
  "tags": {
    "access": "yes",
    "addr:city": "Vizela",
    "addr:country": "PT",
    "addr:street": "EN 106",
    "authentication:membership_card": "yes",
    "authentication:none": "no",
    "capacity": "2",
    "disused:amenity": "charging_station",
    "email": "mobilidade-eletrica@edp.pt",
    "fee": "yes",
    "motorcar": "yes",
    "name": "VIZ-00002 - BP",
    "network": "Mobi.E",
    "opening_hours": "24/7",
    "operator": "EDP Comercial",
    "parking:fee": "no",
    "phone": "+351 800 222 222",
    "ref": "VIZ-00002",
    "socket:chademo": "1",
    "socket:chademo:current": "120",
    "socket:chademo:output": "50kW",
    "socket:chademo:voltage": "500",
    "socket:type2_cable": "1",
    "socket:type2_cable:current": "63",
    "socket:type2_cable:output": "43kW",
    "socket:type2_cable:voltage": "400",
    "socket:type2_combo": "1",
    "socket:type2_combo:current": "125",
    "socket:type2_combo:output": "50kW",
    "socket:type2_combo:voltage": "500",
    "website": "https://www.mobie.pt"
  }
},
{
  "type": "node",
  "id": 8082074290,
  "lat": 36.9656150,
  "lon": -25.1330884,
  "tags": {
    "access": "yes",
    "addr:city": "Vila do Porto",
    "addr:country": "PT",
    "addr:street": "Pedras de São Pedro",
    "authentication:membership_card": "yes",
    "authentication:none": "no",
    "capacity": "2",
    "disused:amenity": "charging_station",
    "email": "suporte@mobiletric.com",
    "fee": "yes",
    "motorcar": "yes",
    "name": "VPT-00001",
    "network": "Mobi.E",
    "opening_hours": "24/7",
    "operator": "Mobiletric",
    "parking:fee": "no",
    "phone": "+351 800 210 204",
    "ref": "VPT-00001",
    "socket:chademo": "1",
    "socket:chademo:current": "120",
    "socket:chademo:output": "50kW",
    "socket:chademo:voltage": "500",
    "socket:type2_cable": "1",
    "socket:type2_cable:current": "63",
    "socket:type2_cable:output": "43kW",
    "socket:type2_cable:voltage": "400",
    "socket:type2_combo": "1",
    "socket:type2_combo:current": "125",
    "socket:type2_combo:output": "50kW",
    "socket:type2_combo:voltage": "500",
    "website": "https://www.mobie.pt"
  }
},
{
  "type": "node",
  "id": 8082136160,
  "lat": 38.6864080,
  "lon": -28.2019271,
  "tags": {
    "access": "yes",
    "addr:city": "Velas",
    "addr:country": "PT",
    "authentication:membership_card": "yes",
    "authentication:none": "no",
    "capacity": "2",
    "disused:amenity": "charging_station",
    "email": "suporte@mobiletric.com",
    "fee": "yes",
    "motorcar": "yes",
    "name": "VLS-00001 - Parque Industrial da Queimada",
    "network": "Mobi.E",
    "opening_hours": "24/7",
    "operator": "Mobiletric",
    "parking:fee": "no",
    "phone": "+351 800 210 204",
    "ref": "VLS-00001",
    "socket:chademo": "1",
    "socket:chademo:current": "120",
    "socket:chademo:output": "50kW",
    "socket:chademo:voltage": "500",
    "socket:type2_cable": "1",
    "socket:type2_cable:current": "63",
    "socket:type2_cable:output": "43kW",
    "socket:type2_cable:voltage": "400",
    "socket:type2_combo": "1",
    "socket:type2_combo:current": "125",
    "socket:type2_combo:output": "50kW",
    "socket:type2_combo:voltage": "500",
    "website": "https://www.mobie.pt"
  }
},
{
  "type": "node",
  "id": 8089417532,
  "lat": 38.7227753,
  "lon": -9.2471261,
  "tags": {
    "access": "yes",
    "addr:country": "PT",
    "authentication:membership_card": "yes",
    "authentication:none": "no",
    "capacity": "2",
    "disused:amenity": "charging_station",
    "email": "suporte@evpower.pt",
    "fee": "yes",
    "motorcar": "yes",
    "name": "OER-00014 - Traseiras da Rainbow",
    "network": "Mobi.E",
    "opening_hours": "24/7",
    "operator": "EV Power",
    "parking:fee": "no",
    "phone": "+351 800 254 565",
    "ref": "OER-00014",
    "socket:type2": "2",
    "socket:type2:current": "32",
    "socket:type2:output": "22kW",
    "socket:type2:voltage": "400",
    "website": "https://www.mobie.pt"
  }
},
{
  "type": "node",
  "id": 8104957863,
  "lat": 38.7111611,
  "lon": -9.2136645,
  "tags": {
    "access": "yes",
    "addr:country": "PT",
    "authentication:membership_card": "yes",
    "authentication:none": "no",
    "capacity": "2",
    "disused:amenity": "charging_station",
    "email": "mobilidade.electricacrc@galp.com",
    "fee": "yes",
    "motorcar": "yes",
    "name": "LSB-00004",
    "network": "Mobi.E",
    "opening_hours": "24/7",
    "operator": "Galp Power",
    "parking:fee": "no",
    "phone": "+351 800 249 249",
    "ref": "LSB-90004",
    "socket:type2": "2",
    "socket:type2:current": "32",
    "socket:type2:output": "22kW",
    "socket:type2:voltage": "400",
    "website": "https://www.mobie.pt"
  }
},
{
  "type": "node",
  "id": 8105044844,
  "lat": 38.7273986,
  "lon": -9.1633190,
  "tags": {
    "access": "yes",
    "addr:country": "PT",
    "authentication:membership_card": "yes",
    "authentication:none": "no",
    "capacity": "2",
    "disused:amenity": "charging_station",
    "email": "mobilidade.electricacrc@galp.com",
    "fee": "yes",
    "motorcar": "yes",
    "name": "LSB-00073",
    "network": "Mobi.E",
    "opening_hours": "24/7",
    "operator": "Galp Power",
    "parking:fee": "no",
    "phone": "+351 800 249 249",
    "ref": "LSB-90073",
    "socket:type2": "2",
    "socket:type2:current": "32",
    "socket:type2:output": "22kW",
    "socket:type2:voltage": "400",
    "website": "https://www.mobie.pt"
  }
},
{
  "type": "node",
  "id": 8109599994,
  "lat": 39.6567474,
  "lon": -8.8259123,
  "tags": {
    "access": "yes",
    "addr:country": "PT",
    "authentication:membership_card": "yes",
    "authentication:none": "no",
    "capacity": "2",
    "disused:amenity": "charging_station",
    "email": "info@evce.pt",
    "fee": "yes",
    "motorcar": "yes",
    "name": "BTL-00002",
    "network": "Mobi.E",
    "opening_hours": "24/7",
    "operator": "EVCE",
    "parking:fee": "no",
    "phone": "+351 253 623 190",
    "ref": "BTL-00002",
    "socket:type2": "2",
    "socket:type2:current": "32",
    "socket:type2:output": "22kW",
    "socket:type2:voltage": "400",
    "website": "https://www.mobie.pt"
  }
},
{
  "type": "node",
  "id": 8109685921,
  "lat": 40.1970338,
  "lon": -8.4450893,
  "tags": {
    "access": "yes",
    "addr:country": "PT",
    "authentication:membership_card": "yes",
    "authentication:none": "no",
    "capacity": "2",
    "disused:amenity": "charging_station",
    "email": "mobilidade-eletrica@edp.pt",
    "fee": "yes",
    "motorcar": "yes",
    "name": "CBR-00038 - Intermarché",
    "network": "Mobi.E",
    "opening_hours": "24/7",
    "operator": "EDP Comercial",
    "parking:fee": "no",
    "phone": "+351 800 222 222",
    "ref": "CBR-00038",
    "socket:type2": "2",
    "socket:type2:current": "32",
    "socket:type2:output": "22kW",
    "socket:type2:voltage": "400",
    "website": "https://www.mobie.pt"
  }
},
{
  "type": "node",
  "id": 8109687608,
  "lat": 40.3600112,
  "lon": -8.0276524,
  "tags": {
    "access": "yes",
    "addr:country": "PT",
    "authentication:membership_card": "yes",
    "authentication:none": "no",
    "capacity": "2",
    "disused:amenity": "charging_station",
    "email": "mobilidade.electricacrc@galp.com",
    "fee": "yes",
    "motorcar": "yes",
    "name": "TBU-00001",
    "network": "Mobi.E",
    "opening_hours": "24/7",
    "operator": "Galp Power",
    "parking:fee": "no",
    "phone": "+351 800 249 249",
    "ref": "TBU-00001",
    "socket:type2": "2",
    "socket:type2:current": "32",
    "socket:type2:output": "22kW",
    "socket:type2:voltage": "400",
    "website": "https://www.mobie.pt"
  }
},
{
  "type": "node",
  "id": 8112609044,
  "lat": 40.6225213,
  "lon": -8.6585107,
  "tags": {
    "access": "yes",
    "addr:country": "PT",
    "authentication:membership_card": "yes",
    "authentication:none": "no",
    "capacity": "2",
    "disused:amenity": "charging_station",
    "email": "info@evce.pt",
    "fee": "yes",
    "motorcar": "yes",
    "name": "AVR-00009",
    "network": "Mobi.E",
    "opening_hours": "24/7",
    "operator": "EVCE",
    "parking:fee": "no",
    "phone": "+351 253 623 190",
    "ref": "AVR-00009",
    "socket:type2": "2",
    "socket:type2:current": "32",
    "socket:type2:output": "22kW",
    "socket:type2:voltage": "400",
    "website": "https://www.mobie.pt"
  }
},
{
  "type": "node",
  "id": 8112609048,
  "lat": 40.5737006,
  "lon": -8.4439866,
  "tags": {
    "access": "yes",
    "addr:country": "PT",
    "authentication:membership_card": "yes",
    "authentication:none": "no",
    "capacity": "2",
    "disused:amenity": "charging_station",
    "email": "info@evce.pt",
    "fee": "yes",
    "motorcar": "yes",
    "name": "AGD-00002",
    "network": "Mobi.E",
    "opening_hours": "24/7",
    "operator": "EVCE",
    "parking:fee": "no",
    "phone": "+351 253 623 190",
    "ref": "AGD-00002",
    "socket:type2": "2",
    "socket:type2:current": "32",
    "socket:type2:output": "22kW",
    "socket:type2:voltage": "400",
    "website": "https://www.mobie.pt"
  }
},
{
  "type": "node",
  "id": 8112779814,
  "lat": 40.8619920,
  "lon": -8.4759562,
  "tags": {
    "access": "yes",
    "addr:country": "PT",
    "authentication:membership_card": "yes",
    "authentication:none": "no",
    "capacity": "2",
    "disused:amenity": "charging_station",
    "email": "info@evce.pt",
    "fee": "yes",
    "motorcar": "yes",
    "name": "OAZ-00003 - Escola Superior Aveiro Norte",
    "network": "Mobi.E",
    "opening_hours": "24/7",
    "operator": "EVCE",
    "parking:fee": "no",
    "phone": "+351 253 623 190",
    "ref": "OAZ-00003",
    "socket:type2": "2",
    "socket:type2:current": "32",
    "socket:type2:output": "22kW",
    "socket:type2:voltage": "400",
    "website": "https://www.mobie.pt"
  }
},
{
  "type": "node",
  "id": 8112945350,
  "lat": 41.0965607,
  "lon": -7.8075041,
  "tags": {
    "access": "yes",
    "addr:country": "PT",
    "authentication:membership_card": "yes",
    "authentication:none": "no",
    "capacity": "2",
    "disused:amenity": "charging_station",
    "email": "ajuda@powerdot.pt",
    "fee": "yes",
    "motorcar": "yes",
    "name": "LMG-00003",
    "network": "Mobi.E",
    "opening_hours": "24/7",
    "operator": "Powerdot",
    "parking:fee": "no",
    "phone": "+351 800 180 292",
    "ref": "LMG-00003",
    "socket:type2": "2",
    "socket:type2:current": "32",
    "socket:type2:output": "22kW",
    "socket:type2:voltage": "400",
    "website": "https://www.mobie.pt"
  }
},
{
  "type": "node",
  "id": 8113054723,
  "lat": 41.2714133,
  "lon": -8.0749311,
  "tags": {
    "access": "yes",
    "addr:country": "PT",
    "authentication:membership_card": "yes",
    "authentication:none": "no",
    "capacity": "4",
    "disused:amenity": "charging_station",
    "email": "apoio.cliente@kmlowcost.com",
    "fee": "yes",
    "motorcar": "yes",
    "name": "AMT-00003/4",
    "network": "Mobi.E",
    "opening_hours": "24/7",
    "operator": "KLC",
    "parking:fee": "no",
    "phone": "+351 800 296 929",
    "ref": "AMT-00003;AMT-00004",
    "socket:type2": "4",
    "socket:type2:current": "32",
    "socket:type2:output": "22kW",
    "socket:type2:voltage": "400",
    "website": "https://www.mobie.pt"
  }
},
{
  "type": "node",
  "id": 8113054724,
  "lat": 41.2676013,
  "lon": -8.0789222,
  "tags": {
    "access": "yes",
    "addr:country": "PT",
    "authentication:membership_card": "yes",
    "authentication:none": "no",
    "capacity": "2",
    "disused:amenity": "charging_station",
    "email": "apoio.cliente@kmlowcost.com",
    "fee": "yes",
    "motorcar": "yes",
    "name": "AMT-00001",
    "network": "Mobi.E",
    "opening_hours": "24/7",
    "operator": "KLC",
    "parking:fee": "no",
    "phone": "+351 800 296 929",
    "ref": "AMT-00001",
    "socket:type2": "2",
    "socket:type2:current": "32",
    "socket:type2:output": "22kW",
    "socket:type2:voltage": "400",
    "website": "https://www.mobie.pt"
  }
},
{
  "type": "node",
  "id": 8113069557,
  "lat": 41.3377908,
  "lon": -8.4771001,
  "tags": {
    "access": "yes",
    "addr:country": "PT",
    "authentication:membership_card": "yes",
    "authentication:none": "no",
    "capacity": "2",
    "disused:amenity": "charging_station",
    "email": "ajuda@powerdot.pt",
    "fee": "yes",
    "motorcar": "yes",
    "name": "STS-00001",
    "network": "Mobi.E",
    "opening_hours": "24/7",
    "operator": "Powerdot",
    "parking:fee": "no",
    "phone": "+351 800 180 292",
    "ref": "STS-00001",
    "socket:type2": "2",
    "socket:type2:current": "32",
    "socket:type2:output": "22kW",
    "socket:type2:voltage": "400",
    "website": "https://www.mobie.pt"
  }
},
{
  "type": "node",
  "id": 8113094741,
  "lat": 41.5495777,
  "lon": -8.4192516,
  "tags": {
    "access": "yes",
    "addr:country": "PT",
    "authentication:membership_card": "yes",
    "authentication:none": "no",
    "capacity": "2",
    "disused:amenity": "charging_station",
    "email": "info@evce.pt",
    "fee": "yes",
    "location": "underground",
    "motorcar": "yes",
    "name": "BRG-00021 - Parque Visconde do Raio",
    "network": "Mobi.E",
    "opening_hours": "24/7",
    "operator": "EVCE",
    "parking:fee": "yes",
    "phone": "+351 253 623 190",
    "ref": "BRG-00021",
    "socket:type2": "2",
    "socket:type2:current": "32",
    "socket:type2:output": "7.4kW",
    "socket:type2:voltage": "230",
    "website": "https://www.mobie.pt"
  }
},
{
  "type": "node",
  "id": 8113094742,
  "lat": 41.5495968,
  "lon": -8.4192677,
  "tags": {
    "access": "yes",
    "addr:country": "PT",
    "authentication:membership_card": "yes",
    "authentication:none": "no",
    "capacity": "1",
    "disused:amenity": "charging_station",
    "email": "info@evce.pt",
    "fee": "yes",
    "location": "underground",
    "motorcar": "yes",
    "name": "BRG-00020 - Parque Visconde do Raio",
    "network": "Mobi.E",
    "opening_hours": "24/7",
    "operator": "EVCE",
    "parking:fee": "yes",
    "phone": "+351 253 623 190",
    "ref": "BRG-00020",
    "socket:type2": "1",
    "socket:type2:current": "32",
    "socket:type2:output": "22kW",
    "socket:type2:voltage": "400",
    "website": "https://www.mobie.pt"
  }
},
{
  "type": "node",
  "id": 8115700033,
  "lat": 41.4315453,
  "lon": -8.3016917,
  "tags": {
    "access": "yes",
    "addr:country": "PT",
    "authentication:membership_card": "yes",
    "authentication:none": "no",
    "capacity": "2",
    "disused:amenity": "charging_station",
    "fee": "yes",
    "motorcar": "yes",
    "name": "GMR-00015 - McDonald's",
    "network": "Mobi.E",
    "opening_hours": "24/7",
    "operator": "Elergone Energia",
    "parking:fee": "no",
    "phone": "+351 800 100 810",
    "ref": "GMR-00015",
    "socket:type2": "2",
    "socket:type2:current": "32",
    "socket:type2:output": "22kW",
    "socket:type2:voltage": "400",
    "website": "https://www.mobie.pt"
  }
},
{
  "type": "node",
  "id": 8116375609,
  "lat": 32.7530826,
  "lon": -17.2101742,
  "tags": {
    "access": "yes",
    "addr:country": "PT",
    "authentication:membership_card": "yes",
    "authentication:none": "no",
    "capacity": "1",
    "disused:amenity": "charging_station",
    "email": "info@factorenergia.pt",
    "fee": "yes",
    "motorcar": "yes",
    "name": "CLT-00003",
    "network": "Mobi.E",
    "opening_hours": "24/7",
    "operator": "Factor Energia",
    "parking:fee": "no",
    "phone": "+351 800 100 013",
    "ref": "CLT-00003",
    "socket:type2": "1",
    "socket:type2:current": "16",
    "socket:type2:output": "11kW",
    "socket:type2:voltage": "400",
    "website": "https://www.mobie.pt"
  }
},
{
  "type": "node",
  "id": 8116398356,
  "lat": 41.2946238,
  "lon": -7.7468278,
  "tags": {
    "access": "yes",
    "addr:country": "PT",
    "authentication:membership_card": "yes",
    "authentication:none": "no",
    "capacity": "2",
    "disused:amenity": "charging_station",
    "email": "mobilidade-eletrica@edp.pt",
    "fee": "yes",
    "motorcar": "yes",
    "name": "VRL-00006",
    "network": "Mobi.E",
    "opening_hours": "24/7",
    "operator": "EDP Comercial",
    "parking:fee": "no",
    "phone": "+351 800 222 222",
    "ref": "VRL-00006",
    "socket:type2": "2",
    "socket:type2:current": "16",
    "socket:type2:output": "3.7kW",
    "socket:type2:voltage": "230",
    "website": "https://www.mobie.pt"
  }
},
{
  "type": "node",
  "id": 8119362926,
  "lat": 38.6815478,
  "lon": -9.1595765,
  "tags": {
    "access": "yes",
    "addr:country": "PT",
    "authentication:membership_card": "yes",
    "authentication:none": "no",
    "capacity": "2",
    "disused:amenity": "charging_station",
    "email": "ajuda@powerdot.pt",
    "fee": "yes",
    "motorcar": "yes",
    "name": "ALM-00004",
    "network": "Mobi.E",
    "opening_hours": "24/7",
    "operator": "Powerdot",
    "parking:fee": "yes",
    "phone": "+351 800 180 292",
    "ref": "ALM-90004",
    "socket:type2": "2",
    "socket:type2:current": "16",
    "socket:type2:output": "3.7kW",
    "socket:type2:voltage": "230",
    "website": "https://www.mobie.pt"
  }
},
{
  "type": "node",
  "id": 8119362927,
  "lat": 38.6693540,
  "lon": -9.1654864,
  "tags": {
    "access": "yes",
    "addr:country": "PT",
    "authentication:membership_card": "yes",
    "authentication:none": "no",
    "capacity": "2",
    "disused:amenity": "charging_station",
    "email": "apoio.cliente@kmlowcost.com",
    "fee": "yes",
    "location": "underground",
    "motorcar": "yes",
    "name": "ALM-00007",
    "network": "Mobi.E",
    "opening_hours": "24/7",
    "operator": "KLC",
    "parking:fee": "yes",
    "phone": "+351 800 296 929",
    "ref": "ALM-90007",
    "socket:type2": "2",
    "socket:type2:current": "16",
    "socket:type2:output": "3.7kW",
    "socket:type2:voltage": "230",
    "website": "https://www.mobie.pt"
  }
},
{
  "type": "node",
  "id": 8121815336,
  "lat": 38.7985299,
  "lon": -9.3866104,
  "tags": {
    "access": "yes",
    "addr:country": "PT",
    "authentication:membership_card": "yes",
    "authentication:none": "no",
    "capacity": "2",
    "disused:amenity": "charging_station",
    "email": "mobilidade-eletrica@edp.pt",
    "fee": "yes",
    "motorcar": "yes",
    "name": "SNT-00001",
    "network": "Mobi.E",
    "opening_hours": "24/7",
    "operator": "EDP Comercial",
    "parking:fee": "yes",
    "phone": "+351 800 222 222",
    "ref": "SNT-00001",
    "socket:type2": "2",
    "socket:type2:current": "32",
    "socket:type2:output": "7.4kW",
    "socket:type2:voltage": "230",
    "website": "https://www.mobie.pt"
  }
},
{
  "type": "node",
  "id": 8121815340,
  "lat": 38.7881598,
  "lon": -9.3876410,
  "tags": {
    "access": "yes",
    "addr:country": "PT",
    "authentication:membership_card": "yes",
    "authentication:none": "no",
    "capacity": "2",
    "disused:amenity": "charging_station",
    "email": "ajuda@powerdot.pt",
    "fee": "yes",
    "motorcar": "yes",
    "name": "SNT-00025",
    "network": "Mobi.E",
    "opening_hours": "24/7",
    "operator": "Powerdot",
    "parking:fee": "no",
    "phone": "+351 800 180 292",
    "ref": "SNT-90025",
    "socket:type2": "2",
    "socket:type2:current": "16",
    "socket:type2:output": "3.7kW",
    "socket:type2:voltage": "230",
    "website": "https://www.mobie.pt"
  }
},
{
  "type": "node",
  "id": 8121877438,
  "lat": 38.7246570,
  "lon": -9.3339694,
  "tags": {
    "access": "yes",
    "addr:country": "PT",
    "authentication:membership_card": "yes",
    "authentication:none": "no",
    "capacity": "4",
    "disused:amenity": "charging_station",
    "email": "ajuda@powerdot.pt",
    "fee": "yes",
    "motorcar": "yes",
    "name": "CSC-00012",
    "network": "Mobi.E",
    "opening_hours": "24/7",
    "operator": "Powerdot",
    "parking:fee": "no",
    "phone": "+351 800 180 292",
    "ref": "CSC-90012",
    "socket:type2": "4",
    "socket:type2:current": "16",
    "socket:type2:output": "3.7kW",
    "socket:type2:voltage": "230",
    "website": "https://www.mobie.pt"
  }
},
{
  "type": "node",
  "id": 8121969369,
  "lat": 38.7484491,
  "lon": -9.2142396,
  "tags": {
    "access": "yes",
    "addr:country": "PT",
    "authentication:membership_card": "yes",
    "authentication:none": "no",
    "capacity": "2",
    "disused:amenity": "charging_station",
    "email": "electric@prioenergy.com",
    "fee": "yes",
    "location": "underground",
    "motorcar": "yes",
    "name": "AMD-00002",
    "network": "Mobi.E",
    "opening_hours": "24/7",
    "operator": "Prio.E",
    "parking:fee": "yes",
    "phone": "+351 800 450 111",
    "ref": "AMD-00002",
    "socket:type2": "2",
    "socket:type2:current": "16",
    "socket:type2:output": "3.7kW",
    "socket:type2:voltage": "230",
    "website": "https://www.mobie.pt"
  }
},
{
  "type": "node",
  "id": 8127217947,
  "lat": 38.8214808,
  "lon": -9.0977827,
  "tags": {
    "access": "yes",
    "addr:country": "PT",
    "authentication:membership_card": "yes",
    "authentication:none": "no",
    "capacity": "2",
    "disused:amenity": "charging_station",
    "email": "mobilidade.electricacrc@galp.com",
    "fee": "yes",
    "motorcar": "yes",
    "name": "LRS-00016",
    "network": "Mobi.E",
    "opening_hours": "24/7",
    "operator": "Galp Power",
    "parking:fee": "no",
    "phone": "+351 800 249 249",
    "ref": "LRS-90016",
    "socket:type2": "2",
    "socket:type2:current": "16",
    "socket:type2:output": "3.7kW",
    "socket:type2:voltage": "230",
    "website": "https://www.mobie.pt"
  }
},
{
  "type": "node",
  "id": 8127241436,
  "lat": 38.8589046,
  "lon": -9.1326816,
  "tags": {
    "access": "yes",
    "addr:country": "PT",
    "authentication:membership_card": "yes",
    "authentication:none": "no",
    "capacity": "2",
    "disused:amenity": "charging_station",
    "email": "mobilidade.electricacrc@galp.com",
    "fee": "yes",
    "motorcar": "yes",
    "name": "LRS-00003",
    "network": "Mobi.E",
    "opening_hours": "24/7",
    "operator": "Galp Power",
    "parking:fee": "no",
    "phone": "+351 800 249 249",
    "ref": "LRS-90003",
    "socket:type2": "2",
    "socket:type2:current": "16",
    "socket:type2:output": "3.7kW",
    "socket:type2:voltage": "230",
    "website": "https://www.mobie.pt"
  }
},
{
  "type": "node",
  "id": 8132374182,
  "lat": 39.4142109,
  "lon": -8.8205529,
  "tags": {
    "access": "yes",
    "addr:country": "PT",
    "authentication:membership_card": "yes",
    "authentication:none": "no",
    "capacity": "2",
    "disused:amenity": "charging_station",
    "email": "ajuda@powerdot.pt",
    "fee": "yes",
    "motorcar": "yes",
    "name": "STR-00010",
    "network": "Mobi.E",
    "opening_hours": "24/7",
    "operator": "Powerdot",
    "parking:fee": "no",
    "phone": "+351 800 180 292",
    "ref": "STR-90010",
    "socket:type2": "2",
    "socket:type2:current": "16",
    "socket:type2:output": "3.7kW",
    "socket:type2:voltage": "230",
    "website": "https://www.mobie.pt"
  }
},
{
  "type": "node",
  "id": 8132583831,
  "lat": 39.8197110,
  "lon": -7.5119501,
  "tags": {
    "access": "yes",
    "addr:country": "PT",
    "authentication:membership_card": "yes",
    "authentication:none": "no",
    "capacity": "2",
    "disused:amenity": "charging_station",
    "email": "ajuda@powerdot.pt",
    "fee": "yes",
    "motorcar": "yes",
    "name": "CTB-00006",
    "network": "Mobi.E",
    "opening_hours": "24/7",
    "operator": "Powerdot",
    "parking:fee": "no",
    "phone": "+351 800 180 292",
    "ref": "CTB-90006",
    "socket:type2": "2",
    "socket:type2:current": "16",
    "socket:type2:output": "3.7kW",
    "socket:type2:voltage": "230",
    "website": "https://www.mobie.pt"
  }
},
{
  "type": "node",
  "id": 8132600675,
  "lat": 41.0942323,
  "lon": -7.8113651,
  "tags": {
    "access": "yes",
    "addr:country": "PT",
    "authentication:membership_card": "yes",
    "authentication:none": "no",
    "capacity": "2",
    "disused:amenity": "charging_station",
    "email": "ajuda@powerdot.pt",
    "fee": "yes",
    "motorcar": "yes",
    "name": "LMG-00001",
    "network": "Mobi.E",
    "opening_hours": "24/7",
    "operator": "Powerdot",
    "parking:fee": "no",
    "phone": "+351 800 180 292",
    "ref": "LMG-00001",
    "socket:type2": "2",
    "socket:type2:current": "16",
    "socket:type2:output": "3.7kW",
    "socket:type2:voltage": "230",
    "website": "https://www.mobie.pt"
  }
},
{
  "type": "node",
  "id": 8132614457,
  "lat": 41.4909450,
  "lon": -8.3410893,
  "tags": {
    "access": "yes",
    "addr:country": "PT",
    "authentication:membership_card": "yes",
    "authentication:none": "no",
    "capacity": "1",
    "disused:amenity": "charging_station",
    "email": "info@evce.pt",
    "fee": "yes",
    "motorcar": "yes",
    "name": "GMR-00008",
    "network": "Mobi.E",
    "opening_hours": "24/7",
    "operator": "EVCE",
    "parking:fee": "no",
    "phone": "+351 253 623 190",
    "ref": "GMR-00008",
    "socket:type2": "1",
    "socket:type2:current": "32",
    "socket:type2:output": "7.4kW",
    "socket:type2:voltage": "230",
    "website": "https://www.mobie.pt"
  }
},
{
  "type": "node",
  "id": 8143027996,
  "lat": 40.5414865,
  "lon": -7.2665009,
  "tags": {
    "access": "yes",
    "addr:country": "PT",
    "authentication:membership_card": "yes",
    "authentication:none": "no",
    "capacity": "2",
    "disused:amenity": "charging_station",
    "email": "mobilidade.electricacrc@galp.com",
    "fee": "yes",
    "motorcar": "yes",
    "name": "GRD-00005",
    "network": "Mobi.E",
    "opening_hours": "24/7",
    "operator": "Galp Power",
    "parking:fee": "no",
    "phone": "+351 800 249 249",
    "ref": "GRD-90005",
    "socket:type2": "2",
    "socket:type2:current": "16",
    "socket:type2:output": "3.7kW",
    "socket:type2:voltage": "230",
    "website": "https://www.mobie.pt"
  }
},
{
  "type": "node",
  "id": 8143027997,
  "lat": 40.5375451,
  "lon": -7.2770905,
  "tags": {
    "access": "yes",
    "addr:country": "PT",
    "authentication:membership_card": "yes",
    "authentication:none": "no",
    "capacity": "2",
    "disused:amenity": "charging_station",
    "email": "apoio.cliente@kmlowcost.com",
    "fee": "yes",
    "motorcar": "yes",
    "name": "GRD-00003",
    "network": "Mobi.E",
    "opening_hours": "24/7",
    "operator": "KLC",
    "parking:fee": "no",
    "phone": "+351 800 296 929",
    "ref": "GRD-90003",
    "socket:type2": "2",
    "socket:type2:current": "16",
    "socket:type2:output": "3.7kW",
    "socket:type2:voltage": "230",
    "website": "https://www.mobie.pt"
  }
},
{
  "type": "node",
  "id": 8144037960,
  "lat": 41.4445000,
  "lon": -8.2942766,
  "tags": {
    "access": "yes",
    "addr:country": "PT",
    "authentication:membership_card": "yes",
    "authentication:none": "no",
    "capacity": "2",
    "disused:amenity": "charging_station",
    "email": "mobilidade-eletrica@edp.pt",
    "fee": "yes",
    "motorcar": "yes",
    "name": "GMR-00002",
    "network": "Mobi.E",
    "opening_hours": "24/7",
    "operator": "EDP Comercial",
    "parking:fee": "no",
    "phone": "+351 800 222 222",
    "ref": "GMR-00002",
    "socket:type2": "2",
    "socket:type2:current": "32",
    "socket:type2:output": "7.4kW",
    "socket:type2:voltage": "230",
    "website": "https://www.mobie.pt"
  }
},
{
  "type": "node",
  "id": 8147485648,
  "lat": 38.7078992,
  "lon": -9.2061138,
  "tags": {
    "access": "yes",
    "addr:country": "PT",
    "authentication:membership_card": "yes",
    "authentication:none": "no",
    "capacity": "2",
    "disused:amenity": "charging_station",
    "email": "mobilidade.electricacrc@galp.com",
    "fee": "yes",
    "motorcar": "yes",
    "name": "LSB-00009",
    "network": "Mobi.E",
    "opening_hours": "24/7",
    "operator": "Galp Power",
    "parking:fee": "no",
    "phone": "+351 800 249 249",
    "ref": "LSB-90009",
    "socket:type2": "2",
    "socket:type2:current": "16",
    "socket:type2:output": "3.7kW",
    "socket:type2:voltage": "230",
    "website": "https://www.mobie.pt"
  }
},
{
  "type": "node",
  "id": 8149297724,
  "lat": 38.7347726,
  "lon": -9.1797338,
  "tags": {
    "access": "yes",
    "addr:country": "PT",
    "authentication:membership_card": "yes",
    "authentication:none": "no",
    "capacity": "2",
    "disused:amenity": "charging_station",
    "email": "mobilidade.electricacrc@galp.com",
    "fee": "yes",
    "motorcar": "yes",
    "name": "LSB-00047",
    "network": "Mobi.E",
    "opening_hours": "24/7",
    "operator": "Galp Power",
    "parking:fee": "no",
    "phone": "+351 800 249 249",
    "ref": "LSB-90047",
    "socket:type2": "2",
    "socket:type2:current": "16",
    "socket:type2:output": "3.7kW",
    "socket:type2:voltage": "230",
    "website": "https://www.mobie.pt"
  }
},
{
  "type": "node",
  "id": 8149363331,
  "lat": 38.7444676,
  "lon": -9.1831234,
  "tags": {
    "access": "yes",
    "addr:country": "PT",
    "authentication:membership_card": "yes",
    "authentication:none": "no",
    "capacity": "2",
    "disused:amenity": "charging_station",
    "email": "apoio.cliente@kmlowcost.com",
    "fee": "yes",
    "motorcar": "yes",
    "name": "LSB-00027",
    "network": "Mobi.E",
    "opening_hours": "24/7",
    "operator": "KLC",
    "parking:fee": "no",
    "phone": "+351 800 296 929",
    "ref": "LSB-90027",
    "socket:type2": "2",
    "socket:type2:current": "16",
    "socket:type2:output": "3.7kW",
    "socket:type2:voltage": "230",
    "website": "https://www.mobie.pt"
  }
},
{
  "type": "node",
  "id": 8149417728,
  "lat": 38.7535124,
  "lon": -9.1897704,
  "tags": {
    "access": "yes",
    "addr:country": "PT",
    "authentication:membership_card": "yes",
    "authentication:none": "no",
    "capacity": "6",
    "disused:amenity": "charging_station",
    "fee": "yes",
    "motorcar": "yes",
    "name": "LSB-01010",
    "network": "Mobi.E",
    "opening_hours": "24/7",
    "operator": "Mobi.E",
    "parking:fee": "yes",
    "ref": "LSB-01010",
    "socket:type2": "6",
    "socket:type2:current": "16",
    "socket:type2:output": "3.7kW",
    "socket:type2:voltage": "230",
    "website": "https://www.mobie.pt"
  }
},
{
  "type": "node",
  "id": 8149431042,
  "lat": 38.7723440,
  "lon": -9.1605250,
  "tags": {
    "access": "yes",
    "addr:country": "PT",
    "authentication:membership_card": "yes",
    "authentication:none": "no",
    "capacity": "2",
    "disused:amenity": "charging_station",
    "email": "mobilidade.electricacrc@galp.com",
    "fee": "yes",
    "motorcar": "yes",
    "name": "LSB-00078",
    "network": "Mobi.E",
    "opening_hours": "24/7",
    "operator": "Galp Power",
    "parking:fee": "no",
    "phone": "+351 800 249 249",
    "ref": "LSB-90078",
    "socket:type2": "2",
    "socket:type2:current": "16",
    "socket:type2:output": "3.7kW",
    "socket:type2:voltage": "230",
    "website": "https://www.mobie.pt"
  }
},
{
  "type": "node",
  "id": 8149431048,
  "lat": 38.7645692,
  "lon": -9.1715576,
  "tags": {
    "access": "yes",
    "addr:country": "PT",
    "authentication:membership_card": "yes",
    "authentication:none": "no",
    "capacity": "2",
    "disused:amenity": "charging_station",
    "email": "mobilidade.electricacrc@galp.com",
    "fee": "yes",
    "motorcar": "yes",
    "name": "LSB-00055",
    "network": "Mobi.E",
    "opening_hours": "24/7",
    "operator": "Galp Power",
    "parking:fee": "no",
    "phone": "+351 800 249 249",
    "ref": "LSB-90055",
    "socket:type2": "2",
    "socket:type2:current": "16",
    "socket:type2:output": "3.7kW",
    "socket:type2:voltage": "230",
    "website": "https://www.mobie.pt"
  }
},
{
  "type": "node",
  "id": 8149431049,
  "lat": 38.7612972,
  "lon": -9.1666713,
  "tags": {
    "access": "yes",
    "addr:country": "PT",
    "authentication:membership_card": "yes",
    "authentication:none": "no",
    "capacity": "2",
    "disused:amenity": "charging_station",
    "email": "mobilidade.electricacrc@galp.com",
    "fee": "yes",
    "motorcar": "yes",
    "name": "LSB-00062",
    "network": "Mobi.E",
    "opening_hours": "24/7",
    "operator": "Galp Power",
    "parking:fee": "no",
    "phone": "+351 800 249 249",
    "ref": "LSB-90062",
    "socket:type2": "2",
    "socket:type2:current": "16",
    "socket:type2:output": "3.7kW",
    "socket:type2:voltage": "230",
    "website": "https://www.mobie.pt"
  }
},
{
  "type": "node",
  "id": 8207100965,
  "lat": 37.9661714,
  "lon": -8.8576892,
  "tags": {
    "access": "yes",
    "addr:city": "Sines",
    "addr:country": "PT",
    "authentication:membership_card": "yes",
    "authentication:none": "no",
    "capacity": "2",
    "disused:amenity": "charging_station",
    "email": "mobilidade-eletrica@edp.pt",
    "fee": "yes",
    "motorcar": "yes",
    "name": "SNS-00004 - BP",
    "network": "Mobi.E",
    "opening_hours": "24/7",
    "operator": "EDP Comercial",
    "parking:fee": "no",
    "phone": "+351 800 222 222",
    "ref": "SNS-00004",
    "socket:chademo": "1",
    "socket:chademo:current": "120",
    "socket:chademo:output": "50kW",
    "socket:chademo:voltage": "500",
    "socket:type2_cable": "1",
    "socket:type2_cable:current": "63",
    "socket:type2_cable:output": "43kW",
    "socket:type2_cable:voltage": "400",
    "socket:type2_combo": "1",
    "socket:type2_combo:current": "125",
    "socket:type2_combo:output": "50kW",
    "socket:type2_combo:voltage": "500",
    "website": "https://www.mobie.pt"
  }
},
{
  "type": "node",
  "id": 8220272048,
  "lat": 38.7007616,
  "lon": -9.2280089,
  "tags": {
    "access": "yes",
    "addr:city": "Algés",
    "addr:country": "PT",
    "addr:street": "Praceta Manuel Martins",
    "authentication:membership_card": "yes",
    "authentication:none": "no",
    "capacity": "1",
    "disused:amenity": "charging_station",
    "email": "mobilidade.electricacrc@galp.com",
    "fee": "yes",
    "motorcar": "yes",
    "name": "OER-00065 - Mercado de Algés",
    "network": "Mobi.E",
    "opening_hours": "24/7",
    "operator": "Galp Power",
    "parking:fee": "no",
    "phone": "+351 800 249 249",
    "ref": "OER-00065",
    "socket:chademo": "1",
    "socket:chademo:current": "120",
    "socket:chademo:output": "50kW",
    "socket:chademo:voltage": "500",
    "socket:type2_combo": "1",
    "socket:type2_combo:current": "350",
    "socket:type2_combo:output": "160kW",
    "socket:type2_combo:voltage": "920",
    "website": "https://www.mobie.pt"
  }
},
{
  "type": "node",
  "id": 8224722880,
  "lat": 39.5458059,
  "lon": -8.9695376,
  "tags": {
    "access": "yes",
    "addr:city": "Alcobaça",
    "addr:country": "PT",
    "authentication:membership_card": "yes",
    "authentication:none": "no",
    "capacity": "2",
    "disused:amenity": "charging_station",
    "email": "mobilidade-eletrica@edp.pt",
    "fee": "yes",
    "motorcar": "yes",
    "name": "ACB-00003",
    "network": "Mobi.E",
    "opening_hours": "24/7",
    "operator": "EDP Comercial",
    "parking:fee": "no",
    "phone": "+351 800 222 222",
    "ref": "ACB-00003",
    "socket:chademo": "1",
    "socket:chademo:current": "120",
    "socket:chademo:output": "50kW",
    "socket:chademo:voltage": "500",
    "socket:type2_cable": "1",
    "socket:type2_cable:current": "63",
    "socket:type2_cable:output": "43kW",
    "socket:type2_cable:voltage": "400",
    "socket:type2_combo": "1",
    "socket:type2_combo:current": "125",
    "socket:type2_combo:output": "50kW",
    "socket:type2_combo:voltage": "500",
    "start_date": "2021-03-21",
    "website": "https://www.mobie.pt"
  }
},
{
  "type": "node",
  "id": 8227754573,
  "lat": 41.0946436,
  "lon": -8.5989274,
  "tags": {
    "access": "yes",
    "addr:city": "Vila Nova de Gaia",
    "addr:country": "PT",
    "addr:street": "Rua da Rechousa",
    "authentication:membership_card": "yes",
    "authentication:none": "no",
    "capacity": "2",
    "disused:amenity": "charging_station",
    "email": "mobilidade.electricacrc@galp.com",
    "fee": "yes",
    "motorcar": "yes",
    "name": "VNG-00054",
    "network": "Mobi.E",
    "opening_hours": "24/7",
    "operator": "Galp Geste",
    "parking:fee": "no",
    "phone": "+351 800 249 249",
    "ref": "VNG-00054",
    "socket:chademo": "1",
    "socket:chademo:current": "120",
    "socket:chademo:output": "50kW",
    "socket:chademo:voltage": "500",
    "socket:type2_cable": "1",
    "socket:type2_cable:current": "63",
    "socket:type2_cable:output": "43kW",
    "socket:type2_cable:voltage": "400",
    "socket:type2_combo": "1",
    "socket:type2_combo:current": "125",
    "socket:type2_combo:output": "50kW",
    "socket:type2_combo:voltage": "500",
    "website": "https://www.mobie.pt"
  }
},
{
  "type": "node",
  "id": 8231836048,
  "lat": 41.2341734,
  "lon": -8.6221956,
  "tags": {
    "access": "yes",
    "addr:city": "Maia",
    "addr:country": "PT",
    "authentication:membership_card": "yes",
    "authentication:none": "no",
    "capacity": "2",
    "disused:amenity": "charging_station",
    "email": "mobilidade-eletrica@edp.pt",
    "fee": "yes",
    "motorcar": "yes",
    "name": "MAI-00011",
    "network": "Mobi.E",
    "opening_hours": "24/7",
    "operator": "EDP Comercial",
    "parking:fee": "no",
    "phone": "+351 800 222 222",
    "ref": "MAI-00011",
    "socket:chademo": "1",
    "socket:chademo:current": "120",
    "socket:chademo:output": "50kW",
    "socket:chademo:voltage": "500",
    "socket:type2_cable": "1",
    "socket:type2_cable:current": "63",
    "socket:type2_cable:output": "43kW",
    "socket:type2_cable:voltage": "400",
    "socket:type2_combo": "1",
    "socket:type2_combo:current": "125",
    "socket:type2_combo:output": "50kW",
    "socket:type2_combo:voltage": "500",
    "website": "https://www.mobie.pt"
  }
},
{
  "type": "node",
  "id": 8269986418,
  "lat": 37.1338048,
  "lon": -8.1603152,
  "tags": {
    "access": "yes",
    "addr:country": "PT",
    "authentication:membership_card": "yes",
    "authentication:none": "no",
    "capacity": "2",
    "disused:amenity": "charging_station",
    "email": "geral@lcglobal.pt",
    "fee": "yes",
    "motorcar": "yes",
    "name": "LLE-00064",
    "network": "Mobi.E",
    "opening_hours": "24/7",
    "operator": "Loulé Concelho Global",
    "parking:fee": "no",
    "phone": "+351 800 200 289",
    "ref": "LLE-00064",
    "socket:type2": "2",
    "socket:type2:current": "32",
    "socket:type2:output": "22kW",
    "socket:type2:voltage": "400",
    "start_date": "2021-03-21",
    "website": "https://www.mobie.pt"
  }
},
{
  "type": "node",
  "id": 8270246279,
  "lat": 37.1535936,
  "lon": -8.5508341,
  "tags": {
    "access": "yes",
    "addr:country": "PT",
    "authentication:membership_card": "yes",
    "authentication:none": "no",
    "capacity": "2",
    "disused:amenity": "charging_station",
    "email": "electric@prioenergy.com",
    "fee": "yes",
    "motorcar": "yes",
    "name": "PTM-00002",
    "network": "Mobi.E",
    "opening_hours": "24/7",
    "operator": "Prio.E",
    "parking:fee": "no",
    "phone": "+351 800 450 111",
    "ref": "PTM-00002",
    "socket:type2": "2",
    "socket:type2:current": "32",
    "socket:type2:output": "22kW",
    "socket:type2:voltage": "400",
    "website": "https://www.mobie.pt"
  }
},
{
  "type": "node",
  "id": 8270254652,
  "lat": 37.1061319,
  "lon": -8.6740071,
  "tags": {
    "access": "yes",
    "addr:country": "PT",
    "authentication:membership_card": "yes",
    "authentication:none": "no",
    "capacity": "2",
    "disused:amenity": "charging_station",
    "email": "mobilidade-eletrica@edp.pt",
    "fee": "yes",
    "motorcar": "yes",
    "name": "LGS-00005",
    "network": "Mobi.E",
    "opening_hours": "24/7",
    "operator": "EDP Comercial",
    "parking:fee": "no",
    "phone": "+351 800 222 222",
    "ref": "LGS-90005",
    "socket:type2": "2",
    "socket:type2:current": "32",
    "socket:type2:output": "22kW",
    "socket:type2:voltage": "400",
    "website": "https://www.mobie.pt"
  }
},
{
  "type": "node",
  "id": 8286179569,
  "lat": 40.3836203,
  "lon": -8.4417969,
  "tags": {
    "access": "customers",
    "addr:country": "PT",
    "authentication:membership_card": "yes",
    "authentication:none": "no",
    "capacity": "2",
    "disused:amenity": "charging_station",
    "email": "info@evce.pt",
    "fee": "yes",
    "motorcar": "yes",
    "name": "MLD-00001",
    "network": "Mobi.E",
    "opening_hours": "Mo-Su 12:00-22:00",
    "operator": "EVCE",
    "parking:fee": "no",
    "phone": "+351 253 623 190",
    "ref": "MLD-00001",
    "socket:type2": "2",
    "socket:type2:current": "16",
    "socket:type2:output": "11kW",
    "socket:type2:voltage": "400",
    "website": "https://www.mobie.pt"
  }
},
{
  "type": "node",
  "id": 8289261751,
  "lat": 38.3065975,
  "lon": -7.7082369,
  "tags": {
    "access": "yes",
    "addr:country": "PT",
    "authentication:membership_card": "yes",
    "authentication:none": "no",
    "capacity": "2",
    "disused:amenity": "charging_station",
    "email": "mobilidade.electricacrc@galp.com",
    "fee": "yes",
    "motorcar": "yes",
    "name": "PRL-00001",
    "network": "Mobi.E",
    "opening_hours": "24/7",
    "operator": "Galp Power",
    "parking:fee": "no",
    "phone": "+351 800 249 249",
    "ref": "PRL-90001",
    "socket:type2": "2",
    "socket:type2:current": "32",
    "socket:type2:output": "22kW",
    "socket:type2:voltage": "400",
    "website": "https://www.mobie.pt"
  }
},
{
  "type": "node",
  "id": 8289278913,
  "lat": 38.7023813,
  "lon": -7.4056153,
  "tags": {
    "access": "yes",
    "addr:country": "PT",
    "authentication:membership_card": "yes",
    "authentication:none": "no",
    "capacity": "2",
    "disused:amenity": "charging_station",
    "email": "mobilidade-eletrica@edp.pt",
    "fee": "yes",
    "motorcar": "yes",
    "name": "ADL-00001",
    "network": "Mobi.E",
    "opening_hours": "24/7",
    "operator": "EDP Comercial",
    "parking:fee": "no",
    "phone": "+351 800 222 222",
    "ref": "ADL-00001",
    "socket:type2": "2",
    "socket:type2:current": "32",
    "socket:type2:output": "22kW",
    "socket:type2:voltage": "400",
    "website": "https://www.mobie.pt"
  }
},
{
  "type": "node",
  "id": 8289566369,
  "lat": 38.6813662,
  "lon": -9.1608509,
  "tags": {
    "access": "yes",
    "addr:country": "PT",
    "authentication:membership_card": "yes",
    "authentication:none": "no",
    "capacity": "2",
    "disused:amenity": "charging_station",
    "email": "mobilidade-eletrica@edp.pt",
    "fee": "yes",
    "location": "underground",
    "motorcar": "yes",
    "name": "ALM-00005",
    "network": "Mobi.E",
    "opening_hours": "24/7",
    "operator": "EDP Comercial",
    "parking:fee": "no",
    "phone": "+351 800 222 222",
    "ref": "ALM-90005",
    "socket:type2": "2",
    "socket:type2:current": "16",
    "socket:type2:output": "3.7kW",
    "socket:type2:voltage": "230",
    "website": "https://www.mobie.pt"
  }
},
{
  "type": "node",
  "id": 8301177096,
  "lat": 38.7208129,
  "lon": -9.1594139,
  "tags": {
    "access": "customers",
    "addr:country": "PT",
    "authentication:membership_card": "yes",
    "authentication:none": "no",
    "capacity": "2",
    "disused:amenity": "charging_station",
    "email": "ajuda@powerdot.pt",
    "fee": "yes",
    "motorcar": "yes",
    "name": "LSB-00208",
    "network": "Mobi.E",
    "opening_hours": "24/7",
    "operator": "Powerdot",
    "parking:fee": "yes",
    "phone": "+351 800 180 292",
    "ref": "LSB-00208",
    "socket:type2": "2",
    "socket:type2:current": "32",
    "socket:type2:output": "7.4kW",
    "socket:type2:voltage": "230",
    "website": "https://www.mobie.pt"
  }
},
{
  "type": "node",
  "id": 8301177097,
  "lat": 38.7208317,
  "lon": -9.1593998,
  "tags": {
    "access": "customers",
    "addr:country": "PT",
    "authentication:membership_card": "yes",
    "authentication:none": "no",
    "capacity": "2",
    "disused:amenity": "charging_station",
    "email": "ajuda@powerdot.pt",
    "fee": "yes",
    "motorcar": "yes",
    "name": "LSB-00210",
    "network": "Mobi.E",
    "opening_hours": "24/7",
    "operator": "Powerdot",
    "parking:fee": "yes",
    "phone": "+351 800 180 292",
    "ref": "LSB-00210",
    "socket:type2": "2",
    "socket:type2:current": "32",
    "socket:type2:output": "7.4kW",
    "socket:type2:voltage": "230",
    "website": "https://www.mobie.pt"
  }
},
{
  "type": "node",
  "id": 8309430654,
  "lat": 40.1700729,
  "lon": -7.4936564,
  "tags": {
    "access": "yes",
    "addr:country": "PT",
    "authentication:membership_card": "yes",
    "authentication:none": "no",
    "capacity": "2",
    "disused:amenity": "charging_station",
    "email": "suporte@evpower.pt",
    "fee": "yes",
    "motorcar": "yes",
    "name": "FND-00006",
    "network": "Mobi.E",
    "opening_hours": "24/7",
    "operator": "EV Power",
    "owner": "Municipio do Fundão",
    "parking:fee": "no",
    "phone": "+351 800 254 565",
    "ref": "FND-00006",
    "socket:type2": "2",
    "socket:type2:current": "32",
    "socket:type2:output": "22kW",
    "socket:type2:voltage": "400",
    "website": "https://www.mobie.pt"
  }
},
{
  "type": "node",
  "id": 8387684711,
  "lat": 37.9651309,
  "lon": -8.8585532,
  "tags": {
    "access": "yes",
    "addr:city": "Sines",
    "addr:country": "PT",
    "authentication:membership_card": "yes",
    "authentication:none": "no",
    "capacity": "1",
    "disused:amenity": "charging_station",
    "email": "suporte@mobiletric.com",
    "fee": "yes",
    "motorcar": "yes",
    "name": "SNS-00003 - Intermarché",
    "network": "Mobi.E",
    "opening_hours": "24/7",
    "operator": "Mobiletric",
    "parking:fee": "no",
    "phone": "+351 800 210 204",
    "ref": "SNS-00003",
    "socket:chademo": "1",
    "socket:chademo:current": "120",
    "socket:chademo:output": "50kW",
    "socket:chademo:voltage": "500",
    "socket:type2_combo": "1",
    "socket:type2_combo:current": "125",
    "socket:type2_combo:output": "50kW",
    "socket:type2_combo:voltage": "500",
    "website": "https://www.mobie.pt"
  }
},
{
  "type": "node",
  "id": 8413110310,
  "lat": 39.7294469,
  "lon": -8.7931489,
  "tags": {
    "access": "yes",
    "addr:country": "PT",
    "authentication:membership_card": "yes",
    "authentication:none": "no",
    "capacity": "2",
    "disused:amenity": "charging_station",
    "email": "ajuda@powerdot.pt",
    "fee": "yes",
    "motorcar": "yes",
    "name": "LRA-00024 - Agriloja",
    "network": "Mobi.E",
    "opening_hours": "Mo-Sa 09:00-20:00",
    "operator": "Powerdot",
    "parking:fee": "no",
    "phone": "+351 800 180 292",
    "ref": "LRA-00024",
    "socket:type2": "2",
    "socket:type2:current": "32",
    "socket:type2:output": "22kW",
    "socket:type2:voltage": "400",
    "website": "https://www.mobie.pt"
  }
},
{
  "type": "node",
  "id": 8416618399,
  "lat": 38.0115585,
  "lon": -8.7079887,
  "tags": {
    "access": "yes",
    "addr:country": "PT",
    "authentication:membership_card": "yes",
    "authentication:none": "no",
    "capacity": "2",
    "disused:amenity": "charging_station",
    "email": "ajuda@powerdot.pt",
    "fee": "yes",
    "motorcar": "yes",
    "name": "STC-00004 - Agriloja",
    "network": "Mobi.E",
    "opening_hours": "Mo-Sa 09:00-20:00",
    "operator": "Powerdot",
    "parking:fee": "no",
    "phone": "+351 800 180 292",
    "ref": "STC-00004",
    "socket:type2": "2",
    "socket:type2:current": "32",
    "socket:type2:output": "22kW",
    "socket:type2:voltage": "400",
    "website": "https://www.mobie.pt"
  }
},
{
  "type": "node",
  "id": 8418708474,
  "lat": 38.6755598,
  "lon": -9.1659048,
  "tags": {
    "access": "yes",
    "addr:country": "PT",
    "authentication:membership_card": "yes",
    "authentication:none": "no",
    "capacity": "2",
    "disused:amenity": "charging_station",
    "email": "mobilidade-eletrica@edp.pt",
    "fee": "yes",
    "motorcar": "yes",
    "name": "ALM-00006",
    "network": "Mobi.E",
    "opening_hours": "Mo-Su 08:00-20:00",
    "operator": "EDP Comercial",
    "parking:fee": "yes",
    "phone": "+351 800 222 222",
    "ref": "ALM-00006",
    "socket:type2": "2",
    "socket:type2:current": "16",
    "socket:type2:output": "3.7kW",
    "socket:type2:voltage": "230",
    "website": "https://www.mobie.pt"
  }
},
{
  "type": "node",
  "id": 8419230189,
  "lat": 39.7509082,
  "lon": -7.9174170,
  "tags": {
    "access": "yes",
    "addr:country": "PT",
    "authentication:membership_card": "yes",
    "authentication:none": "no",
    "capacity": "2",
    "disused:amenity": "charging_station",
    "email": "mobilidade-eletrica@edp.pt",
    "fee": "yes",
    "motorcar": "yes",
    "name": "PNV-00002",
    "network": "Mobi.E",
    "opening_hours": "24/7",
    "operator": "EDP Comercial",
    "parking:fee": "no",
    "phone": "+351 800 222 222",
    "ref": "PNV-00002",
    "socket:type2": "2",
    "socket:type2:current": "32",
    "socket:type2:output": "22kW",
    "socket:type2:voltage": "400",
    "website": "https://www.mobie.pt"
  }
},
{
  "type": "node",
  "id": 8419257321,
  "lat": 39.8078623,
  "lon": -7.5310890,
  "tags": {
    "access": "yes",
    "addr:country": "PT",
    "authentication:membership_card": "yes",
    "authentication:none": "no",
    "capacity": "2",
    "disused:amenity": "charging_station",
    "email": "ajuda@powerdot.pt",
    "fee": "yes",
    "motorcar": "yes",
    "name": "CTB-00015 - Agriloja",
    "network": "Mobi.E",
    "opening_hours": "Mo-Sa 09:00-20:00",
    "operator": "Powerdot",
    "parking:fee": "no",
    "phone": "+351 800 180 292",
    "ref": "CTB-00015",
    "socket:type2": "2",
    "socket:type2:current": "32",
    "socket:type2:output": "22kW",
    "socket:type2:voltage": "400",
    "website": "https://www.mobie.pt"
  }
},
{
  "type": "node",
  "id": 8427186506,
  "lat": 38.5372565,
  "lon": -28.6263210,
  "tags": {
    "access": "yes",
    "addr:country": "PT",
    "authentication:membership_card": "yes",
    "authentication:none": "no",
    "capacity": "2",
    "disused:amenity": "charging_station",
    "email": "segma@segma.pt",
    "fee": "yes",
    "motorcar": "yes",
    "name": "HRT-00003",
    "network": "Mobi.E",
    "opening_hours": "24/7",
    "operator": "SEGMA",
    "parking:fee": "no",
    "ref": "HRT-00003",
    "socket:type2": "2",
    "socket:type2:current": "32",
    "socket:type2:output": "22kW",
    "socket:type2:voltage": "400",
    "website": "https://www.mobie.pt"
  }
},
{
  "type": "node",
  "id": 8436175699,
  "lat": 41.5036620,
  "lon": -7.8017460,
  "tags": {
    "access": "yes",
    "addr:country": "PT",
    "authentication:membership_card": "yes",
    "authentication:none": "no",
    "capacity": "2",
    "disused:amenity": "charging_station",
    "fee": "yes",
    "motorcar": "yes",
    "name": "RPN-00002",
    "network": "Mobi.E",
    "opening_hours": "24/7",
    "operator": "Muvext",
    "parking:fee": "no",
    "phone": "+351 800 181 212",
    "ref": "RPN-00002",
    "socket:type2": "2",
    "socket:type2:current": "32",
    "socket:type2:output": "7.4kW",
    "socket:type2:voltage": "230",
    "website": "https://www.mobie.pt"
  }
},
{
  "type": "node",
  "id": 8455060436,
  "lat": 32.6519190,
  "lon": -16.8398805,
  "tags": {
    "access": "yes",
    "addr:country": "PT",
    "authentication:membership_card": "yes",
    "authentication:none": "no",
    "capacity": "2",
    "disused:amenity": "charging_station",
    "fee": "yes",
    "motorcar": "yes",
    "name": "SCR-00011",
    "network": "Mobi.E",
    "opening_hours": "24/7",
    "operator": "Município de Santa Cruz",
    "parking:fee": "no",
    "ref": "SCR-00011",
    "socket:type2": "2",
    "socket:type2:current": "32",
    "socket:type2:output": "22kW",
    "socket:type2:voltage": "400",
    "website": "https://www.mobie.pt"
  }
},
{
  "type": "node",
  "id": 8461197310,
  "lat": 41.5642378,
  "lon": -8.4211640,
  "tags": {
    "access": "yes",
    "addr:country": "PT",
    "authentication:membership_card": "yes",
    "authentication:none": "no",
    "capacity": "2",
    "disused:amenity": "charging_station",
    "fee": "yes",
    "motorcar": "yes",
    "name": "BRG-00034",
    "network": "Mobi.E",
    "opening_hours": "24/7",
    "operator": "EVCE",
    "parking:fee": "no",
    "ref": "BRG-00034",
    "socket:type2": "2",
    "socket:type2:current": "16",
    "socket:type2:output": "11kW",
    "socket:type2:voltage": "400",
    "website": "https://www.mobie.pt"
  }
},
{
  "type": "node",
  "id": 8693944209,
  "lat": 40.3032172,
  "lon": -8.3209231,
  "tags": {
    "access": "customers",
    "addr:country": "PT",
    "authentication:membership_card": "yes",
    "authentication:none": "no",
    "capacity": "2",
    "disused:amenity": "charging_station",
    "fee": "yes",
    "name": "CBR-00018 - Leitão do Aires",
    "network": "Mobi.E",
    "opening_hours": "24/7",
    "operator": "Ucharge",
    "parking:fee": "no",
    "ref": "CBR-00018",
    "socket:type2": "2",
    "socket:type2:current": "16",
    "socket:type2:output": "11kW",
    "socket:type2:voltage": "400",
    "website": "https://www.mobie.pt"
  }
},
{
  "type": "node",
  "id": 8790167216,
  "lat": 37.0887953,
  "lon": -8.2565766,
  "tags": {
    "access": "yes",
    "addr:country": "PT",
    "authentication:membership_card": "yes",
    "authentication:none": "no",
    "capacity": "2",
    "disused:amenity": "charging_station",
    "fee": "yes",
    "motorcar": "yes",
    "name": "ABF-00017",
    "network": "Mobi.E",
    "opening_hours": "24/7",
    "operator": "CME",
    "parking:fee": "no",
    "ref": "ABF-00017",
    "socket:type2": "2",
    "socket:type2:current": "32",
    "socket:type2:output": "22kW",
    "socket:type2:voltage": "400",
    "website": "https://www.mobie.pt"
  }
},
{
  "type": "node",
  "id": 8840244413,
  "lat": 37.0823060,
  "lon": -8.1180160,
  "tags": {
    "access": "yes",
    "addr:city": "Vilamoura",
    "addr:country": "PT",
    "addr:street": "Avenida Engenheiro João Meireles",
    "authentication:membership_card": "yes",
    "authentication:none": "no",
    "capacity": "2",
    "disused:amenity": "charging_station",
    "email": "mobilidade.electricacrc@galp.com",
    "fee": "yes",
    "motorcar": "yes",
    "name": "LLE-00054 - Galp",
    "network": "Mobi.E",
    "opening_hours": "24/7",
    "operator": "Galp Geste",
    "parking:fee": "no",
    "phone": "+351 800 249 249",
    "ref": "LLE-00054",
    "socket:chademo": "1",
    "socket:chademo:current": "120",
    "socket:chademo:output": "50kW",
    "socket:chademo:voltage": "500",
    "socket:type2_cable": "1",
    "socket:type2_cable:current": "63",
    "socket:type2_cable:output": "43kW",
    "socket:type2_cable:voltage": "400",
    "socket:type2_combo": "1",
    "socket:type2_combo:current": "125",
    "socket:type2_combo:output": "50kW",
    "socket:type2_combo:voltage": "500",
    "website": "https://www.mobie.pt"
  }
},
{
  "type": "node",
  "id": 8929363144,
  "lat": 41.6910510,
  "lon": -8.8281590,
  "tags": {
    "access": "yes",
    "addr:country": "PT",
    "authentication:membership_card": "yes",
    "authentication:none": "no",
    "capacity": "2",
    "disused:amenity": "charging_station",
    "email": "comercial@iberdrola.pt",
    "fee": "yes",
    "motorcar": "yes",
    "name": "VCT-00019",
    "network": "Mobi.E",
    "opening_hours": "24/7",
    "operator": "Iberdrola",
    "parking:fee": "yes",
    "phone": "+351 800 607 717",
    "ref": "VCT-00019",
    "socket:type2": "2",
    "socket:type2:current": "32",
    "socket:type2:output": "22kW",
    "socket:type2:voltage": "400",
    "start_date": "2021-08-06",
    "website": "https://www.mobie.pt"
  }
},
{
  "type": "node",
  "id": 8969154282,
  "lat": 39.6007118,
  "lon": -8.4141339,
  "tags": {
    "access": "yes",
    "addr:country": "PT",
    "authentication:membership_card": "yes",
    "authentication:none": "no",
    "capacity": "2",
    "disused:amenity": "charging_station",
    "fee": "yes",
    "motorcar": "yes",
    "name": "TMR-00008",
    "network": "Mobi.E",
    "opening_hours": "24/7",
    "operator": "E-Plug",
    "parking:fee": "no",
    "ref": "TMR-00008",
    "socket:type2": "2",
    "socket:type2:current": "32",
    "socket:type2:output": "7.4kW",
    "socket:type2:voltage": "230",
    "website": "https://www.mobie.pt"
  }
},
{
  "type": "node",
  "id": 8975160855,
  "lat": 38.7749786,
  "lon": -9.3419735,
  "tags": {
    "access": "yes",
    "addr:country": "PT",
    "authentication:membership_card": "yes",
    "authentication:none": "no",
    "capacity": "2",
    "disused:amenity": "charging_station",
    "email": "renewing.charging@mota-engil.pt",
    "fee": "yes",
    "motorcar": "yes",
    "name": "SNT-00042 - Alegro Sintra",
    "network": "Mobi.E",
    "opening_hours": "24/7",
    "operator": "Mota Engil II",
    "parking:fee": "no",
    "phone": "+351 800 020 940",
    "ref": "SNT-00042",
    "socket:type2": "2",
    "socket:type2:current": "32",
    "socket:type2:output": "22kW",
    "socket:type2:voltage": "400",
    "website": "https://www.mobie.pt"
  }
},
{
  "type": "node",
  "id": 8978106642,
  "lat": 40.6480734,
  "lon": -8.6080387,
  "tags": {
    "access": "yes",
    "addr:country": "PT",
    "authentication:membership_card": "yes",
    "authentication:none": "no",
    "capacity": "2",
    "disused:amenity": "charging_station",
    "email": "apoio.cliente@kmlowcost.com",
    "fee": "yes",
    "motorcar": "yes",
    "name": "AVR-00021 - Magnum Cap",
    "network": "Mobi.E",
    "opening_hours": "24/7",
    "operator": "KLC",
    "parking:fee": "no",
    "phone": "+351 800 296 929",
    "ref": "AVR-00021",
    "socket:type2": "2",
    "socket:type2:current": "32",
    "socket:type2:output": "7.4kW",
    "socket:type2:voltage": "230",
    "website": "https://www.mobie.pt"
  }
},
{
  "type": "node",
  "id": 9036258145,
  "lat": 38.6411889,
  "lon": -9.2367131,
  "tags": {
    "access": "yes",
    "addr:country": "PT",
    "authentication:membership_card": "yes",
    "authentication:none": "no",
    "capacity": "2",
    "disused:amenity": "charging_station",
    "email": "mobilidade.electricacrc@galp.com",
    "fee": "yes",
    "motorcar": "yes",
    "name": "ALM-00017",
    "network": "Mobi.E",
    "opening_hours": "24/7",
    "operator": "Galp Power",
    "parking:fee": "no",
    "phone": "+351 800 249 249",
    "ref": "ALM-00017",
    "socket:type2": "2",
    "socket:type2:current": "32",
    "socket:type2:output": "7.4kW",
    "socket:type2:voltage": "230",
    "website": "https://www.mobie.pt"
  }
},
{
  "type": "node",
  "id": 9191518349,
  "lat": 41.1516362,
  "lon": -8.6062016,
  "tags": {
    "access": "yes",
    "addr:country": "PT",
    "authentication:membership_card": "yes",
    "authentication:none": "no",
    "capacity": "3",
    "disused:amenity": "charging_station",
    "fee": "yes",
    "motorcar": "yes",
    "name": "PRT-00107/108/109 - Garagem Sá da Bandeira",
    "network": "Mobi.E",
    "opening_hours": "24/7",
    "operator": "Galp Power",
    "parking:fee": "yes",
    "ref": "PRT-00107;PRT-00108;PRT-00109",
    "socket:type2": "3",
    "socket:type2:current": "32",
    "socket:type2:output": "22kW",
    "socket:type2:voltage": "400",
    "website": "https://www.mobie.pt/"
  }
},
{
  "type": "node",
  "id": 9219725894,
  "lat": 41.1516597,
  "lon": -8.6061908,
  "tags": {
    "access": "yes",
    "addr:country": "PT",
    "authentication:membership_card": "yes",
    "authentication:none": "no",
    "capacity": "6",
    "disused:amenity": "charging_station",
    "fee": "yes",
    "motorcar": "yes",
    "name": "PRT-00098/99/106 - Garagem Sá da Bandeira",
    "network": "Mobi.E",
    "opening_hours": "24/7",
    "operator": "Galp Power",
    "parking:fee": "yes",
    "ref": "PRT-00098;PRT-00099;PRT-00106",
    "socket:chademo": "3",
    "socket:chademo:current": "120",
    "socket:chademo:output": "50kW",
    "socket:chademo:voltage": "500",
    "socket:type2_cable": "3",
    "socket:type2_cable:current": "63",
    "socket:type2_cable:output": "43kW",
    "socket:type2_cable:voltage": "400",
    "socket:type2_combo": "3",
    "socket:type2_combo:current": "125",
    "socket:type2_combo:output": "50kW",
    "socket:type2_combo:voltage": "500",
    "website": "https://www.mobie.pt/"
  }
}

  ]
}
