{
  "version": 0.6,
  "generator": "Overpass API 0.7.57 93a4d346",
  "osm3s": {
    "copyright": "The data included in this document is from www.openstreetmap.org. The data is made available under ODbL."
  },
  "elements": [

{
  "type": "node",
  "id": 2893492870,
  "lat": 39.7334231,
  "lon": -7.8755008,
  "tags": {
    "access": "yes",
    "amenity": "charging_station",
    "authentication:none": "yes",
    "capacity": "1",
    "fee": "no",
    "name": "Ponto de Carga do Centro Ciência Viva da Floresta",
    "network": "none",
    "note": "Ponto de carga gratuito equipado com uma ficha normal - tipo \"Schuko\".",
    "operator": "Centro Ciência Viva da Floresta",
    "phone": "+351274670220",
    "socket:schuko": "1",
    "socket:schuko:voltage": "230",
    "website": "http://www.ccvfloresta.com/o-centro/servicos/130-ponto-de-carregamento-para-veiculos-eletricos",
    "wheelchair": "yes"
  }
},
{
  "type": "node",
  "id": 3341738489,
  "lat": 41.1740830,
  "lon": -8.5668247,
  "tags": {
    "access": "customers",
    "amenity": "charging_station",
    "authentication:none": "yes",
    "capacity": "3",
    "fee": "no",
    "level": "-1",
    "name": "Parque Nascente",
    "network": "none",
    "operator": "Parque Nascente",
    "socket:cee_blue": "3",
    "socket:cee_blue:current": "16",
    "socket:cee_blue:output": "3.7kW",
    "socket:cee_blue:voltage": "230"
  }
},
{
  "type": "node",
  "id": 6557043974,
  "lat": 40.6070944,
  "lon": -8.6749881,
  "tags": {
    "access": "customers",
    "amenity": "charging_station",
    "motorcar": "yes",
    "name": "Renault Ílhavo",
    "network": "Renault",
    "operator": "Renault"
  }
},
{
  "type": "node",
  "id": 6635524350,
  "lat": 40.6529497,
  "lon": -7.9139509,
  "tags": {
    "access": "customers",
    "amenity": "charging_station",
    "fee": "yes",
    "name": "Pingo Doce",
    "network": "none",
    "operator": "Pingo Doce"
  }
},
{
  "type": "node",
  "id": 8085492052,
  "lat": 37.0979590,
  "lon": -7.9977143,
  "tags": {
    "access": "customers",
    "addr:country": "PT",
    "addr:street": "Mar Shopping Algarve, Avenida Algarve",
    "amenity": "charging_station",
    "authentication:none": "yes",
    "capacity": "8",
    "fee": "no",
    "motorcar": "yes",
    "name": "Mar Shopping Algarve",
    "network": "none",
    "opening_hours": "Mo-Su 10:00-23:00",
    "operator": "Mar Shopping",
    "parking:fee": "no",
    "socket:cee_red_16a": "8",
    "socket:cee_red_16a:output": "11kW",
    "socket:schuko": "8",
    "socket:schuko:output": "2kW"
  }
},
{
  "type": "node",
  "id": 8226584568,
  "lat": 37.1249797,
  "lon": -8.5778575,
  "tags": {
    "access": "private",
    "amenity": "charging_station",
    "bicycle": "no",
    "motorcar": "no",
    "name": "Golfcarts",
    "network": "none",
    "operator": "Hotel Pestana Blue Alvor"
  }
},
{
  "type": "node",
  "id": 8432045101,
  "lat": 40.9026280,
  "lon": -8.4846200,
  "tags": {
    "access": "customers",
    "addr:country": "PT",
    "amenity": "charging_station",
    "capacity": "1",
    "name": "Electrocostura",
    "network": "none",
    "operator": "Electrocostura",
    "socket:cee_red_16a": "1",
    "socket:cee_red_16a:output": "11kW"
  }
},
{
  "type": "node",
  "id": 8891759742,
  "lat": 41.2706830,
  "lon": -7.6742113,
  "tags": {
    "access": "private",
    "amenity": "charging_station",
    "bicycle": "yes",
    "capacity": "1",
    "image": "https://i.imgur.com/d96Z6wi.jpg",
    "motorcar": "yes",
    "name": "ahoxus (call for emergencies)",
    "no:network": "yes",
    "opening_hours": "24/7"
  }
},
{
  "type": "node",
  "id": 9095146043,
  "lat": 39.0539860,
  "lon": -8.9010500,
  "tags": {
    "access": "private",
    "addr:country": "PT",
    "amenity": "charging_station",
    "capacity": "8",
    "name": "Entreposto Sonae",
    "network": "none",
    "operator": "Entreposto Sonae",
    "socket:schuko": "8",
    "socket:schuko:current": "16",
    "socket:schuko:output": "3.6kW",
    "socket:schuko:voltage": "230"
  }
},
{
  "type": "node",
  "id": 9180448193,
  "lat": 41.2580237,
  "lon": -7.7619626,
  "tags": {
    "access": "customers",
    "amenity": "charging_station",
    "authentication:none": "yes",
    "bicycle": "yes",
    "capacity": "3",
    "fee": "no",
    "motorcar": "yes",
    "motorcycle": "yes",
    "name": "Quinta da Cumieira (para emergências)",
    "name:en": "Quinta da Cumieira (for emergencies)",
    "network": "none",
    "note": "Para emergências",
    "note:en": "For emergencies",
    "operator": "Quinta da Cumeira",
    "scooter": "yes",
    "socket:schuko": "2",
    "socket:schuko:current": "16",
    "socket:schuko:output": "3.7kW",
    "socket:schuko:voltage": "230"
  }
}

  ]
}
