{
  "version": 0.6,
  "generator": "Overpass API 0.7.58.5 b0c4acbb",
  "osm3s": {
    "copyright": "The data included in this document is from www.openstreetmap.org. The data is made available under ODbL."
  },
  "elements": [

{
  "type": "node",
  "id": 8322376684,
  "lat": 38.6222730,
  "lon": -9.1339362,
  "tags": {
    "access": "yes",
    "addr:country": "PT",
    "amenity": "charging_station",
    "authentication:membership_card": "yes",
    "authentication:none": "no",
    "capacity": "3",
    "email": "mobilidade-eletrica@edp.pt",
    "fee": "yes",
    "maxstay": "unlimited",
    "motorcar": "yes",
    "name": "SXL-00017 - BP",
    "network": "Mobi.E",
    "opening_hours": "24/7",
    "operator": "EDP Comercial",
    "parking:fee": "no",
    "payment:app": "yes",
    "payment:cards": "no",
    "payment:cash": "no",
    "payment:membership_card": "yes",
    "phone": "+351 800 222 222",
    "ref": "SXL-00017",
    "socket:chademo": "1",
    "socket:chademo:current": "125",
    "socket:chademo:output": "60kW",
    "socket:chademo:voltage": "500",
    "socket:type2": "1",
    "socket:type2:current": "32",
    "socket:type2:output": "22kW",
    "socket:type2:voltage": "400",
    "socket:type2_combo": "1",
    "socket:type2_combo:current": "400",
    "socket:type2_combo:output": "120kW",
    "socket:type2_combo:voltage": "920",
    "website": "https://www.mobie.pt"
  }
},
{
  "type": "node",
  "id": 8387626477,
  "lat": 38.6206363,
  "lon": -8.5803598,
  "tags": {
    "access": "yes",
    "addr:country": "PT",
    "amenity": "charging_station",
    "authentication:membership_card": "yes",
    "authentication:none": "no",
    "capacity": "2",
    "email": "mobilidade-eletrica@edp.pt",
    "fee": "yes",
    "maxstay": "unlimited",
    "motorcar": "yes",
    "name": "VND-00011 - Repsol",
    "network": "Mobi.E",
    "opening_hours": "24/7",
    "operator": "EDP Comercial",
    "parking:fee": "no",
    "payment:app": "yes",
    "payment:cards": "no",
    "payment:cash": "no",
    "payment:membership_card": "yes",
    "phone": "+351 800 222 222",
    "ref": "VND-00011",
    "socket:chademo": "1",
    "socket:chademo:current": "125",
    "socket:chademo:output": "60kW",
    "socket:chademo:voltage": "500",
    "socket:type2_cable": "1",
    "socket:type2_cable:current": "32",
    "socket:type2_cable:output": "22kW",
    "socket:type2_cable:voltage": "400",
    "socket:type2_combo": "1",
    "socket:type2_combo:current": "250",
    "socket:type2_combo:output": "120kW",
    "socket:type2_combo:voltage": "920",
    "website": "https://www.mobie.pt"
  }
},
{
  "type": "node",
  "id": 8387626478,
  "lat": 38.6224506,
  "lon": -8.5780920,
  "tags": {
    "access": "yes",
    "addr:country": "PT",
    "amenity": "charging_station",
    "authentication:membership_card": "yes",
    "authentication:none": "no",
    "capacity": "2",
    "email": "mobilidade-eletrica@edp.pt",
    "fee": "yes",
    "maxstay": "unlimited",
    "motorcar": "yes",
    "name": "VND-00010 - Repsol",
    "network": "Mobi.E",
    "opening_hours": "24/7",
    "operator": "EDP Comercial",
    "parking:fee": "no",
    "payment:app": "yes",
    "payment:cards": "no",
    "payment:cash": "no",
    "payment:membership_card": "yes",
    "phone": "+351 800 222 222",
    "ref": "VND-00010",
    "socket:chademo": "1",
    "socket:chademo:current": "125",
    "socket:chademo:output": "60kW",
    "socket:chademo:voltage": "500",
    "socket:type2_cable": "1",
    "socket:type2_cable:current": "32",
    "socket:type2_cable:output": "22kW",
    "socket:type2_cable:voltage": "400",
    "socket:type2_combo": "1",
    "socket:type2_combo:current": "250",
    "socket:type2_combo:output": "120kW",
    "socket:type2_combo:voltage": "920",
    "website": "https://www.mobie.pt"
  }
},
{
  "type": "node",
  "id": 8917640566,
  "lat": 41.2325024,
  "lon": -8.1790304,
  "tags": {
    "access": "yes",
    "addr:country": "PT",
    "amenity": "charging_station",
    "authentication:membership_card": "yes",
    "authentication:none": "no",
    "capacity": "3",
    "email": "mobilidade-eletrica@edp.pt",
    "fee": "yes",
    "maxstay": "unlimited",
    "motorcar": "yes",
    "name": "PNF-00015",
    "network": "Mobi.E",
    "opening_hours": "24/7",
    "operator": "EDP Comercial",
    "parking:fee": "no",
    "payment:app": "yes",
    "payment:cards": "no",
    "payment:cash": "no",
    "payment:membership_card": "yes",
    "phone": "+351 800 222 222",
    "ref": "PNF-00015",
    "socket:chademo": "1",
    "socket:chademo:current": "125",
    "socket:chademo:output": "60kW",
    "socket:chademo:voltage": "500",
    "socket:type2": "1",
    "socket:type2:current": "32",
    "socket:type2:output": "22kW",
    "socket:type2:voltage": "400",
    "socket:type2_cable": "1",
    "socket:type2_cable:current": "63",
    "socket:type2_cable:output": "43kW",
    "socket:type2_cable:voltage": "400",
    "socket:type2_combo": "1",
    "socket:type2_combo:current": "250",
    "socket:type2_combo:output": "120kW",
    "socket:type2_combo:voltage": "920",
    "website": "https://www.mobie.pt"
  }
},
{
  "type": "node",
  "id": 8917640568,
  "lat": 41.2327068,
  "lon": -8.1783367,
  "tags": {
    "access": "yes",
    "addr:country": "PT",
    "amenity": "charging_station",
    "authentication:membership_card": "yes",
    "authentication:none": "no",
    "capacity": "3",
    "email": "mobilidade-eletrica@edp.pt",
    "fee": "yes",
    "maxstay": "unlimited",
    "motorcar": "yes",
    "name": "PNF-00014",
    "network": "Mobi.E",
    "opening_hours": "24/7",
    "operator": "EDP Comercial",
    "parking:fee": "no",
    "payment:app": "yes",
    "payment:cards": "no",
    "payment:cash": "no",
    "payment:membership_card": "yes",
    "phone": "+351 800 222 222",
    "ref": "PNF-00014",
    "socket:chademo": "1",
    "socket:chademo:current": "125",
    "socket:chademo:output": "60kW",
    "socket:chademo:voltage": "500",
    "socket:type2": "1",
    "socket:type2:current": "32",
    "socket:type2:output": "22kW",
    "socket:type2:voltage": "400",
    "socket:type2_combo": "1",
    "socket:type2_combo:current": "250",
    "socket:type2_combo:output": "120kW",
    "socket:type2_combo:voltage": "920",
    "website": "https://www.mobie.pt"
  }
},
{
  "type": "node",
  "id": 8969154278,
  "lat": 40.3318374,
  "lon": -8.4939276,
  "tags": {
    "access": "yes",
    "addr:country": "PT",
    "amenity": "charging_station",
    "authentication:membership_card": "yes",
    "authentication:none": "no",
    "capacity": "2",
    "email": "mobilidade-eletrica@edp.pt",
    "fee": "yes",
    "maxstay": "unlimited",
    "motorcar": "yes",
    "name": "CNT-00010",
    "network": "Mobi.E",
    "opening_hours": "24/7",
    "operator": "EDP Comercial",
    "parking:fee": "no",
    "payment:app": "yes",
    "payment:cards": "no",
    "payment:cash": "no",
    "payment:membership_card": "yes",
    "phone": "+351 800 222 222",
    "ref": "CNT-00010",
    "socket:chademo": "1",
    "socket:chademo:current": "125",
    "socket:chademo:output": "30kW",
    "socket:chademo:voltage": "500",
    "socket:type2": "1",
    "socket:type2:current": "32",
    "socket:type2:output": "22kW",
    "socket:type2:voltage": "400",
    "socket:type2_combo": "1",
    "socket:type2_combo:current": "250",
    "socket:type2_combo:output": "90kW",
    "socket:type2_combo:voltage": "920",
    "website": "https://www.mobie.pt"
  }
},
{
  "type": "node",
  "id": 8969154280,
  "lat": 40.3342511,
  "lon": -8.4923994,
  "tags": {
    "access": "yes",
    "addr:country": "PT",
    "amenity": "charging_station",
    "authentication:membership_card": "yes",
    "authentication:none": "no",
    "capacity": "2",
    "email": "mobilidade-eletrica@edp.pt",
    "fee": "yes",
    "maxstay": "unlimited",
    "motorcar": "yes",
    "name": "CNT-00011",
    "network": "Mobi.E",
    "opening_hours": "24/7",
    "operator": "EDP Comercial",
    "parking:fee": "no",
    "payment:app": "yes",
    "payment:cards": "no",
    "payment:cash": "no",
    "payment:membership_card": "yes",
    "phone": "+351 800 222 222",
    "ref": "CNT-00011",
    "socket:chademo": "1",
    "socket:chademo:current": "125",
    "socket:chademo:output": "60kW",
    "socket:chademo:voltage": "500",
    "socket:type2": "1",
    "socket:type2:current": "63",
    "socket:type2:output": "43kW",
    "socket:type2:voltage": "400",
    "socket:type2_combo": "1",
    "socket:type2_combo:current": "250",
    "socket:type2_combo:output": "120kW",
    "socket:type2_combo:voltage": "1000",
    "website": "https://www.mobie.pt"
  }
},
{
  "type": "node",
  "id": 9023863812,
  "lat": 39.3924057,
  "lon": -8.6382359,
  "tags": {
    "access": "yes",
    "addr:country": "PT",
    "addr:street": "Área de Serviço de Santarém",
    "amenity": "charging_station",
    "authentication:membership_card": "yes",
    "authentication:none": "no",
    "capacity": "2",
    "email": "mobilidade-eletrica@edp.pt",
    "fee": "yes",
    "maxstay": "unlimited",
    "motorcar": "yes",
    "name": "STR-00024 - BP",
    "network": "Mobi.E",
    "opening_hours": "24/7",
    "operator": "EDP Comercial",
    "parking:fee": "no",
    "payment:app": "yes",
    "payment:cards": "no",
    "payment:cash": "no",
    "payment:membership_card": "yes",
    "phone": "+351 800 222 222",
    "ref": "STR-00024",
    "socket:chademo": "1",
    "socket:chademo:current": "120",
    "socket:chademo:output": "60kW",
    "socket:chademo:voltage": "500",
    "socket:type2": "1",
    "socket:type2:current": "32",
    "socket:type2:output": "22kW",
    "socket:type2:voltage": "400",
    "socket:type2_combo": "1",
    "socket:type2_combo:current": "250",
    "socket:type2_combo:output": "120kW",
    "socket:type2_combo:voltage": "1000",
    "website": "https://www.mobie.pt"
  }
},
{
  "type": "node",
  "id": 9033085848,
  "lat": 38.1677439,
  "lon": -8.4914175,
  "tags": {
    "access": "yes",
    "addr:country": "PT",
    "amenity": "charging_station",
    "authentication:membership_card": "yes",
    "authentication:none": "no",
    "capacity": "2",
    "email": "mobilidade-eletrica@edp.pt",
    "fee": "yes",
    "maxstay": "unlimited",
    "motorcar": "yes",
    "name": "GDL-00009 - Repsol S>N",
    "network": "Mobi.E",
    "opening_hours": "24/7",
    "operator": "EDP Comercial",
    "parking:fee": "no",
    "payment:app": "yes",
    "payment:cards": "no",
    "payment:cash": "no",
    "payment:membership_card": "yes",
    "phone": "+351 800 222 222",
    "ref": "GDL-00009",
    "socket:chademo": "1",
    "socket:chademo:current": "125",
    "socket:chademo:output": "60kW",
    "socket:chademo:voltage": "500",
    "socket:type2_cable": "1",
    "socket:type2_cable:current": "32",
    "socket:type2_cable:output": "22kW",
    "socket:type2_cable:voltage": "400",
    "socket:type2_combo": "1",
    "socket:type2_combo:current": "250",
    "socket:type2_combo:output": "120kW",
    "socket:type2_combo:voltage": "920",
    "website": "https://www.mobie.pt"
  }
},
{
  "type": "node",
  "id": 9033085849,
  "lat": 38.1669278,
  "lon": -8.4919612,
  "tags": {
    "access": "yes",
    "addr:country": "PT",
    "amenity": "charging_station",
    "authentication:membership_card": "yes",
    "authentication:none": "no",
    "capacity": "2",
    "email": "mobilidade-eletrica@edp.pt",
    "fee": "yes",
    "maxstay": "unlimited",
    "motorcar": "yes",
    "name": "GDL-00008 - Repsol N>S",
    "network": "Mobi.E",
    "opening_hours": "24/7",
    "operator": "EDP Comercial",
    "parking:fee": "no",
    "payment:app": "yes",
    "payment:cards": "no",
    "payment:cash": "no",
    "payment:membership_card": "yes",
    "phone": "+351 800 222 222",
    "ref": "GDL-00008",
    "socket:chademo": "1",
    "socket:chademo:current": "125",
    "socket:chademo:output": "60kW",
    "socket:chademo:voltage": "500",
    "socket:type2_cable": "1",
    "socket:type2_cable:current": "32",
    "socket:type2_cable:output": "22kW",
    "socket:type2_cable:voltage": "400",
    "socket:type2_combo": "1",
    "socket:type2_combo:current": "250",
    "socket:type2_combo:output": "120kW",
    "socket:type2_combo:voltage": "920",
    "website": "https://www.mobie.pt"
  }
},
{
  "type": "node",
  "id": 9043918677,
  "lat": 41.1014631,
  "lon": -8.5982174,
  "tags": {
    "access": "yes",
    "addr:country": "PT",
    "amenity": "charging_station",
    "authentication:membership_card": "yes",
    "authentication:none": "no",
    "capacity": "2",
    "email": "mobilidade-eletrica@edp.pt",
    "fee": "yes",
    "maxstay": "unlimited",
    "motorcar": "yes",
    "name": "VNG-00072 - Repsol",
    "network": "Mobi.E",
    "opening_hours": "24/7",
    "operator": "EDP Comercial",
    "parking:fee": "no",
    "payment:app": "yes",
    "payment:cards": "no",
    "payment:cash": "no",
    "payment:membership_card": "yes",
    "phone": "+351 800 222 222",
    "ref": "VNG-00072",
    "socket:chademo": "1",
    "socket:chademo:current": "125",
    "socket:chademo:output": "60kW",
    "socket:chademo:voltage": "500",
    "socket:type2": "1",
    "socket:type2:current": "32",
    "socket:type2:output": "22kW",
    "socket:type2:voltage": "400",
    "socket:type2_combo": "1",
    "socket:type2_combo:current": "250",
    "socket:type2_combo:output": "120kW",
    "socket:type2_combo:voltage": "1000",
    "website": "https://www.mobie.pt"
  }
},
{
  "type": "node",
  "id": 9043918679,
  "lat": 41.1009918,
  "lon": -8.5988708,
  "tags": {
    "access": "yes",
    "addr:country": "PT",
    "amenity": "charging_station",
    "authentication:membership_card": "yes",
    "authentication:none": "no",
    "capacity": "2",
    "email": "mobilidade-eletrica@edp.pt",
    "fee": "yes",
    "maxstay": "unlimited",
    "motorcar": "yes",
    "name": "VNG-00073 - Repsol",
    "network": "Mobi.E",
    "opening_hours": "24/7",
    "operator": "EDP Comercial",
    "parking:fee": "no",
    "payment:app": "yes",
    "payment:cards": "no",
    "payment:cash": "no",
    "payment:membership_card": "yes",
    "phone": "+351 800 222 222",
    "ref": "VNG-00073",
    "socket:chademo": "1",
    "socket:chademo:current": "125",
    "socket:chademo:output": "60kW",
    "socket:chademo:voltage": "500",
    "socket:type2": "1",
    "socket:type2:current": "32",
    "socket:type2:output": "22kW",
    "socket:type2:voltage": "400",
    "socket:type2_combo": "1",
    "socket:type2_combo:current": "250",
    "socket:type2_combo:output": "120kW",
    "socket:type2_combo:voltage": "1000",
    "website": "https://www.mobie.pt"
  }
},
{
  "type": "node",
  "id": 9225441577,
  "lat": 38.7052310,
  "lon": -9.3018030,
  "tags": {
    "access": "yes",
    "addr:country": "PT",
    "amenity": "charging_station",
    "authentication:membership_card": "yes",
    "authentication:none": "no",
    "capacity": "8",
    "email": "ajuda@powerdot.pt",
    "fee": "yes",
    "level": "-2",
    "location": "underground",
    "maxstay": "unlimited",
    "motorcar": "yes",
    "name": "OER-00095/96/97/98 - Oeiras Parque",
    "network": "Mobi.E",
    "opening_hours": "Mo-Su 10:00-23:00",
    "operator": "Powerdot",
    "parking:fee": "yes",
    "payment:app": "yes",
    "payment:cards": "no",
    "payment:cash": "no",
    "payment:membership_card": "yes",
    "phone": "+351 800 180 292",
    "ref": "OER-00095;OER-00096;OER-00097;OER-00098",
    "socket:chademo": "2",
    "socket:chademo:current": "120",
    "socket:chademo:output": "50kW",
    "socket:chademo:voltage": "500",
    "socket:type2": "4",
    "socket:type2:current": "32",
    "socket:type2:output": "22kW",
    "socket:type2:voltage": "400",
    "socket:type2_combo": "2",
    "socket:type2_combo:current": "200",
    "socket:type2_combo:output": "100kW",
    "socket:type2_combo:voltage": "1000",
    "website": "https://www.mobie.pt/"
  }
},
{
  "type": "node",
  "id": 9397572595,
  "lat": 41.1812230,
  "lon": -8.5361470,
  "tags": {
    "access": "yes",
    "addr:country": "PT",
    "amenity": "charging_station",
    "authentication:membership_card": "yes",
    "authentication:none": "no",
    "capacity": "1",
    "email": "ajuda@powerdot.pt",
    "fee": "yes",
    "maxstay": "unlimited",
    "motorcar": "yes",
    "name": "GDM-00012 - Q8",
    "network": "Mobi.E",
    "opening_hours": "24/7",
    "operator": "Powerdot",
    "parking:fee": "no",
    "payment:app": "yes",
    "payment:cards": "no",
    "payment:cash": "no",
    "payment:membership_card": "yes",
    "phone": "+351 800 180 292",
    "ref": "GDM-00012",
    "socket:chademo": "1",
    "socket:chademo:current": "125",
    "socket:chademo:output": "50kW",
    "socket:chademo:voltage": "500",
    "socket:type2_combo": "1",
    "socket:type2_combo:current": "250",
    "socket:type2_combo:output": "100kW",
    "socket:type2_combo:voltage": "500",
    "website": "https://www.mobie.pt/"
  }
},
{
  "type": "node",
  "id": 9432160639,
  "lat": 41.7613989,
  "lon": -7.4866176,
  "tags": {
    "access": "yes",
    "addr:country": "PT",
    "amenity": "charging_station",
    "authentication:membership_card": "yes",
    "authentication:none": "no",
    "capacity": "1",
    "email": "ajuda@powerdot.pt",
    "fee": "yes",
    "maxstay": "unlimited",
    "motorcar": "yes",
    "name": "CHV-00005 - Hotel Casino",
    "network": "Mobi.E",
    "opening_hours": "24/7",
    "operator": "Powerdot",
    "parking:fee": "no",
    "payment:app": "yes",
    "payment:cards": "no",
    "payment:cash": "no",
    "payment:membership_card": "yes",
    "phone": "+351 800 180 292",
    "ref": "CHV-00005",
    "socket:chademo": "1",
    "socket:chademo:current": "120",
    "socket:chademo:output": "50kW",
    "socket:chademo:voltage": "500",
    "socket:type2_combo": "1",
    "socket:type2_combo:current": "250",
    "socket:type2_combo:output": "100kW",
    "socket:type2_combo:voltage": "1000",
    "website": "https://www.mobie.pt/"
  }
},
{
  "type": "node",
  "id": 9456618843,
  "lat": 39.7672551,
  "lon": -8.7741226,
  "tags": {
    "access": "yes",
    "addr:country": "PT",
    "amenity": "charging_station",
    "authentication:membership_card": "yes",
    "authentication:none": "no",
    "capacity": "2",
    "fee": "yes",
    "maxstay": "unlimited",
    "motorcar": "yes",
    "name": "LRA-00047 - Lubrigaz",
    "network": "Mobi.E",
    "opening_hours": "24/7",
    "operator": "Moon",
    "parking:fee": "no",
    "payment:app": "yes",
    "payment:cards": "no",
    "payment:cash": "no",
    "payment:membership_card": "yes",
    "ref": "LRA-00047",
    "socket:chademo": "1",
    "socket:chademo:current": "120",
    "socket:chademo:output": "75kW",
    "socket:chademo:voltage": "500",
    "socket:type2_cable": "1",
    "socket:type2_cable:current": "32",
    "socket:type2_cable:output": "22kW",
    "socket:type2_cable:voltage": "400",
    "socket:type2_combo": "1",
    "socket:type2_combo:current": "150",
    "socket:type2_combo:output": "75kW",
    "socket:type2_combo:voltage": "500",
    "website": "https://www.mobie.pt/"
  }
},
{
  "type": "node",
  "id": 9456735231,
  "lat": 39.1700864,
  "lon": -8.7770033,
  "tags": {
    "access": "yes",
    "addr:country": "PT",
    "amenity": "charging_station",
    "authentication:membership_card": "yes",
    "authentication:none": "no",
    "capacity": "1",
    "email": "ajuda@powerdot.pt",
    "fee": "yes",
    "maxstay": "unlimited",
    "motorcar": "yes",
    "name": "CTX-00003 - Q8",
    "network": "Mobi.E",
    "opening_hours": "24/7",
    "operator": "Powerdot",
    "parking:fee": "no",
    "payment:app": "yes",
    "payment:cards": "no",
    "payment:cash": "no",
    "payment:membership_card": "yes",
    "phone": "+351 800 180 292",
    "ref": "CTX-00003",
    "socket:chademo": "1",
    "socket:chademo:current": "120",
    "socket:chademo:output": "50kW",
    "socket:chademo:voltage": "500",
    "socket:type2_combo": "1",
    "socket:type2_combo:current": "250",
    "socket:type2_combo:output": "100kW",
    "socket:type2_combo:voltage": "500",
    "website": "https://www.mobie.pt/"
  }
},
{
  "type": "node",
  "id": 9458801227,
  "lat": 32.6470946,
  "lon": -16.9401535,
  "tags": {
    "access": "yes",
    "addr:country": "PT",
    "amenity": "charging_station",
    "authentication:membership_card": "yes",
    "authentication:none": "no",
    "capacity": "3",
    "email": "mobilidade-eletrica@edp.pt",
    "fee": "yes",
    "maxstay": "unlimited",
    "motorcar": "yes",
    "name": "FUN-00031 - McDonald's",
    "network": "Mobi.E",
    "opening_hours": "24/7",
    "operator": "EDP Comercial",
    "parking:fee": "no",
    "payment:app": "yes",
    "payment:cards": "no",
    "payment:cash": "no",
    "payment:membership_card": "yes",
    "phone": "+351 800 222 222",
    "ref": "FUN-00031",
    "socket:chademo": "1",
    "socket:chademo:current": "125",
    "socket:chademo:output": "50kW",
    "socket:chademo:voltage": "500",
    "socket:type2": "1",
    "socket:type2:current": "32",
    "socket:type2:output": "22kW",
    "socket:type2:voltage": "400",
    "socket:type2_combo": "1",
    "socket:type2_combo:current": "250",
    "socket:type2_combo:output": "90kW",
    "socket:type2_combo:voltage": "920",
    "website": "https://www.mobie.pt/"
  }
},
{
  "type": "node",
  "id": 9595718482,
  "lat": 38.6535674,
  "lon": -9.0264863,
  "tags": {
    "access": "yes",
    "addr:country": "PT",
    "amenity": "charging_station",
    "authentication:membership_card": "yes",
    "authentication:none": "no",
    "capacity": "4",
    "fee": "yes",
    "maxstay": "unlimited",
    "motorcar": "yes",
    "name": "MTA-00004/5 - Intermarché",
    "network": "Mobi.E",
    "opening_hours": "24/7",
    "operator": "Mobiletric",
    "parking:fee": "no",
    "payment:app": "yes",
    "payment:cards": "no",
    "payment:cash": "no",
    "payment:membership_card": "yes",
    "ref": "MTA-00004;MTA-00005",
    "socket:chademo": "2",
    "socket:chademo:current": "125",
    "socket:chademo:output": "60kW",
    "socket:chademo:voltage": "500",
    "socket:type2_combo": "2",
    "socket:type2_combo:current": "190",
    "socket:type2_combo:output": "90kW",
    "socket:type2_combo:voltage": "920",
    "website": "https://www.mobie.pt/"
  }
},
{
  "type": "node",
  "id": 9644000006,
  "lat": 41.1960644,
  "lon": -8.6886529,
  "tags": {
    "access": "yes",
    "addr:country": "PT",
    "amenity": "charging_station",
    "authentication:membership_card": "yes",
    "authentication:none": "no",
    "capacity": "1",
    "fee": "yes",
    "maxstay": "unlimited",
    "motorcar": "yes",
    "name": "MTS-00045 - AEP",
    "network": "Mobi.E",
    "opening_hours": "24/7",
    "operator": "EcoInside",
    "parking:fee": "no",
    "payment:app": "yes",
    "payment:cards": "no",
    "payment:cash": "no",
    "payment:membership_card": "yes",
    "ref": "MTS-00045",
    "socket:chademo": "1",
    "socket:chademo:current": "120",
    "socket:chademo:output": "50kW",
    "socket:chademo:voltage": "500",
    "socket:type2_combo": "1",
    "socket:type2_combo:current": "125",
    "socket:type2_combo:output": "120kW",
    "socket:type2_combo:voltage": "920",
    "website": "https://www.mobie.pt/"
  }
},
{
  "type": "node",
  "id": 9646897025,
  "lat": 40.7557100,
  "lon": -8.5351900,
  "tags": {
    "access": "yes",
    "addr:country": "PT",
    "amenity": "charging_station",
    "authentication:membership_card": "yes",
    "authentication:none": "no",
    "capacity": "1",
    "email": "mobilidade-eletrica@edp.pt",
    "fee": "yes",
    "maxstay": "unlimited",
    "motorcar": "yes",
    "name": "ETR-00011 - Repsol",
    "network": "Mobi.E",
    "opening_hours": "24/7",
    "operator": "EDP Comercial",
    "parking:fee": "no",
    "payment:app": "yes",
    "payment:cards": "no",
    "payment:cash": "no",
    "payment:membership_card": "yes",
    "phone": "+351 800 222 222",
    "ref": "ETR-00011",
    "socket:chademo": "1",
    "socket:chademo:current": "125",
    "socket:chademo:output": "60kW",
    "socket:chademo:voltage": "500",
    "socket:type2": "1",
    "socket:type2:current": "32",
    "socket:type2:output": "22kW",
    "socket:type2:voltage": "400",
    "socket:type2_combo": "1",
    "socket:type2_combo:current": "250",
    "socket:type2_combo:output": "120kW",
    "socket:type2_combo:voltage": "1000",
    "website": "https://www.mobie.pt/"
  }
},
{
  "type": "node",
  "id": 9668119757,
  "lat": 40.7552546,
  "lon": -8.5365875,
  "tags": {
    "access": "yes",
    "addr:country": "PT",
    "amenity": "charging_station",
    "authentication:membership_card": "yes",
    "authentication:none": "no",
    "capacity": "2",
    "email": "mobilidade-eletrica@edp.pt",
    "fee": "yes",
    "maxstay": "unlimited",
    "motorcar": "yes",
    "name": "ETR-00010 - Repsol",
    "network": "Mobi.E",
    "opening_hours": "24/7",
    "operator": "EDP Comercial",
    "parking:fee": "no",
    "payment:app": "yes",
    "payment:cards": "no",
    "payment:cash": "no",
    "payment:membership_card": "yes",
    "phone": "+351 800 222 222",
    "ref": "ETR-00010",
    "socket:chademo": "1",
    "socket:chademo:current": "125",
    "socket:chademo:output": "60kW",
    "socket:chademo:voltage": "500",
    "socket:type2": "1",
    "socket:type2:current": "32",
    "socket:type2:output": "22kW",
    "socket:type2:voltage": "400",
    "socket:type2_combo": "1",
    "socket:type2_combo:current": "150",
    "socket:type2_combo:output": "90kW",
    "socket:type2_combo:voltage": "1000",
    "website": "https://www.mobie.pt/"
  }
},
{
  "type": "node",
  "id": 9731158484,
  "lat": 41.8650921,
  "lon": -8.8488509,
  "tags": {
    "access": "yes",
    "addr:country": "PT",
    "amenity": "charging_station",
    "authentication:membership_card": "yes",
    "authentication:none": "no",
    "capacity": "2",
    "email": "ajuda@powerdot.pt",
    "fee": "yes",
    "maxstay": "unlimited",
    "motorcar": "yes",
    "name": "CMN-00003 - Hotel Porta do Sol",
    "network": "Mobi.E",
    "opening_hours": "24/7",
    "operator": "Powerdot",
    "parking:fee": "no",
    "payment:app": "yes",
    "payment:cards": "no",
    "payment:cash": "no",
    "payment:membership_card": "yes",
    "phone": "+351 800 180 292",
    "ref": "CMN-00003",
    "socket:chademo": "1",
    "socket:chademo:current": "120",
    "socket:chademo:output": "50kW",
    "socket:chademo:voltage": "500",
    "socket:type2": "1",
    "socket:type2:current": "32",
    "socket:type2:output": "22kW",
    "socket:type2:voltage": "400",
    "socket:type2_combo": "1",
    "socket:type2_combo:current": "250",
    "socket:type2_combo:output": "120kW",
    "socket:type2_combo:voltage": "1000",
    "website": "https://www.mobie.pt/"
  }
},
{
  "type": "node",
  "id": 9731158486,
  "lat": 41.8651070,
  "lon": -8.8488396,
  "tags": {
    "access": "yes",
    "addr:country": "PT",
    "amenity": "charging_station",
    "authentication:membership_card": "yes",
    "authentication:none": "no",
    "capacity": "2",
    "email": "ajuda@powerdot.pt",
    "fee": "yes",
    "maxstay": "unlimited",
    "motorcar": "yes",
    "name": "CMN-00002 - Hotel Porta do Sol",
    "network": "Mobi.E",
    "opening_hours": "24/7",
    "operator": "Powerdot",
    "parking:fee": "no",
    "payment:app": "yes",
    "payment:cards": "no",
    "payment:cash": "no",
    "payment:membership_card": "yes",
    "phone": "+351 800 180 292",
    "ref": "CMN-00002",
    "socket:type2": "1",
    "socket:type2:current": "32",
    "socket:type2:output": "22kW",
    "socket:type2:voltage": "400",
    "socket:type2_combo": "2",
    "socket:type2_combo:current": "250",
    "socket:type2_combo:output": "120kW",
    "socket:type2_combo:voltage": "1000",
    "website": "https://www.mobie.pt/"
  }
},
{
  "type": "node",
  "id": 9731247062,
  "lat": 41.3426196,
  "lon": -8.4936193,
  "tags": {
    "access": "yes",
    "addr:country": "PT",
    "amenity": "charging_station",
    "authentication:membership_card": "yes",
    "authentication:none": "no",
    "capacity": "1",
    "email": "ajuda@powerdot.pt",
    "fee": "yes",
    "maxstay": "unlimited",
    "motorcar": "yes",
    "name": "STS-00012 - Q8",
    "network": "Mobi.E",
    "opening_hours": "24/7",
    "operator": "Powerdot",
    "parking:fee": "no",
    "payment:app": "yes",
    "payment:cards": "no",
    "payment:cash": "no",
    "payment:membership_card": "yes",
    "phone": "+351 800 180 292",
    "ref": "STS-00012",
    "socket:chademo": "1",
    "socket:chademo:current": "120",
    "socket:chademo:output": "50kW",
    "socket:chademo:voltage": "500",
    "socket:type2_combo": "1",
    "socket:type2_combo:current": "250",
    "socket:type2_combo:output": "100kW",
    "socket:type2_combo:voltage": "1000",
    "website": "https://www.mobie.pt/"
  }
},
{
  "type": "node",
  "id": 9788601727,
  "lat": 41.1531643,
  "lon": -8.6537477,
  "tags": {
    "access": "yes",
    "addr:country": "PT",
    "amenity": "charging_station",
    "authentication:membership_card": "yes",
    "authentication:none": "no",
    "capacity": "2",
    "fee": "yes",
    "maxstay": "unlimited",
    "motorcar": "yes",
    "name": "PRT-00138 - Retail Park",
    "network": "Mobi.E",
    "opening_hours": "24/7",
    "operator": "Mobiletric",
    "parking:fee": "no",
    "payment:app": "yes",
    "payment:cards": "no",
    "payment:cash": "no",
    "payment:membership_card": "yes",
    "ref": "PRT-00138",
    "socket:type2_combo": "2",
    "socket:type2_combo:current": "182",
    "socket:type2_combo:output": "120kW",
    "socket:type2_combo:voltage": "920",
    "website": "https://www.mobie.pt/"
  }
},
{
  "type": "node",
  "id": 9847687371,
  "lat": 39.2610969,
  "lon": -8.6817715,
  "tags": {
    "access": "yes",
    "addr:city": "Santarém",
    "addr:country": "PT",
    "amenity": "charging_station",
    "authentication:membership_card": "yes",
    "authentication:none": "no",
    "capacity": "2",
    "fee": "yes",
    "maxstay": "unlimited",
    "motorcar": "yes",
    "name": "STR-00026 - Complexo Aquático de Santarém",
    "network": "Mobi.E",
    "opening_hours": "24/7",
    "operator": "NRG",
    "parking:fee": "no",
    "payment:app": "yes",
    "payment:cards": "no",
    "payment:cash": "no",
    "payment:membership_card": "yes",
    "ref": "STR-00026",
    "socket:chademo": "1",
    "socket:chademo:current": "200",
    "socket:chademo:output": "100kW",
    "socket:chademo:voltage": "500",
    "socket:type2_combo": "1",
    "socket:type2_combo:current": "200",
    "socket:type2_combo:output": "100kW",
    "socket:type2_combo:voltage": "950",
    "website": "https://www.mobie.pt/"
  }
},
{
  "type": "node",
  "id": 9847958423,
  "lat": 40.2704650,
  "lon": -7.4939971,
  "tags": {
    "access": "yes",
    "addr:city": "Covilhã",
    "addr:country": "PT",
    "amenity": "charging_station",
    "authentication:membership_card": "yes",
    "authentication:none": "no",
    "capacity": "2",
    "email": "mobilidade.electricacrc@galp.com",
    "fee": "yes",
    "maxstay": "unlimited",
    "motorcar": "yes",
    "name": "CVL-00007 - Intermarché",
    "network": "Mobi.E",
    "opening_hours": "24/7",
    "operator": "Galp Power",
    "parking:fee": "no",
    "payment:app": "yes",
    "payment:cards": "no",
    "payment:cash": "no",
    "payment:membership_card": "yes",
    "phone": "+351 800 249 249",
    "ref": "CVL-00007",
    "socket:chademo": "1",
    "socket:chademo:current": "125",
    "socket:chademo:output": "60kW",
    "socket:chademo:voltage": "500",
    "socket:type2_combo": "1",
    "socket:type2_combo:current": "200",
    "socket:type2_combo:output": "90kW",
    "socket:type2_combo:voltage": "920",
    "website": "https://www.mobie.pt/"
  }
},
{
  "type": "node",
  "id": 9847958424,
  "lat": 41.1941050,
  "lon": -8.5165480,
  "tags": {
    "access": "yes",
    "addr:city": "Paredes",
    "addr:country": "PT",
    "amenity": "charging_station",
    "authentication:membership_card": "yes",
    "authentication:none": "no",
    "capacity": "2",
    "email": "mobilidade.electricacrc@galp.com",
    "fee": "yes",
    "maxstay": "unlimited",
    "motorcar": "yes",
    "name": "VLG-00017 - Galp",
    "network": "Mobi.E",
    "opening_hours": "24/7",
    "operator": "Galp Geste",
    "parking:fee": "no",
    "payment:app": "yes",
    "payment:cards": "no",
    "payment:cash": "no",
    "payment:membership_card": "yes",
    "phone": "+351 800 249 249",
    "ref": "VLG-00017",
    "socket:chademo": "1",
    "socket:chademo:current": "125",
    "socket:chademo:output": "60kW",
    "socket:chademo:voltage": "500",
    "socket:type2_combo": "1",
    "socket:type2_combo:current": "300",
    "socket:type2_combo:output": "120kW",
    "socket:type2_combo:voltage": "920",
    "website": "https://www.mobie.pt/"
  }
},
{
  "type": "node",
  "id": 9847958425,
  "lat": 41.2056791,
  "lon": -8.3375684,
  "tags": {
    "access": "yes",
    "addr:city": "Paredes",
    "addr:country": "PT",
    "amenity": "charging_station",
    "authentication:membership_card": "yes",
    "authentication:none": "no",
    "capacity": "2",
    "email": "mobilidade.electricacrc@galp.com",
    "fee": "yes",
    "maxstay": "unlimited",
    "motorcar": "yes",
    "name": "PRD-00010 - Galp",
    "network": "Mobi.E",
    "opening_hours": "24/7",
    "operator": "Galp Geste",
    "parking:fee": "no",
    "payment:app": "yes",
    "payment:cards": "no",
    "payment:cash": "no",
    "payment:membership_card": "yes",
    "phone": "+351 800 249 249",
    "ref": "PRD-00010",
    "socket:chademo": "1",
    "socket:chademo:current": "125",
    "socket:chademo:output": "60kW",
    "socket:chademo:voltage": "500",
    "socket:type2_combo": "1",
    "socket:type2_combo:current": "300",
    "socket:type2_combo:output": "120kW",
    "socket:type2_combo:voltage": "920",
    "website": "https://www.mobie.pt/"
  }
},
{
  "type": "node",
  "id": 9899480370,
  "lat": 40.6318543,
  "lon": -8.6384339,
  "tags": {
    "access": "yes",
    "addr:city": "Aveiro",
    "addr:country": "PT",
    "addr:street": "Rua Nova de Vilar",
    "amenity": "charging_station",
    "authentication:membership_card": "yes",
    "authentication:none": "no",
    "capacity": "3",
    "fee": "yes",
    "maxstay": "unlimited",
    "motorcar": "yes",
    "name": "AVR-00037",
    "network": "Mobi.E",
    "old_ref": "AVR-00019",
    "opening_hours": "24/7",
    "operator": "Powerdot",
    "parking:fee": "no",
    "payment:app": "yes",
    "payment:cards": "no",
    "payment:cash": "no",
    "payment:membership_card": "yes",
    "ref": "AVR-00037",
    "socket:chademo": "1",
    "socket:chademo:current": "125",
    "socket:chademo:output": "60kW",
    "socket:chademo:voltage": "500",
    "socket:type2": "1",
    "socket:type2:current": "32",
    "socket:type2:output": "22kW",
    "socket:type2:voltage": "400",
    "socket:type2_combo": "1",
    "socket:type2_combo:current": "200",
    "socket:type2_combo:output": "120kW",
    "socket:type2_combo:voltage": "920",
    "website": "https://www.mobie.pt/"
  }
},
{
  "type": "node",
  "id": 9906479234,
  "lat": 37.1322545,
  "lon": -8.3593149,
  "tags": {
    "access": "yes",
    "addr:country": "PT",
    "amenity": "charging_station",
    "authentication:membership_card": "yes",
    "authentication:none": "no",
    "capacity": "6",
    "fee": "yes",
    "maxstay": "unlimited",
    "motorcar": "yes",
    "name": "Sudoeste Retail Park",
    "network": "Mobi.E",
    "opening_hours": "24/7",
    "operator": "Powerdot",
    "parking:fee": "no",
    "payment:app": "yes",
    "payment:cards": "no",
    "payment:cash": "no",
    "payment:membership_card": "yes",
    "ref": "FAR-00028;FAR-00029;FAR-00033",
    "socket:chademo": "1",
    "socket:chademo:current": "200",
    "socket:chademo:output": "100kW",
    "socket:chademo:voltage": "500",
    "socket:type2": "2",
    "socket:type2:current": "32",
    "socket:type2:output": "22kW",
    "socket:type2:voltage": "400",
    "socket:type2_combo": "3",
    "socket:type2_combo:current": "250",
    "socket:type2_combo:output": "100kW",
    "socket:type2_combo:voltage": "500",
    "website": "https://www.mobie.pt/"
  }
},
{
  "type": "node",
  "id": 9920099816,
  "lat": 41.4829830,
  "lon": -7.1948139,
  "tags": {
    "access": "yes",
    "addr:country": "PT",
    "amenity": "charging_station",
    "authentication:membership_card": "yes",
    "authentication:none": "no",
    "capacity": "2",
    "fee": "yes",
    "maxstay": "unlimited",
    "motorcar": "yes",
    "name": "MDL-00005 - Intermarché",
    "network": "Mobi.E",
    "opening_hours": "24/7",
    "operator": "Galp Power",
    "parking:fee": "no",
    "payment:app": "yes",
    "payment:cards": "no",
    "payment:cash": "no",
    "payment:membership_card": "yes",
    "ref": "MDL-00005",
    "socket:chademo": "1",
    "socket:chademo:current": "125",
    "socket:chademo:output": "60kW",
    "socket:chademo:voltage": "500",
    "socket:type2_combo": "1",
    "socket:type2_combo:current": "200",
    "socket:type2_combo:output": "90kW",
    "socket:type2_combo:voltage": "920",
    "website": "https://www.mobie.pt/"
  }
}

  ]
}
