{
"type": "FeatureCollection",
"features": [
{
  "type": "Feature",
  "id": "way/1233426757",
  "properties": {
    "access": "yes",
    "addr:city": "Viseu",
    "addr:country": "PT",
    "addr:street": "Rua 5 de Outubro",
    "amenity": "charging_station",
    "authentication:membership_card": "yes",
    "authentication:none": "no",
    "capacity": "2",
    "email": "support.portugal@atlante.energy",
    "fee": "yes",
    "maxstay": "unlimited",
    "motorcar": "yes",
    "name": "VIS-00088",
    "network": "Mobi.E",
    "old_ref": "VIS-00025",
    "opening_hours": "24/7",
    "operator": "Atlante",
    "parking:fee": "no",
    "payment:app": "yes",
    "payment:cards": "no",
    "payment:cash": "no",
    "payment:membership_card": "yes",
    "phone": "+351 800 296 929",
    "ref": "VIS-00088",
    "socket:chademo": "1",
    "socket:chademo:current": "120",
    "socket:chademo:output": "50kW",
    "socket:chademo:voltage": "500",
    "socket:type2_combo": "1",
    "socket:type2_combo:current": "375",
    "socket:type2_combo:output": "150kW",
    "socket:type2_combo:voltage": "1000",
    "website": "https://www.mobie.pt",
    "id": "way/1233426757"
  },
  "geometry": {
    "type": "Polygon",
    "coordinates": [
      [
        [
          -7.9088804,
          40.6566546
        ],
        [
          -7.908853,
          40.6566106
        ],
        [
          -7.9088484,
          40.6565987
        ],
        [
          -7.9087881,
          40.6566201
        ],
        [
          -7.9087929,
          40.6566328
        ],
        [
          -7.9088212,
          40.6566762
        ],
        [
          -7.9088804,
          40.6566546
        ]
      ]
    ]
  }
},
{
  "type": "Feature",
  "id": "way/1233426757",
  "properties": {
    "access": "yes",
    "addr:city": "Viseu",
    "addr:country": "PT",
    "addr:street": "Rua 5 de Outubro",
    "amenity": "charging_station",
    "authentication:membership_card": "yes",
    "authentication:none": "no",
    "capacity": "2",
    "email": "support.portugal@atlante.energy",
    "fee": "yes",
    "maxstay": "unlimited",
    "motorcar": "yes",
    "name": "VIS-00088",
    "network": "Mobi.E",
    "old_ref": "VIS-00025",
    "opening_hours": "24/7",
    "operator": "Atlante",
    "parking:fee": "no",
    "payment:app": "yes",
    "payment:cards": "no",
    "payment:cash": "no",
    "payment:membership_card": "yes",
    "phone": "+351 800 296 929",
    "ref": "VIS-00088",
    "socket:chademo": "1",
    "socket:chademo:current": "120",
    "socket:chademo:output": "50kW",
    "socket:chademo:voltage": "500",
    "socket:type2_combo": "1",
    "socket:type2_combo:current": "375",
    "socket:type2_combo:output": "150kW",
    "socket:type2_combo:voltage": "1000",
    "website": "https://www.mobie.pt",
    "id": "way/1233426757"
  },
  "geometry": {
    "type": "Point",
    "coordinates": [
      -7.9088342,
      40.6566374
    ]
  }
},
{
  "type": "Feature",
  "id": "node/8082166425",
  "properties": {
    "access": "yes",
    "addr:country": "PT",
    "amenity": "charging_station",
    "authentication:membership_card": "yes",
    "authentication:none": "no",
    "capacity": "2",
    "fee": "yes",
    "maxstay": "unlimited",
    "motorcar": "yes",
    "name": "FNC-00040",
    "network": "Mobi.E",
    "old_ref": "FUN-00002",
    "opening_hours": "24/7",
    "operator": "Emacom",
    "parking:fee": "no",
    "payment:app": "yes",
    "payment:cards": "no",
    "payment:cash": "no",
    "payment:membership_card": "yes",
    "ref": "FNC-00040",
    "socket:type2_combo": "2",
    "socket:type2_combo:current": "200",
    "socket:type2_combo:output": "150kW",
    "socket:type2_combo:voltage": "1000",
    "website": "https://www.mobie.pt/",
    "id": "node/8082166425"
  },
  "geometry": {
    "type": "Point",
    "coordinates": [
      -16.9038921,
      32.6472363
    ]
  }
},
{
  "type": "Feature",
  "id": "node/8207701819",
  "properties": {
    "access": "yes",
    "addr:city": "Algés",
    "addr:country": "PT",
    "addr:street": "Praça 25 de Abril de 1974",
    "amenity": "charging_station",
    "authentication:membership_card": "yes",
    "authentication:none": "no",
    "capacity": "1",
    "email": "mobilidade.electricacrc@galp.com",
    "fee": "yes",
    "maxstay": "unlimited",
    "motorcar": "yes",
    "name": "OER-00044 - Estação de Algés",
    "network": "Mobi.E",
    "opening_hours": "24/7",
    "operator": "Galp Power",
    "parking:fee": "no",
    "payment:app": "yes",
    "payment:cards": "no",
    "payment:cash": "no",
    "payment:membership_card": "yes",
    "phone": "+351 800 249 249",
    "ref": "OER-00044",
    "socket:chademo": "1",
    "socket:chademo:current": "120",
    "socket:chademo:output": "50kW",
    "socket:chademo:voltage": "500",
    "socket:type2_combo": "1",
    "socket:type2_combo:current": "350",
    "socket:type2_combo:output": "160kW",
    "socket:type2_combo:voltage": "1000",
    "website": "https://www.mobie.pt",
    "id": "node/8207701819"
  },
  "geometry": {
    "type": "Point",
    "coordinates": [
      -9.2303744,
      38.6988203
    ]
  }
},
{
  "type": "Feature",
  "id": "node/8207755912",
  "properties": {
    "access": "yes",
    "addr:city": "Algés",
    "addr:country": "PT",
    "addr:street": "Rua Parque Anjos",
    "amenity": "charging_station",
    "authentication:membership_card": "yes",
    "authentication:none": "no",
    "capacity": "1",
    "email": "suporte@mobiletric.com",
    "fee": "yes",
    "maxstay": "unlimited",
    "motorcar": "yes",
    "name": "OER-00032 - Junta de Freguesia da Algés",
    "network": "Mobi.E",
    "opening_hours": "24/7",
    "operator": "Mobiletric",
    "parking:fee": "no",
    "payment:app": "yes",
    "payment:cards": "no",
    "payment:cash": "no",
    "payment:membership_card": "yes",
    "phone": "+351 800 210 204",
    "ref": "OER-00032",
    "socket:chademo": "1",
    "socket:chademo:current": "120",
    "socket:chademo:output": "50kW",
    "socket:chademo:voltage": "500",
    "socket:type2_combo": "1",
    "socket:type2_combo:current": "350",
    "socket:type2_combo:output": "160kW",
    "socket:type2_combo:voltage": "1000",
    "website": "https://www.mobie.pt",
    "id": "node/8207755912"
  },
  "geometry": {
    "type": "Point",
    "coordinates": [
      -9.2313762,
      38.7000019
    ]
  }
},
{
  "type": "Feature",
  "id": "node/8221002951",
  "properties": {
    "access": "yes",
    "addr:city": "Linda-a-Velha",
    "addr:country": "PT",
    "addr:street": "Alameda António Sérgio",
    "amenity": "charging_station",
    "authentication:membership_card": "yes",
    "authentication:none": "no",
    "capacity": "1",
    "email": "suporte@mobiletric.com",
    "fee": "yes",
    "maxstay": "unlimited",
    "motorcar": "yes",
    "name": "OER-00038",
    "network": "Mobi.E",
    "opening_hours": "24/7",
    "operator": "Mobiletric",
    "parking:fee": "no",
    "payment:app": "yes",
    "payment:cards": "no",
    "payment:cash": "no",
    "payment:membership_card": "yes",
    "phone": "+351 800 210 204",
    "ref": "OER-00038",
    "socket:chademo": "1",
    "socket:chademo:current": "120",
    "socket:chademo:output": "50kW",
    "socket:chademo:voltage": "500",
    "socket:type2_combo": "1",
    "socket:type2_combo:current": "350",
    "socket:type2_combo:output": "160kW",
    "socket:type2_combo:voltage": "1000",
    "website": "https://www.mobie.pt",
    "id": "node/8221002951"
  },
  "geometry": {
    "type": "Point",
    "coordinates": [
      -9.2331612,
      38.7145037
    ]
  }
},
{
  "type": "Feature",
  "id": "node/8221024155",
  "properties": {
    "access": "yes",
    "addr:city": "Linda-a-Velha",
    "addr:country": "PT",
    "addr:street": "Avenida 25 de Abril de 1974",
    "amenity": "charging_station",
    "authentication:membership_card": "yes",
    "authentication:none": "no",
    "capacity": "1",
    "email": "suporte@mobiletric.com",
    "fee": "yes",
    "maxstay": "unlimited",
    "motorcar": "yes",
    "name": "OER-00033",
    "network": "Mobi.E",
    "opening_hours": "24/7",
    "operator": "Mobiletric",
    "parking:fee": "no",
    "payment:app": "yes",
    "payment:cards": "no",
    "payment:cash": "no",
    "payment:membership_card": "yes",
    "phone": "+351 800 210 204",
    "ref": "OER-00033",
    "socket:chademo": "1",
    "socket:chademo:current": "120",
    "socket:chademo:output": "50kW",
    "socket:chademo:voltage": "500",
    "socket:type2_combo": "1",
    "socket:type2_combo:current": "350",
    "socket:type2_combo:output": "160kW",
    "socket:type2_combo:voltage": "1000",
    "website": "https://www.mobie.pt",
    "id": "node/8221024155"
  },
  "geometry": {
    "type": "Point",
    "coordinates": [
      -9.240303,
      38.7157924
    ]
  }
},
{
  "type": "Feature",
  "id": "node/8222759972",
  "properties": {
    "access": "yes",
    "addr:city": "Queijas",
    "addr:country": "PT",
    "addr:street": "Rua João XXI",
    "amenity": "charging_station",
    "authentication:membership_card": "yes",
    "authentication:none": "no",
    "capacity": "1",
    "email": "mobilidade.electricacrc@galp.com",
    "fee": "yes",
    "maxstay": "unlimited",
    "motorcar": "yes",
    "name": "OER-00081 - Mercado de Queijas",
    "network": "Mobi.E",
    "opening_hours": "24/7",
    "operator": "Galp Power",
    "parking:fee": "no",
    "payment:app": "yes",
    "payment:cards": "no",
    "payment:cash": "no",
    "payment:membership_card": "yes",
    "phone": "+351 800 249 249",
    "ref": "OER-00081",
    "socket:chademo": "1",
    "socket:chademo:current": "120",
    "socket:chademo:output": "50kW",
    "socket:chademo:voltage": "500",
    "socket:type2_combo": "1",
    "socket:type2_combo:current": "350",
    "socket:type2_combo:output": "160kW",
    "socket:type2_combo:voltage": "1000",
    "website": "https://www.mobie.pt",
    "id": "node/8222759972"
  },
  "geometry": {
    "type": "Point",
    "coordinates": [
      -9.2629834,
      38.7189138
    ]
  }
},
{
  "type": "Feature",
  "id": "node/8222924827",
  "properties": {
    "access": "yes",
    "addr:city": "Oeiras",
    "addr:country": "PT",
    "addr:street": "Rua José Pedro da Silva",
    "amenity": "charging_station",
    "authentication:membership_card": "yes",
    "authentication:none": "no",
    "capacity": "1",
    "email": "mobilidade.electricacrc@galp.com",
    "fee": "yes",
    "maxstay": "unlimited",
    "motorcar": "yes",
    "name": "OER-00085",
    "network": "Mobi.E",
    "opening_hours": "24/7",
    "operator": "Galp Power",
    "parking:fee": "no",
    "payment:app": "yes",
    "payment:cards": "no",
    "payment:cash": "no",
    "payment:membership_card": "yes",
    "phone": "+351 800 249 249",
    "ref": "OER-00085",
    "socket:chademo": "1",
    "socket:chademo:current": "120",
    "socket:chademo:output": "50kW",
    "socket:chademo:voltage": "500",
    "socket:type2_combo": "1",
    "socket:type2_combo:current": "350",
    "socket:type2_combo:output": "160kW",
    "socket:type2_combo:voltage": "1000",
    "website": "https://www.mobie.pt",
    "id": "node/8222924827"
  },
  "geometry": {
    "type": "Point",
    "coordinates": [
      -9.2939088,
      38.7018159
    ]
  }
},
{
  "type": "Feature",
  "id": "node/8223008113",
  "properties": {
    "access": "yes",
    "addr:city": "Oeiras",
    "addr:country": "PT",
    "addr:street": "Rua Doutor José da Cunha",
    "amenity": "charging_station",
    "authentication:membership_card": "yes",
    "authentication:none": "no",
    "capacity": "1",
    "email": "mobilidade.electricacrc@galp.com",
    "fee": "yes",
    "maxstay": "unlimited",
    "motorcar": "yes",
    "name": "OER-00086 - Forum Oeiras",
    "network": "Mobi.E",
    "opening_hours": "24/7",
    "operator": "Galp Power",
    "parking:fee": "no",
    "payment:app": "yes",
    "payment:cards": "no",
    "payment:cash": "no",
    "payment:membership_card": "yes",
    "phone": "+351 800 249 249",
    "ref": "OER-00086",
    "socket:chademo": "1",
    "socket:chademo:current": "120",
    "socket:chademo:output": "50kW",
    "socket:chademo:voltage": "500",
    "socket:type2_combo": "1",
    "socket:type2_combo:current": "350",
    "socket:type2_combo:output": "160kW",
    "socket:type2_combo:voltage": "1000",
    "website": "https://www.mobie.pt",
    "id": "node/8223008113"
  },
  "geometry": {
    "type": "Point",
    "coordinates": [
      -9.3060588,
      38.7026263
    ]
  }
},
{
  "type": "Feature",
  "id": "node/8223050757",
  "properties": {
    "access": "yes",
    "addr:city": "Oeiras",
    "addr:country": "PT",
    "addr:street": "Avenida Engenheiro Bonneville Franco",
    "amenity": "charging_station",
    "authentication:membership_card": "yes",
    "authentication:none": "no",
    "capacity": "1",
    "email": "suporte@mobiletric.com",
    "fee": "yes",
    "maxstay": "unlimited",
    "motorcar": "yes",
    "name": "OER-00037",
    "network": "Mobi.E",
    "opening_hours": "24/7",
    "operator": "Mobiletric",
    "parking:fee": "no",
    "payment:app": "yes",
    "payment:cards": "no",
    "payment:cash": "no",
    "payment:membership_card": "yes",
    "phone": "+351 800 210 204",
    "ref": "OER-00037",
    "socket:chademo": "1",
    "socket:chademo:current": "120",
    "socket:chademo:output": "50kW",
    "socket:chademo:voltage": "500",
    "socket:type2_combo": "1",
    "socket:type2_combo:current": "350",
    "socket:type2_combo:output": "160kW",
    "socket:type2_combo:voltage": "1000",
    "start_date": "2021-03-21",
    "website": "https://www.mobie.pt",
    "id": "node/8223050757"
  },
  "geometry": {
    "type": "Point",
    "coordinates": [
      -9.3015558,
      38.6908438
    ]
  }
},
{
  "type": "Feature",
  "id": "node/8223126563",
  "properties": {
    "access": "yes",
    "addr:city": "Oeiras",
    "addr:country": "PT",
    "addr:street": "Rua da Quinta das Palmeiras",
    "amenity": "charging_station",
    "authentication:membership_card": "yes",
    "authentication:none": "no",
    "capacity": "1",
    "email": "suporte@mobiletric.com",
    "fee": "yes",
    "maxstay": "unlimited",
    "motorcar": "yes",
    "name": "OER-00057 - Palmeiras",
    "network": "Mobi.E",
    "opening_hours": "24/7",
    "operator": "Mobiletric",
    "parking:fee": "no",
    "payment:app": "yes",
    "payment:cards": "no",
    "payment:cash": "no",
    "payment:membership_card": "yes",
    "phone": "+351 800 210 204",
    "ref": "OER-00057",
    "socket:chademo": "1",
    "socket:chademo:current": "120",
    "socket:chademo:output": "50kW",
    "socket:chademo:voltage": "500",
    "socket:type2_combo": "1",
    "socket:type2_combo:current": "350",
    "socket:type2_combo:output": "160kW",
    "socket:type2_combo:voltage": "1000",
    "website": "https://www.mobie.pt",
    "id": "node/8223126563"
  },
  "geometry": {
    "type": "Point",
    "coordinates": [
      -9.3272936,
      38.6920773
    ]
  }
},
{
  "type": "Feature",
  "id": "node/8223137485",
  "properties": {
    "access": "yes",
    "addr:city": "Oeiras",
    "addr:country": "PT",
    "addr:street": "Rua de Aljubarrota",
    "amenity": "charging_station",
    "authentication:membership_card": "yes",
    "authentication:none": "no",
    "capacity": "1",
    "email": "mobilidade.electricacrc@galp.com",
    "fee": "yes",
    "maxstay": "unlimited",
    "motorcar": "yes",
    "name": "OER-00082 - Alto da Barra",
    "network": "Mobi.E",
    "opening_hours": "24/7",
    "operator": "Galp Power",
    "parking:fee": "no",
    "payment:app": "yes",
    "payment:cards": "no",
    "payment:cash": "no",
    "payment:membership_card": "yes",
    "phone": "+351 800 249 249",
    "ref": "OER-00082",
    "socket:chademo": "1",
    "socket:chademo:current": "120",
    "socket:chademo:output": "50kW",
    "socket:chademo:voltage": "500",
    "socket:type2_combo": "1",
    "socket:type2_combo:current": "350",
    "socket:type2_combo:output": "160kW",
    "socket:type2_combo:voltage": "1000",
    "website": "https://www.mobie.pt",
    "id": "node/8223137485"
  },
  "geometry": {
    "type": "Point",
    "coordinates": [
      -9.3201723,
      38.6803841
    ]
  }
},
{
  "type": "Feature",
  "id": "node/8224601894",
  "properties": {
    "access": "yes",
    "addr:city": "Torres Vedras",
    "addr:country": "PT",
    "amenity": "charging_station",
    "authentication:membership_card": "yes",
    "authentication:none": "no",
    "capacity": "1",
    "email": "suporte@mobiletric.com",
    "fee": "yes",
    "maxstay": "unlimited",
    "motorcar": "yes",
    "name": "TVD-00016",
    "network": "Mobi.E",
    "opening_hours": "24/7",
    "operator": "Mobiletric",
    "parking:fee": "no",
    "payment:app": "yes",
    "payment:cards": "no",
    "payment:cash": "no",
    "payment:membership_card": "yes",
    "phone": "+351 800 210 204",
    "ref": "TVD-00016",
    "socket:chademo": "1",
    "socket:chademo:current": "120",
    "socket:chademo:output": "50kW",
    "socket:chademo:voltage": "500",
    "socket:type2_combo": "1",
    "socket:type2_combo:current": "350",
    "socket:type2_combo:output": "160kW",
    "socket:type2_combo:voltage": "1000",
    "website": "https://www.mobie.pt",
    "id": "node/8224601894"
  },
  "geometry": {
    "type": "Point",
    "coordinates": [
      -9.2578335,
      39.1020713
    ]
  }
},
{
  "type": "Feature",
  "id": "node/8224925047",
  "properties": {
    "access": "yes",
    "addr:city": "Coimbra",
    "addr:country": "PT",
    "addr:street": "Rua Garcia da Horta",
    "amenity": "charging_station",
    "authentication:membership_card": "yes",
    "authentication:none": "no",
    "capacity": "1",
    "email": "electric@prioenergy.com",
    "fee": "yes",
    "maxstay": "unlimited",
    "motorcar": "yes",
    "name": "CBR-00061",
    "network": "Mobi.E",
    "opening_hours": "24/7",
    "operator": "Prio.E",
    "parking:fee": "no",
    "payment:app": "yes",
    "payment:cards": "no",
    "payment:cash": "no",
    "payment:membership_card": "yes",
    "phone": "+351 800 450 111",
    "ref": "CBR-00061",
    "socket:chademo": "1",
    "socket:chademo:current": "120",
    "socket:chademo:output": "50kW",
    "socket:chademo:voltage": "500",
    "socket:type2_combo": "1",
    "socket:type2_combo:current": "375",
    "socket:type2_combo:output": "150kW",
    "socket:type2_combo:voltage": "1000",
    "website": "https://www.mobie.pt",
    "id": "node/8224925047"
  },
  "geometry": {
    "type": "Point",
    "coordinates": [
      -8.412365,
      40.1938571
    ]
  }
},
{
  "type": "Feature",
  "id": "node/8385455670",
  "properties": {
    "access": "yes",
    "addr:city": "Porto Salvo",
    "addr:country": "PT",
    "amenity": "charging_station",
    "authentication:membership_card": "yes",
    "authentication:none": "no",
    "capacity": "1",
    "email": "suporte@mobiletric.com",
    "fee": "yes",
    "maxstay": "unlimited",
    "motorcar": "yes",
    "name": "OER-00088 - Tagus Park",
    "network": "Mobi.E",
    "opening_hours": "24/7",
    "operator": "Mobiletric",
    "parking:fee": "no",
    "payment:app": "yes",
    "payment:cards": "no",
    "payment:cash": "no",
    "payment:membership_card": "yes",
    "phone": "+351 800 210 204",
    "ref": "OER-00088",
    "socket:chademo": "1",
    "socket:chademo:current": "125",
    "socket:chademo:output": "50kW",
    "socket:chademo:voltage": "500",
    "socket:type2_combo": "1",
    "socket:type2_combo:current": "350",
    "socket:type2_combo:output": "160kW",
    "socket:type2_combo:voltage": "1000",
    "website": "https://www.mobie.pt",
    "id": "node/8385455670"
  },
  "geometry": {
    "type": "Point",
    "coordinates": [
      -9.301015,
      38.7359162
    ]
  }
},
{
  "type": "Feature",
  "id": "node/8385464249",
  "properties": {
    "access": "yes",
    "addr:city": "Carnaxide",
    "addr:country": "PT",
    "amenity": "charging_station",
    "authentication:membership_card": "yes",
    "authentication:none": "no",
    "capacity": "1",
    "email": "suporte@mobiletric.com",
    "fee": "yes",
    "maxstay": "unlimited",
    "motorcar": "yes",
    "name": "OER-00099 - Centro Cívico de Carnaxide",
    "network": "Mobi.E",
    "opening_hours": "24/7",
    "operator": "Mobiletric",
    "parking:fee": "no",
    "payment:app": "yes",
    "payment:cards": "no",
    "payment:cash": "no",
    "payment:membership_card": "yes",
    "phone": "+351 800 210 204",
    "ref": "OER-00099",
    "socket:chademo": "1",
    "socket:chademo:current": "120",
    "socket:chademo:output": "50kW",
    "socket:chademo:voltage": "500",
    "socket:type2_combo": "1",
    "socket:type2_combo:current": "195",
    "socket:type2_combo:output": "180kW",
    "socket:type2_combo:voltage": "1000",
    "website": "https://www.mobie.pt",
    "id": "node/8385464249"
  },
  "geometry": {
    "type": "Point",
    "coordinates": [
      -9.2430559,
      38.7263169
    ]
  }
},
{
  "type": "Feature",
  "id": "node/8385485018",
  "properties": {
    "access": "yes",
    "addr:city": "Oeiras",
    "addr:country": "PT",
    "amenity": "charging_station",
    "authentication:membership_card": "yes",
    "authentication:none": "no",
    "capacity": "2",
    "email": "mobilidade.electricacrc@galp.com",
    "fee": "yes",
    "maxstay": "unlimited",
    "motorcar": "yes",
    "name": "OER-00171",
    "network": "Mobi.E",
    "old_ref": "OER-00083",
    "opening_hours": "24/7",
    "operator": "Galp Power",
    "parking:fee": "no",
    "payment:app": "yes",
    "payment:cards": "no",
    "payment:cash": "no",
    "payment:membership_card": "yes",
    "phone": "+351 800 249 249",
    "ref": "OER-00171",
    "socket:type2_combo": "2",
    "socket:type2_combo:current": "190",
    "socket:type2_combo:output": "180kW",
    "socket:type2_combo:voltage": "1000",
    "website": "https://www.mobie.pt",
    "id": "node/8385485018"
  },
  "geometry": {
    "type": "Point",
    "coordinates": [
      -9.3136972,
      38.6851685
    ]
  }
},
{
  "type": "Feature",
  "id": "node/8618493483",
  "properties": {
    "access": "yes",
    "addr:country": "PT",
    "addr:street": "Área de Serviço de Santarém",
    "amenity": "charging_station",
    "authentication:membership_card": "yes",
    "authentication:none": "no",
    "capacity": "2",
    "email": "mobilidade-eletrica@edp.pt",
    "fee": "yes",
    "maxstay": "unlimited",
    "motorcar": "yes",
    "name": "STR-00019",
    "network": "Mobi.E",
    "opening_hours": "24/7",
    "operator": "EDP Comercial",
    "parking:fee": "no",
    "payment:app": "yes",
    "payment:cards": "no",
    "payment:cash": "no",
    "payment:membership_card": "yes",
    "phone": "+351 800 222 222",
    "ref": "STR-00019",
    "socket:chademo": "1",
    "socket:chademo:current": "120",
    "socket:chademo:output": "50kW",
    "socket:chademo:voltage": "500",
    "socket:type2_combo": "1",
    "socket:type2_combo:current": "350",
    "socket:type2_combo:output": "160kW",
    "socket:type2_combo:voltage": "1000",
    "website": "https://www.mobie.pt",
    "id": "node/8618493483"
  },
  "geometry": {
    "type": "Point",
    "coordinates": [
      -8.639811,
      39.3925264
    ]
  }
},
{
  "type": "Feature",
  "id": "node/8678941145",
  "properties": {
    "access": "yes",
    "addr:city": "Castelo Branco",
    "addr:country": "PT",
    "amenity": "charging_station",
    "authentication:membership_card": "yes",
    "authentication:none": "no",
    "capacity": "1",
    "email": "comercial@iberdrola.pt",
    "fee": "yes",
    "maxstay": "unlimited",
    "motorcar": "yes",
    "name": "CTB-00016",
    "network": "Mobi.E",
    "opening_hours": "24/7",
    "operator": "Iberdrola",
    "operator:wikidata": "Q1437502",
    "parking:fee": "no",
    "payment:app": "yes",
    "payment:cards": "no",
    "payment:cash": "no",
    "payment:membership_card": "yes",
    "phone": "+351 800 607 717",
    "ref": "CTB-00016",
    "socket:chademo": "1",
    "socket:chademo:current": "120",
    "socket:chademo:output": "50kW",
    "socket:chademo:voltage": "500",
    "socket:type2_combo": "1",
    "socket:type2_combo:current": "350",
    "socket:type2_combo:output": "160kW",
    "socket:type2_combo:voltage": "1000",
    "website": "https://www.mobie.pt",
    "id": "node/8678941145"
  },
  "geometry": {
    "type": "Point",
    "coordinates": [
      -7.4907992,
      39.8197157
    ]
  }
},
{
  "type": "Feature",
  "id": "node/8730840559",
  "properties": {
    "access": "yes",
    "addr:city": "Lisboa",
    "addr:country": "PT",
    "addr:street": "Campo Grande",
    "amenity": "charging_station",
    "authentication:membership_card": "yes",
    "authentication:none": "no",
    "capacity": "1",
    "email": "suporte@mobiletric.com",
    "fee": "yes",
    "maxstay": "unlimited",
    "motorcar": "yes",
    "name": "LSB-00351 - Faculdade de Ciências",
    "network": "Mobi.E",
    "opening_hours": "24/7",
    "operator": "Mobiletric",
    "parking:fee": "no",
    "payment:app": "yes",
    "payment:cards": "no",
    "payment:cash": "no",
    "payment:membership_card": "yes",
    "phone": "+351 800 210 204",
    "ref": "LSB-00351",
    "socket:chademo": "1",
    "socket:chademo:current": "120",
    "socket:chademo:output": "50kW",
    "socket:chademo:voltage": "500",
    "socket:type2_combo": "1",
    "socket:type2_combo:current": "250",
    "socket:type2_combo:output": "160kW",
    "socket:type2_combo:voltage": "1000",
    "website": "https://www.mobie.pt",
    "id": "node/8730840559"
  },
  "geometry": {
    "type": "Point",
    "coordinates": [
      -9.155248,
      38.756393
    ]
  }
},
{
  "type": "Feature",
  "id": "node/8908343323",
  "properties": {
    "access": "yes",
    "addr:country": "PT",
    "amenity": "charging_station",
    "authentication:membership_card": "yes",
    "authentication:none": "no",
    "capacity": "2",
    "fee": "yes",
    "maxstay": "unlimited",
    "motorcar": "yes",
    "name": "FNC-00044 - BP",
    "network": "Mobi.E",
    "old_operator": "Factor Energia;BP Pulse",
    "old_ref": "FUN-00042;FNC-00043",
    "opening_hours": "24/7",
    "operator": "Charging Together",
    "parking:fee": "no",
    "payment:app": "yes",
    "payment:cards": "no",
    "payment:cash": "no",
    "payment:membership_card": "yes",
    "ref": "FNC-00044",
    "socket:chademo": "1",
    "socket:chademo:current": "200",
    "socket:chademo:output": "100kW",
    "socket:chademo:voltage": "500",
    "socket:type2_combo": "2",
    "socket:type2_combo:current": "500",
    "socket:type2_combo:output": "150kW",
    "socket:type2_combo:voltage": "500",
    "website": "https://www.mobie.pt",
    "id": "node/8908343323"
  },
  "geometry": {
    "type": "Point",
    "coordinates": [
      -16.9145673,
      32.6551288
    ]
  }
},
{
  "type": "Feature",
  "id": "node/8917640565",
  "properties": {
    "access": "yes",
    "addr:country": "PT",
    "amenity": "charging_station",
    "authentication:membership_card": "yes",
    "authentication:none": "no",
    "capacity": "1",
    "email": "mobilidade-eletrica@edp.pt",
    "fee": "yes",
    "maxstay": "unlimited",
    "motorcar": "yes",
    "name": "PNF-00012",
    "network": "Mobi.E",
    "opening_hours": "24/7",
    "operator": "EDP Comercial",
    "parking:fee": "no",
    "payment:app": "yes",
    "payment:cards": "no",
    "payment:cash": "no",
    "payment:membership_card": "yes",
    "phone": "+351 800 222 222",
    "ref": "PNF-00012",
    "socket:chademo": "1",
    "socket:chademo:current": "120",
    "socket:chademo:output": "50kW",
    "socket:chademo:voltage": "500",
    "socket:type2_combo": "1",
    "socket:type2_combo:current": "350",
    "socket:type2_combo:output": "160kW",
    "socket:type2_combo:voltage": "1000",
    "website": "https://www.mobie.pt",
    "id": "node/8917640565"
  },
  "geometry": {
    "type": "Point",
    "coordinates": [
      -8.1790014,
      41.2324459
    ]
  }
},
{
  "type": "Feature",
  "id": "node/8917640567",
  "properties": {
    "access": "yes",
    "addr:country": "PT",
    "amenity": "charging_station",
    "authentication:membership_card": "yes",
    "authentication:none": "no",
    "capacity": "1",
    "email": "mobilidade-eletrica@edp.pt",
    "fee": "yes",
    "maxstay": "unlimited",
    "motorcar": "yes",
    "name": "PNF-00011",
    "network": "Mobi.E",
    "opening_hours": "24/7",
    "operator": "EDP Comercial",
    "parking:fee": "no",
    "payment:app": "yes",
    "payment:cards": "no",
    "payment:cash": "no",
    "payment:membership_card": "yes",
    "phone": "+351 800 222 222",
    "ref": "PNF-00011",
    "socket:chademo": "1",
    "socket:chademo:current": "120",
    "socket:chademo:output": "50kW",
    "socket:chademo:voltage": "500",
    "socket:type2_combo": "1",
    "socket:type2_combo:current": "350",
    "socket:type2_combo:output": "160kW",
    "socket:type2_combo:voltage": "1000",
    "website": "https://www.mobie.pt",
    "id": "node/8917640567"
  },
  "geometry": {
    "type": "Point",
    "coordinates": [
      -8.1783171,
      41.2326554
    ]
  }
},
{
  "type": "Feature",
  "id": "node/8964307128",
  "properties": {
    "access": "yes",
    "addr:country": "PT",
    "amenity": "charging_station",
    "authentication:membership_card": "yes",
    "authentication:none": "no",
    "capacity": "1",
    "email": "mobilidade.electricacrc@galp.com",
    "fee": "yes",
    "maxstay": "unlimited",
    "motorcar": "yes",
    "name": "ASL-00008 - Galp",
    "network": "Mobi.E",
    "opening_hours": "24/7",
    "operator": "Galp Geste",
    "parking:fee": "no",
    "payment:app": "yes",
    "payment:cards": "no",
    "payment:cash": "no",
    "payment:membership_card": "yes",
    "phone": "+351 800 249 249",
    "ref": "ASL-00008",
    "socket:chademo": "1",
    "socket:chademo:current": "120",
    "socket:chademo:output": "50kW",
    "socket:chademo:voltage": "500",
    "socket:type2_combo": "1",
    "socket:type2_combo:current": "350",
    "socket:type2_combo:output": "160kW",
    "socket:type2_combo:voltage": "1000",
    "website": "https://www.mobie.pt",
    "id": "node/8964307128"
  },
  "geometry": {
    "type": "Point",
    "coordinates": [
      -8.5848217,
      38.5155144
    ]
  }
},
{
  "type": "Feature",
  "id": "node/8964307131",
  "properties": {
    "access": "yes",
    "addr:country": "PT",
    "amenity": "charging_station",
    "authentication:membership_card": "yes",
    "authentication:none": "no",
    "capacity": "1",
    "email": "mobilidade.electricacrc@galp.com",
    "fee": "yes",
    "maxstay": "unlimited",
    "motorcar": "yes",
    "name": "ASL-00010 - Galp",
    "network": "Mobi.E",
    "opening_hours": "24/7",
    "operator": "Galp Geste",
    "parking:fee": "no",
    "payment:app": "yes",
    "payment:cards": "no",
    "payment:cash": "no",
    "payment:membership_card": "yes",
    "phone": "+351 800 249 249",
    "ref": "ASL-00010",
    "socket:chademo": "1",
    "socket:chademo:current": "120",
    "socket:chademo:output": "50kW",
    "socket:chademo:voltage": "500",
    "socket:type2_combo": "1",
    "socket:type2_combo:current": "350",
    "socket:type2_combo:output": "160kW",
    "socket:type2_combo:voltage": "1000",
    "website": "https://www.mobie.pt",
    "id": "node/8964307131"
  },
  "geometry": {
    "type": "Point",
    "coordinates": [
      -8.5858718,
      38.5154022
    ]
  }
},
{
  "type": "Feature",
  "id": "node/8964307132",
  "properties": {
    "access": "yes",
    "addr:country": "PT",
    "amenity": "charging_station",
    "authentication:membership_card": "yes",
    "authentication:none": "no",
    "capacity": "2",
    "email": "mobilidade.electricacrc@galp.com",
    "fee": "yes",
    "maxstay": "unlimited",
    "motorcar": "yes",
    "name": "AJT-00013 - Galp",
    "network": "Mobi.E",
    "old_ref": "AJT-00006",
    "opening_hours": "24/7",
    "operator": "Galp Geste",
    "parking:fee": "no",
    "payment:app": "yes",
    "payment:cards": "no",
    "payment:cash": "no",
    "payment:membership_card": "yes",
    "phone": "+351 800 249 249",
    "ref": "AJT-00013",
    "socket:type2_combo": "2",
    "socket:type2_combo:current": "180",
    "socket:type2_combo:output": "180kW",
    "socket:type2_combo:voltage": "1000",
    "website": "https://www.mobie.pt",
    "id": "node/8964307132"
  },
  "geometry": {
    "type": "Point",
    "coordinates": [
      -8.2421212,
      37.9236221
    ]
  }
},
{
  "type": "Feature",
  "id": "node/8964307134",
  "properties": {
    "access": "yes",
    "addr:country": "PT",
    "amenity": "charging_station",
    "authentication:membership_card": "yes",
    "authentication:none": "no",
    "capacity": "1",
    "email": "mobilidade.electricacrc@galp.com",
    "fee": "yes",
    "maxstay": "unlimited",
    "motorcar": "yes",
    "name": "AJT-00012 - Galp",
    "network": "Mobi.E",
    "old_ref": "AJT-00008",
    "opening_hours": "24/7",
    "operator": "Galp Geste",
    "parking:fee": "no",
    "payment:app": "yes",
    "payment:cards": "no",
    "payment:cash": "no",
    "payment:membership_card": "yes",
    "phone": "+351 800 249 249",
    "ref": "AJT-00012",
    "socket:type2_combo": "2",
    "socket:type2_combo:current": "200",
    "socket:type2_combo:output": "200kW",
    "socket:type2_combo:voltage": "1000",
    "website": "https://www.mobie.pt",
    "id": "node/8964307134"
  },
  "geometry": {
    "type": "Point",
    "coordinates": [
      -8.2432518,
      37.923531
    ]
  }
},
{
  "type": "Feature",
  "id": "node/8969154279",
  "properties": {
    "access": "yes",
    "addr:country": "PT",
    "amenity": "charging_station",
    "authentication:membership_card": "yes",
    "authentication:none": "no",
    "capacity": "2",
    "email": "mobilidade-eletrica@edp.pt",
    "fee": "yes",
    "maxstay": "unlimited",
    "motorcar": "yes",
    "name": "CNT-00007",
    "network": "Mobi.E",
    "opening_hours": "24/7",
    "operator": "EDP Comercial",
    "parking:fee": "no",
    "payment:app": "yes",
    "payment:cards": "no",
    "payment:cash": "no",
    "payment:membership_card": "yes",
    "phone": "+351 800 222 222",
    "ref": "CNT-00007",
    "socket:type2_combo": "2",
    "socket:type2_combo:current": "500",
    "socket:type2_combo:output": "200kW",
    "socket:type2_combo:voltage": "1000",
    "website": "https://www.mobie.pt",
    "id": "node/8969154279"
  },
  "geometry": {
    "type": "Point",
    "coordinates": [
      -8.49387,
      40.3318885
    ]
  }
},
{
  "type": "Feature",
  "id": "node/8969154281",
  "properties": {
    "access": "yes",
    "addr:country": "PT",
    "amenity": "charging_station",
    "authentication:membership_card": "yes",
    "authentication:none": "no",
    "capacity": "1",
    "email": "mobilidade-eletrica@edp.pt",
    "fee": "yes",
    "maxstay": "unlimited",
    "motorcar": "yes",
    "name": "CNT-00008",
    "network": "Mobi.E",
    "opening_hours": "24/7",
    "operator": "EDP Comercial",
    "parking:fee": "no",
    "payment:app": "yes",
    "payment:cards": "no",
    "payment:cash": "no",
    "payment:membership_card": "yes",
    "phone": "+351 800 222 222",
    "ref": "CNT-00008",
    "socket:type2_combo": "2",
    "socket:type2_combo:current": "500",
    "socket:type2_combo:output": "200kW",
    "socket:type2_combo:voltage": "1000",
    "website": "https://www.mobie.pt",
    "id": "node/8969154281"
  },
  "geometry": {
    "type": "Point",
    "coordinates": [
      -8.4924276,
      40.3342981
    ]
  }
},
{
  "type": "Feature",
  "id": "node/9021100509",
  "properties": {
    "access": "yes",
    "addr:country": "PT",
    "addr:street": "Área de Serviço de Santarém",
    "amenity": "charging_station",
    "authentication:membership_card": "yes",
    "authentication:none": "no",
    "capacity": "1",
    "email": "mobilidade-eletrica@edp.pt",
    "fee": "yes",
    "maxstay": "unlimited",
    "motorcar": "yes",
    "name": "STR-00022 - BP",
    "network": "Mobi.E",
    "opening_hours": "24/7",
    "operator": "EDP Comercial",
    "parking:fee": "no",
    "payment:app": "yes",
    "payment:cards": "no",
    "payment:cash": "no",
    "payment:membership_card": "yes",
    "phone": "+351 800 222 222",
    "ref": "STR-00022",
    "socket:chademo": "1",
    "socket:chademo:current": "120",
    "socket:chademo:output": "50kW",
    "socket:chademo:voltage": "500",
    "socket:type2_combo": "1",
    "socket:type2_combo:current": "350",
    "socket:type2_combo:output": "160kW",
    "socket:type2_combo:voltage": "1000",
    "website": "https://www.mobie.pt",
    "id": "node/9021100509"
  },
  "geometry": {
    "type": "Point",
    "coordinates": [
      -8.6382324,
      39.3923878
    ]
  }
},
{
  "type": "Feature",
  "id": "node/9033085850",
  "properties": {
    "access": "yes",
    "addr:country": "PT",
    "amenity": "charging_station",
    "authentication:membership_card": "yes",
    "authentication:none": "no",
    "capacity": "1",
    "email": "mobilidade-eletrica@edp.pt",
    "fee": "yes",
    "maxstay": "unlimited",
    "motorcar": "yes",
    "name": "GDL-00007 - Repsol S>N",
    "network": "Mobi.E",
    "opening_hours": "24/7",
    "operator": "EDP Comercial",
    "parking:fee": "no",
    "payment:app": "yes",
    "payment:cards": "no",
    "payment:cash": "no",
    "payment:membership_card": "yes",
    "phone": "+351 800 222 222",
    "ref": "GDL-00007",
    "socket:chademo": "1",
    "socket:chademo:current": "120",
    "socket:chademo:output": "50kW",
    "socket:chademo:voltage": "500",
    "socket:type2_combo": "1",
    "socket:type2_combo:current": "350",
    "socket:type2_combo:output": "160kW",
    "socket:type2_combo:voltage": "1000",
    "website": "https://www.mobie.pt",
    "id": "node/9033085850"
  },
  "geometry": {
    "type": "Point",
    "coordinates": [
      -8.4914532,
      38.1677803
    ]
  }
},
{
  "type": "Feature",
  "id": "node/9033085851",
  "properties": {
    "access": "yes",
    "addr:country": "PT",
    "amenity": "charging_station",
    "authentication:membership_card": "yes",
    "authentication:none": "no",
    "capacity": "1",
    "email": "mobilidade-eletrica@edp.pt",
    "fee": "yes",
    "maxstay": "unlimited",
    "motorcar": "yes",
    "name": "GDL-00006 - Repsol N>S",
    "network": "Mobi.E",
    "opening_hours": "24/7",
    "operator": "EDP Comercial",
    "parking:fee": "no",
    "payment:app": "yes",
    "payment:cards": "no",
    "payment:cash": "no",
    "payment:membership_card": "yes",
    "phone": "+351 800 222 222",
    "ref": "GDL-00006",
    "socket:chademo": "1",
    "socket:chademo:current": "120",
    "socket:chademo:output": "50kW",
    "socket:chademo:voltage": "500",
    "socket:type2_combo": "1",
    "socket:type2_combo:current": "350",
    "socket:type2_combo:output": "160kW",
    "socket:type2_combo:voltage": "1000",
    "website": "https://www.mobie.pt",
    "id": "node/9033085851"
  },
  "geometry": {
    "type": "Point",
    "coordinates": [
      -8.4919393,
      38.1669041
    ]
  }
},
{
  "type": "Feature",
  "id": "node/9043894685",
  "properties": {
    "access": "yes",
    "addr:country": "PT",
    "amenity": "charging_station",
    "authentication:membership_card": "yes",
    "authentication:none": "no",
    "capacity": "1",
    "email": "mobilidade-eletrica@edp.pt",
    "fee": "yes",
    "maxstay": "unlimited",
    "motorcar": "yes",
    "name": "LRS-00056 - Repsol",
    "network": "Mobi.E",
    "opening_hours": "24/7",
    "operator": "EDP Comercial",
    "parking:fee": "no",
    "payment:app": "yes",
    "payment:cards": "no",
    "payment:cash": "no",
    "payment:membership_card": "yes",
    "phone": "+351 800 222 222",
    "ref": "LRS-00056",
    "socket:chademo": "1",
    "socket:chademo:current": "120",
    "socket:chademo:output": "50kW",
    "socket:chademo:voltage": "500",
    "socket:type2_combo": "1",
    "socket:type2_combo:current": "350",
    "socket:type2_combo:output": "160kW",
    "socket:type2_combo:voltage": "1000",
    "website": "https://www.mobie.pt",
    "id": "node/9043894685"
  },
  "geometry": {
    "type": "Point",
    "coordinates": [
      -9.1609104,
      38.8587889
    ]
  }
},
{
  "type": "Feature",
  "id": "node/9043894686",
  "properties": {
    "access": "yes",
    "addr:country": "PT",
    "amenity": "charging_station",
    "authentication:membership_card": "yes",
    "authentication:none": "no",
    "capacity": "1",
    "email": "mobilidade-eletrica@edp.pt",
    "fee": "yes",
    "maxstay": "unlimited",
    "motorcar": "yes",
    "name": "LRS-00058 - Repsol",
    "network": "Mobi.E",
    "opening_hours": "24/7",
    "operator": "EDP Comercial",
    "parking:fee": "no",
    "payment:app": "yes",
    "payment:cards": "no",
    "payment:cash": "no",
    "payment:membership_card": "yes",
    "phone": "+351 800 222 222",
    "ref": "LRS-00058",
    "socket:chademo": "1",
    "socket:chademo:current": "120",
    "socket:chademo:output": "50kW",
    "socket:chademo:voltage": "500",
    "socket:type2_combo": "1",
    "socket:type2_combo:current": "350",
    "socket:type2_combo:output": "160kW",
    "socket:type2_combo:voltage": "1000",
    "website": "https://www.mobie.pt",
    "id": "node/9043894686"
  },
  "geometry": {
    "type": "Point",
    "coordinates": [
      -9.1613609,
      38.8595192
    ]
  }
},
{
  "type": "Feature",
  "id": "node/9043907638",
  "properties": {
    "access": "yes",
    "addr:country": "PT",
    "amenity": "charging_station",
    "authentication:membership_card": "yes",
    "authentication:none": "no",
    "capacity": "1",
    "email": "mobilidade-eletrica@edp.pt",
    "fee": "yes",
    "maxstay": "unlimited",
    "motorcar": "yes",
    "name": "SXL-00016 - BP",
    "network": "Mobi.E",
    "opening_hours": "24/7",
    "operator": "EDP Comercial",
    "operator:wikidata": "Q1341222",
    "parking:fee": "no",
    "payment:app": "yes",
    "payment:cards": "no",
    "payment:cash": "no",
    "payment:membership_card": "yes",
    "phone": "+351 800 222 222",
    "ref": "SXL-00016",
    "socket:chademo": "1",
    "socket:chademo:current": "120",
    "socket:chademo:output": "50kW",
    "socket:chademo:voltage": "500",
    "socket:type2_combo": "1",
    "socket:type2_combo:current": "350",
    "socket:type2_combo:output": "160kW",
    "socket:type2_combo:voltage": "1000",
    "website": "https://www.mobie.pt",
    "id": "node/9043907638"
  },
  "geometry": {
    "type": "Point",
    "coordinates": [
      -9.1339057,
      38.6222966
    ]
  }
},
{
  "type": "Feature",
  "id": "node/9043918678",
  "properties": {
    "access": "yes",
    "addr:country": "PT",
    "amenity": "charging_station",
    "authentication:membership_card": "yes",
    "authentication:none": "no",
    "capacity": "1",
    "email": "mobilidade-eletrica@edp.pt",
    "fee": "yes",
    "maxstay": "unlimited",
    "motorcar": "yes",
    "name": "VNG-00066 - Repsol",
    "network": "Mobi.E",
    "opening_hours": "24/7",
    "operator": "EDP",
    "operator:wikidata": "Q1341222",
    "parking:fee": "no",
    "payment:app": "yes",
    "payment:cards": "no",
    "payment:cash": "no",
    "payment:membership_card": "yes",
    "phone": "+351 800 222 222",
    "ref": "VNG-00066",
    "socket:chademo": "1",
    "socket:chademo:current": "125",
    "socket:chademo:output": "50kW",
    "socket:chademo:voltage": "500",
    "socket:type2_combo": "1",
    "socket:type2_combo:current": "350",
    "socket:type2_combo:output": "160kW",
    "socket:type2_combo:voltage": "1000",
    "website": "https://www.mobie.pt",
    "id": "node/9043918678"
  },
  "geometry": {
    "type": "Point",
    "coordinates": [
      -8.5982546,
      41.1015106
    ]
  }
},
{
  "type": "Feature",
  "id": "node/9043918680",
  "properties": {
    "access": "yes",
    "addr:country": "PT",
    "amenity": "charging_station",
    "authentication:membership_card": "yes",
    "authentication:none": "no",
    "capacity": "1",
    "email": "mobilidade-eletrica@edp.pt",
    "fee": "yes",
    "maxstay": "unlimited",
    "motorcar": "yes",
    "name": "VNG-00067 - Repsol",
    "network": "Mobi.E",
    "opening_hours": "24/7",
    "operator": "EDP",
    "operator:wikidata": "Q1341222",
    "parking:fee": "no",
    "payment:app": "yes",
    "payment:cards": "no",
    "payment:cash": "no",
    "payment:membership_card": "yes",
    "phone": "+351 800 222 222",
    "ref": "VNG-00067",
    "socket:chademo": "1",
    "socket:chademo:current": "120",
    "socket:chademo:output": "50kW",
    "socket:chademo:voltage": "500",
    "socket:type2_combo": "1",
    "socket:type2_combo:current": "350",
    "socket:type2_combo:output": "160kW",
    "socket:type2_combo:voltage": "1000",
    "website": "https://www.mobie.pt",
    "id": "node/9043918680"
  },
  "geometry": {
    "type": "Point",
    "coordinates": [
      -8.5987171,
      41.1009238
    ]
  }
},
{
  "type": "Feature",
  "id": "node/9043918681",
  "properties": {
    "access": "yes",
    "addr:country": "PT",
    "amenity": "charging_station",
    "authentication:membership_card": "yes",
    "authentication:none": "no",
    "capacity": "1",
    "email": "mobilidade-eletrica@edp.pt",
    "fee": "yes",
    "maxstay": "unlimited",
    "motorcar": "yes",
    "name": "ETR-00009 - Repsol",
    "network": "Mobi.E",
    "opening_hours": "24/7",
    "operator": "EDP Comercial",
    "operator:wikidata": "Q1341222",
    "parking:fee": "no",
    "payment:app": "yes",
    "payment:cards": "no",
    "payment:cash": "no",
    "payment:membership_card": "yes",
    "phone": "+351 800 222 222",
    "ref": "ETR-00009",
    "socket:type2_combo": "2",
    "socket:type2_combo:current": "500",
    "socket:type2_combo:output": "200kW",
    "socket:type2_combo:voltage": "1000",
    "website": "https://www.mobie.pt",
    "id": "node/9043918681"
  },
  "geometry": {
    "type": "Point",
    "coordinates": [
      -8.536574,
      40.7552282
    ]
  }
},
{
  "type": "Feature",
  "id": "node/9043918682",
  "properties": {
    "access": "yes",
    "addr:country": "PT",
    "amenity": "charging_station",
    "authentication:membership_card": "yes",
    "authentication:none": "no",
    "capacity": "1",
    "email": "mobilidade-eletrica@edp.pt",
    "fee": "yes",
    "maxstay": "unlimited",
    "motorcar": "yes",
    "name": "ETR-00007 - Repsol",
    "network": "Mobi.E",
    "opening_hours": "24/7",
    "operator": "EDP Comercial",
    "operator:wikidata": "Q1341222",
    "parking:fee": "no",
    "payment:app": "yes",
    "payment:cards": "no",
    "payment:cash": "no",
    "payment:membership_card": "yes",
    "phone": "+351 800 222 222",
    "ref": "ETR-00007",
    "socket:type2_combo": "2",
    "socket:type2_combo:current": "500",
    "socket:type2_combo:output": "200kW",
    "socket:type2_combo:voltage": "1000",
    "website": "https://www.mobie.pt",
    "id": "node/9043918682"
  },
  "geometry": {
    "type": "Point",
    "coordinates": [
      -8.5352463,
      40.755767
    ]
  }
},
{
  "type": "Feature",
  "id": "node/9043918683",
  "properties": {
    "access": "yes",
    "addr:country": "PT",
    "amenity": "charging_station",
    "authentication:membership_card": "yes",
    "authentication:none": "no",
    "capacity": "2",
    "email": "mobilidade.electricacrc@galp.com",
    "fee": "yes",
    "maxstay": "unlimited",
    "motorcar": "yes",
    "name": "PBL-00021 - Galp",
    "network": "Mobi.E",
    "old_ref": "PBL-00006",
    "opening_hours": "24/7",
    "operator": "Galp Geste",
    "parking:fee": "no",
    "payment:app": "yes",
    "payment:cards": "no",
    "payment:cash": "no",
    "payment:membership_card": "yes",
    "phone": "+351 800 249 249",
    "ref": "PBL-00021",
    "socket:type2_combo": "2",
    "socket:type2_combo:current": "400",
    "socket:type2_combo:output": "200kW",
    "socket:type2_combo:voltage": "1000",
    "website": "https://www.mobie.pt",
    "id": "node/9043918683"
  },
  "geometry": {
    "type": "Point",
    "coordinates": [
      -8.6002585,
      40.0142402
    ]
  }
},
{
  "type": "Feature",
  "id": "node/9043918684",
  "properties": {
    "access": "yes",
    "addr:country": "PT",
    "amenity": "charging_station",
    "authentication:membership_card": "yes",
    "authentication:none": "no",
    "capacity": "2",
    "email": "mobilidade.electricacrc@galp.com",
    "fee": "yes",
    "maxstay": "unlimited",
    "motorcar": "yes",
    "name": "PBL-00022 - Galp",
    "network": "Mobi.E",
    "old_ref": "PBL-00007",
    "opening_hours": "24/7",
    "operator": "Galp Geste",
    "parking:fee": "no",
    "payment:app": "yes",
    "payment:cards": "no",
    "payment:cash": "no",
    "payment:membership_card": "yes",
    "phone": "+351 800 249 249",
    "ref": "PBL-00022",
    "socket:type2_combo": "2",
    "socket:type2_combo:current": "400",
    "socket:type2_combo:output": "200kW",
    "socket:type2_combo:voltage": "1000",
    "website": "https://www.mobie.pt",
    "id": "node/9043918684"
  },
  "geometry": {
    "type": "Point",
    "coordinates": [
      -8.5997695,
      40.0118973
    ]
  }
},
{
  "type": "Feature",
  "id": "node/9043935718",
  "properties": {
    "access": "yes",
    "addr:country": "PT",
    "amenity": "charging_station",
    "authentication:membership_card": "yes",
    "authentication:none": "no",
    "capacity": "1",
    "email": "mobilidade.electricacrc@galp.com",
    "fee": "yes",
    "maxstay": "unlimited",
    "motorcar": "yes",
    "name": "AZB-00008 - Galp",
    "network": "Mobi.E",
    "opening_hours": "24/7",
    "operator": "Galp Geste",
    "parking:fee": "no",
    "payment:app": "yes",
    "payment:cards": "no",
    "payment:cash": "no",
    "payment:membership_card": "yes",
    "phone": "+351 800 249 249",
    "ref": "AZB-00008",
    "socket:chademo": "1",
    "socket:chademo:current": "120",
    "socket:chademo:output": "50kW",
    "socket:chademo:voltage": "500",
    "socket:type2_combo": "1",
    "socket:type2_combo:current": "350",
    "socket:type2_combo:output": "160kW",
    "socket:type2_combo:voltage": "1000",
    "website": "https://www.mobie.pt",
    "id": "node/9043935718"
  },
  "geometry": {
    "type": "Point",
    "coordinates": [
      -8.9070899,
      39.1239515
    ]
  }
},
{
  "type": "Feature",
  "id": "node/9043935719",
  "properties": {
    "access": "yes",
    "addr:country": "PT",
    "amenity": "charging_station",
    "authentication:membership_card": "yes",
    "authentication:none": "no",
    "capacity": "1",
    "email": "mobilidade.electricacrc@galp.com",
    "fee": "yes",
    "maxstay": "unlimited",
    "motorcar": "yes",
    "name": "AZB-00009 - Galp",
    "network": "Mobi.E",
    "opening_hours": "24/7",
    "operator": "Galp Geste",
    "parking:fee": "no",
    "payment:app": "yes",
    "payment:cards": "no",
    "payment:cash": "no",
    "payment:membership_card": "yes",
    "phone": "+351 800 249 249",
    "ref": "AZB-00009",
    "socket:chademo": "1",
    "socket:chademo:current": "120",
    "socket:chademo:output": "50kW",
    "socket:chademo:voltage": "500",
    "socket:type2_combo": "1",
    "socket:type2_combo:current": "350",
    "socket:type2_combo:output": "160kW",
    "socket:type2_combo:voltage": "1000",
    "website": "https://www.mobie.pt",
    "id": "node/9043935719"
  },
  "geometry": {
    "type": "Point",
    "coordinates": [
      -8.9083603,
      39.1222222
    ]
  }
},
{
  "type": "Feature",
  "id": "node/9191518351",
  "properties": {
    "access": "yes",
    "addr:country": "PT",
    "amenity": "charging_station",
    "authentication:membership_card": "yes",
    "authentication:none": "no",
    "capacity": "1",
    "email": "mobilidade-eletrica@edp.pt",
    "fee": "yes",
    "maxstay": "unlimited",
    "motorcar": "yes",
    "name": "LSB-00401",
    "network": "Mobi.E",
    "opening_hours": "24/7",
    "operator": "EDP Comercial",
    "operator:wikidata": "Q1341222",
    "parking:fee": "yes",
    "payment:app": "yes",
    "payment:cards": "no",
    "payment:cash": "no",
    "payment:membership_card": "yes",
    "phone": "+351 800 222 222",
    "ref": "LSB-00401",
    "socket:chademo": "1",
    "socket:chademo:current": "125",
    "socket:chademo:output": "50kW",
    "socket:chademo:voltage": "500",
    "socket:type2_combo": "1",
    "socket:type2_combo:current": "350",
    "socket:type2_combo:output": "160kW",
    "socket:type2_combo:voltage": "1000",
    "website": "https://www.mobie.pt/",
    "id": "node/9191518351"
  },
  "geometry": {
    "type": "Point",
    "coordinates": [
      -9.1834214,
      38.7532464
    ]
  }
},
{
  "type": "Feature",
  "id": "node/9356529542",
  "properties": {
    "access": "yes",
    "addr:country": "PT",
    "amenity": "charging_station",
    "authentication:membership_card": "yes",
    "authentication:none": "no",
    "capacity": "1",
    "email": "mobilidade-eletrica@edp.pt",
    "fee": "yes",
    "maxstay": "unlimited",
    "motorcar": "yes",
    "name": "VND-00009 - Repsol",
    "network": "Mobi.E",
    "opening_hours": "24/7",
    "operator": "EDP Comercial",
    "parking:fee": "no",
    "payment:app": "yes",
    "payment:cards": "no",
    "payment:cash": "no",
    "payment:membership_card": "yes",
    "phone": "+351 800 222 222",
    "ref": "VND-00009",
    "socket:chademo": "1",
    "socket:chademo:current": "120",
    "socket:chademo:output": "50kW",
    "socket:chademo:voltage": "500",
    "socket:type2_combo": "1",
    "socket:type2_combo:current": "175",
    "socket:type2_combo:output": "160kW",
    "socket:type2_combo:voltage": "1000",
    "website": "https://www.mobie.pt",
    "id": "node/9356529542"
  },
  "geometry": {
    "type": "Point",
    "coordinates": [
      -8.5804376,
      38.6206258
    ]
  }
},
{
  "type": "Feature",
  "id": "node/9359435908",
  "properties": {
    "access": "yes",
    "addr:country": "PT",
    "amenity": "charging_station",
    "authentication:membership_card": "yes",
    "authentication:none": "no",
    "capacity": "1",
    "email": "mobilidade-eletrica@edp.pt",
    "fee": "yes",
    "maxstay": "unlimited",
    "motorcar": "yes",
    "name": "LRA-00077",
    "network": "Mobi.E",
    "old_ref": "LRA-00050",
    "opening_hours": "24/7",
    "operator": "EDP",
    "operator:wikidata": "Q1341222",
    "parking:fee": "no",
    "payment:app": "yes",
    "payment:cards": "no",
    "payment:cash": "no",
    "payment:membership_card": "yes",
    "phone": "+351 800 222 222",
    "ref": "LRA-00077",
    "socket:chademo": "1",
    "socket:chademo:current": "125",
    "socket:chademo:output": "50kW",
    "socket:chademo:voltage": "500",
    "socket:type2_combo": "1",
    "socket:type2_combo:current": "375",
    "socket:type2_combo:output": "150kW",
    "socket:type2_combo:voltage": "1000",
    "website": "https://www.mobie.pt/",
    "id": "node/9359435908"
  },
  "geometry": {
    "type": "Point",
    "coordinates": [
      -8.7965673,
      39.7410916
    ]
  }
},
{
  "type": "Feature",
  "id": "node/9362473163",
  "properties": {
    "access": "yes",
    "addr:country": "PT",
    "amenity": "charging_station",
    "authentication:membership_card": "yes",
    "authentication:none": "no",
    "capacity": "1",
    "email": "mobilidade-eletrica@edp.pt",
    "fee": "yes",
    "maxstay": "unlimited",
    "motorcar": "yes",
    "name": "VND-00008 - Repsol",
    "network": "Mobi.E",
    "opening_hours": "24/7",
    "operator": "EDP Comercial",
    "parking:fee": "no",
    "payment:app": "yes",
    "payment:cards": "no",
    "payment:cash": "no",
    "payment:membership_card": "yes",
    "phone": "+351 800 222 222",
    "ref": "VND-00008",
    "socket:chademo": "1",
    "socket:chademo:current": "120",
    "socket:chademo:output": "50kW",
    "socket:chademo:voltage": "500",
    "socket:type2_combo": "1",
    "socket:type2_combo:current": "175",
    "socket:type2_combo:output": "160kW",
    "socket:type2_combo:voltage": "1000",
    "website": "https://www.mobie.pt/",
    "id": "node/9362473163"
  },
  "geometry": {
    "type": "Point",
    "coordinates": [
      -8.5780415,
      38.6224584
    ]
  }
},
{
  "type": "Feature",
  "id": "node/9440272707",
  "properties": {
    "access": "yes",
    "addr:country": "PT",
    "amenity": "charging_station",
    "authentication:membership_card": "yes",
    "authentication:none": "no",
    "capacity": "1",
    "email": "support.portugal@atlante.energy",
    "fee": "yes",
    "maxstay": "unlimited",
    "motorcar": "yes",
    "name": "GMR-00116",
    "network": "Mobi.E",
    "old_operator": "KLC",
    "old_ref": "GMR-00043",
    "opening_hours": "24/7",
    "operator": "Atlante",
    "parking:fee": "no",
    "payment:app": "yes",
    "payment:cards": "no",
    "payment:cash": "no",
    "payment:membership_card": "yes",
    "phone": "+351 800 296 929",
    "ref": "GMR-00116",
    "socket:chademo": "1",
    "socket:chademo:current": "125",
    "socket:chademo:output": "50kW",
    "socket:chademo:voltage": "500",
    "socket:type2_combo": "1",
    "socket:type2_combo:current": "375",
    "socket:type2_combo:output": "150kW",
    "socket:type2_combo:voltage": "1000",
    "website": "https://www.mobie.pt/",
    "id": "node/9440272707"
  },
  "geometry": {
    "type": "Point",
    "coordinates": [
      -8.2980928,
      41.4480961
    ]
  }
},
{
  "type": "Feature",
  "id": "node/9464421023",
  "properties": {
    "access": "yes",
    "addr:country": "PT",
    "amenity": "charging_station",
    "authentication:membership_card": "yes",
    "authentication:none": "no",
    "capacity": "1",
    "email": "mobilidade-eletrica@edp.pt",
    "fee": "yes",
    "maxstay": "unlimited",
    "motorcar": "yes",
    "name": "VRL-00033",
    "network": "Mobi.E",
    "opening_hours": "24/7",
    "operator": "Evaz Energy",
    "parking:fee": "no",
    "payment:app": "yes",
    "payment:cards": "no",
    "payment:cash": "no",
    "payment:membership_card": "yes",
    "phone": "+351 800 222 222",
    "ref": "VRL-00033",
    "socket:chademo": "1",
    "socket:chademo:current": "200",
    "socket:chademo:output": "100kW",
    "socket:chademo:voltage": "500",
    "socket:type2_combo": "1",
    "socket:type2_combo:current": "250",
    "socket:type2_combo:output": "150kW",
    "socket:type2_combo:voltage": "1000",
    "website": "https://www.mobie.pt/",
    "id": "node/9464421023"
  },
  "geometry": {
    "type": "Point",
    "coordinates": [
      -7.6410578,
      41.3244514
    ]
  }
},
{
  "type": "Feature",
  "id": "node/9572688519",
  "properties": {
    "access": "yes",
    "addr:country": "PT",
    "amenity": "charging_station",
    "authentication:membership_card": "yes",
    "authentication:none": "no",
    "capacity": "1",
    "fee": "yes",
    "maxstay": "unlimited",
    "motorcar": "yes",
    "name": "SRP-00004",
    "network": "Mobi.E",
    "opening_hours": "24/7",
    "operator": "EV Power",
    "parking:fee": "no",
    "payment:app": "yes",
    "payment:cards": "no",
    "payment:cash": "no",
    "payment:membership_card": "yes",
    "ref": "SRP-00004",
    "socket:type2_combo": "2",
    "socket:type2_combo:current": "350",
    "socket:type2_combo:output": "180kW",
    "socket:type2_combo:voltage": "1000",
    "website": "https://www.mobie.pt/",
    "id": "node/9572688519"
  },
  "geometry": {
    "type": "Point",
    "coordinates": [
      -7.598336,
      37.942107
    ]
  }
},
{
  "type": "Feature",
  "id": "node/9631176939",
  "properties": {
    "access": "yes",
    "addr:country": "PT",
    "amenity": "charging_station",
    "authentication:membership_card": "yes",
    "authentication:none": "no",
    "capacity": "1",
    "email": "mobilidade-eletrica@edp.pt",
    "fee": "yes",
    "maxstay": "unlimited",
    "motorcar": "yes",
    "name": "VRL-00035",
    "network": "Mobi.E",
    "opening_hours": "24/7",
    "operator": "Evaz Energy",
    "parking:fee": "no",
    "payment:app": "yes",
    "payment:cards": "no",
    "payment:cash": "no",
    "payment:membership_card": "yes",
    "phone": "+351 800 222 222",
    "ref": "VRL-00035",
    "socket:chademo": "1",
    "socket:chademo:current": "200",
    "socket:chademo:output": "100kW",
    "socket:chademo:voltage": "500",
    "socket:type2_combo": "1",
    "socket:type2_combo:current": "250",
    "socket:type2_combo:output": "150kW",
    "socket:type2_combo:voltage": "1000",
    "website": "https://www.mobie.pt/",
    "id": "node/9631176939"
  },
  "geometry": {
    "type": "Point",
    "coordinates": [
      -7.6410696,
      41.3236528
    ]
  }
},
{
  "type": "Feature",
  "id": "node/9654015683",
  "properties": {
    "access": "yes",
    "addr:country": "PT",
    "amenity": "charging_station",
    "authentication:membership_card": "yes",
    "authentication:none": "no",
    "capacity": "1",
    "email": "support.portugal@atlante.energy",
    "fee": "yes",
    "maxstay": "unlimited",
    "motorcar": "yes",
    "name": "LLE-00164",
    "network": "Mobi.E",
    "old_operator": "KLC",
    "old_ref": "LLE-00090",
    "opening_hours": "24/7",
    "operator": "Atlante",
    "parking:fee": "no",
    "payment:app": "yes",
    "payment:cards": "no",
    "payment:cash": "no",
    "payment:membership_card": "yes",
    "phone": "+351 800 296 929",
    "ref": "LLE-00164",
    "socket:chademo": "1",
    "socket:chademo:current": "120",
    "socket:chademo:output": "50kW",
    "socket:chademo:voltage": "500",
    "socket:type2_combo": "1",
    "socket:type2_combo:current": "375",
    "socket:type2_combo:output": "150kW",
    "socket:type2_combo:voltage": "1000",
    "website": "https://www.mobie.pt",
    "id": "node/9654015683"
  },
  "geometry": {
    "type": "Point",
    "coordinates": [
      -8.1201762,
      37.0823249
    ]
  }
},
{
  "type": "Feature",
  "id": "node/9668119746",
  "properties": {
    "access": "yes",
    "addr:country": "PT",
    "amenity": "charging_station",
    "authentication:membership_card": "yes",
    "authentication:none": "no",
    "capacity": "1",
    "email": "mobilidade-eletrica@edp.pt",
    "fee": "yes",
    "maxstay": "unlimited",
    "motorcar": "yes",
    "name": "LRS-00067",
    "network": "Mobi.E",
    "opening_hours": "24/7",
    "operator": "EDP Comercial",
    "parking:fee": "yes",
    "payment:app": "yes",
    "payment:cards": "no",
    "payment:cash": "no",
    "payment:membership_card": "yes",
    "phone": "+351 800 222 222",
    "ref": "LRS-00067",
    "socket:chademo": "1",
    "socket:chademo:current": "125",
    "socket:chademo:output": "50kW",
    "socket:chademo:voltage": "500",
    "socket:type2_combo": "1",
    "socket:type2_combo:current": "375",
    "socket:type2_combo:output": "150kW",
    "socket:type2_combo:voltage": "1000",
    "website": "https://www.mobie.pt",
    "id": "node/9668119746"
  },
  "geometry": {
    "type": "Point",
    "coordinates": [
      -9.1002695,
      38.8058734
    ]
  }
},
{
  "type": "Feature",
  "id": "node/9668119749",
  "properties": {
    "access": "yes",
    "addr:country": "PT",
    "amenity": "charging_station",
    "authentication:membership_card": "yes",
    "authentication:none": "no",
    "capacity": "1",
    "email": "support.portugal@atlante.energy",
    "fee": "yes",
    "maxstay": "unlimited",
    "motorcar": "yes",
    "name": "MTS-00152",
    "network": "Mobi.E",
    "old_operator": "KLC",
    "old_ref": "MTS-00082",
    "opening_hours": "24/7",
    "operator": "Atlante",
    "parking:fee": "yes",
    "payment:app": "yes",
    "payment:cards": "no",
    "payment:cash": "no",
    "payment:membership_card": "yes",
    "phone": "+351 800 296 929",
    "ref": "MTS-00152",
    "socket:chademo": "1",
    "socket:chademo:current": "120",
    "socket:chademo:output": "50kW",
    "socket:chademo:voltage": "500",
    "socket:type2_combo": "1",
    "socket:type2_combo:current": "375",
    "socket:type2_combo:output": "150kW",
    "socket:type2_combo:voltage": "1000",
    "website": "https://www.mobie.pt",
    "id": "node/9668119749"
  },
  "geometry": {
    "type": "Point",
    "coordinates": [
      -8.6876424,
      41.1746084
    ]
  }
},
{
  "type": "Feature",
  "id": "node/9755551603",
  "properties": {
    "access": "yes",
    "addr:city": "Portalegre",
    "addr:country": "PT",
    "addr:street": "Rua General Conde Jorge Avilez",
    "amenity": "charging_station",
    "authentication:membership_card": "yes",
    "authentication:none": "no",
    "capacity": "1",
    "fee": "yes",
    "maxstay": "unlimited",
    "motorcar": "yes",
    "name": "PTG-00012",
    "network": "Mobi.E",
    "opening_hours": "24/7",
    "operator": "Iberdrola",
    "operator:wikidata": "Q1437502",
    "parking:fee": "no",
    "payment:app": "yes",
    "payment:cards": "no",
    "payment:cash": "no",
    "payment:membership_card": "yes",
    "ref": "PTG-00012",
    "socket:chademo": "1",
    "socket:chademo:current": "125",
    "socket:chademo:output": "50kW",
    "socket:chademo:voltage": "500",
    "socket:type2_combo": "1",
    "socket:type2_combo:current": "350",
    "socket:type2_combo:output": "160kW",
    "socket:type2_combo:voltage": "1000",
    "website": "https://www.mobie.pt/",
    "id": "node/9755551603"
  },
  "geometry": {
    "type": "Point",
    "coordinates": [
      -7.4280918,
      39.29742
    ]
  }
},
{
  "type": "Feature",
  "id": "node/9786970340",
  "properties": {
    "access": "yes",
    "addr:country": "PT",
    "amenity": "charging_station",
    "authentication:membership_card": "yes",
    "authentication:none": "no",
    "capacity": "6",
    "email": "mobilidade.electricacrc@galp.com",
    "fee": "yes",
    "maxstay": "unlimited",
    "motorcar": "yes",
    "name": "LSB-00465/466/478",
    "network": "Mobi.E",
    "opening_hours": "24/7",
    "operator": "Galp Power",
    "parking:fee": "yes",
    "payment:app": "yes",
    "payment:cards": "no",
    "payment:cash": "no",
    "payment:membership_card": "yes",
    "phone": "+351 800 249 249",
    "ref": "LSB-00465;LSB-00466;LSB-00478",
    "socket:type2_combo": "6",
    "socket:type2_combo:current": "190",
    "socket:type2_combo:output": "180kW",
    "socket:type2_combo:voltage": "1000",
    "website": "https://www.mobie.pt/",
    "id": "node/9786970340"
  },
  "geometry": {
    "type": "Point",
    "coordinates": [
      -9.1260056,
      38.7794202
    ]
  }
},
{
  "type": "Feature",
  "id": "node/9786970341",
  "properties": {
    "access": "yes",
    "addr:country": "PT",
    "amenity": "charging_station",
    "authentication:membership_card": "yes",
    "authentication:none": "no",
    "capacity": "4",
    "email": "mobilidade.electricacrc@galp.com",
    "fee": "yes",
    "maxstay": "unlimited",
    "motorcar": "yes",
    "name": "LSB-00467/468",
    "network": "Mobi.E",
    "opening_hours": "24/7",
    "operator": "Galp Power",
    "parking:fee": "yes",
    "payment:app": "yes",
    "payment:cards": "no",
    "payment:cash": "no",
    "payment:membership_card": "yes",
    "phone": "+351 800 249 249",
    "ref": "LSB-00467;LSB-00468",
    "socket:chademo": "2",
    "socket:chademo:current": "120",
    "socket:chademo:output": "50kW",
    "socket:chademo:voltage": "500",
    "socket:type2_combo": "2",
    "socket:type2_combo:current": "190",
    "socket:type2_combo:output": "180kW",
    "socket:type2_combo:voltage": "1000",
    "website": "https://www.mobie.pt/",
    "id": "node/9786970341"
  },
  "geometry": {
    "type": "Point",
    "coordinates": [
      -9.126023,
      38.779398
    ]
  }
},
{
  "type": "Feature",
  "id": "node/9847958421",
  "properties": {
    "access": "yes",
    "addr:country": "PT",
    "amenity": "charging_station",
    "authentication:membership_card": "yes",
    "authentication:none": "no",
    "capacity": "2",
    "email": "mobilidade.electricacrc@galp.com",
    "fee": "yes",
    "maxstay": "unlimited",
    "motorcar": "yes",
    "name": "VVR-00003 - Galp",
    "network": "Mobi.E",
    "opening_hours": "24/7",
    "operator": "Galp Geste",
    "parking:fee": "no",
    "payment:app": "yes",
    "payment:cards": "no",
    "payment:cash": "no",
    "payment:membership_card": "yes",
    "phone": "+351 800 249 249",
    "ref": "VVR-00003",
    "socket:chademo": "1",
    "socket:chademo:current": "120",
    "socket:chademo:output": "50kW",
    "socket:chademo:voltage": "500",
    "socket:type2_combo": "1",
    "socket:type2_combo:current": "120",
    "socket:type2_combo:output": "180kW",
    "socket:type2_combo:voltage": "1000",
    "website": "https://www.mobie.pt/",
    "id": "node/9847958421"
  },
  "geometry": {
    "type": "Point",
    "coordinates": [
      -7.782292,
      39.5730948
    ]
  }
},
{
  "type": "Feature",
  "id": "node/9847958422",
  "properties": {
    "access": "yes",
    "addr:country": "PT",
    "amenity": "charging_station",
    "authentication:membership_card": "yes",
    "authentication:none": "no",
    "capacity": "2",
    "email": "mobilidade.electricacrc@galp.com",
    "fee": "yes",
    "maxstay": "unlimited",
    "motorcar": "yes",
    "name": "VVR-00002 - Galp",
    "network": "Mobi.E",
    "opening_hours": "24/7",
    "operator": "Galp Geste",
    "parking:fee": "no",
    "payment:app": "yes",
    "payment:cards": "no",
    "payment:cash": "no",
    "payment:membership_card": "yes",
    "phone": "+351 800 249 249",
    "ref": "VVR-00002",
    "socket:chademo": "1",
    "socket:chademo:current": "120",
    "socket:chademo:output": "50kW",
    "socket:chademo:voltage": "500",
    "socket:type2_combo": "1",
    "socket:type2_combo:current": "120",
    "socket:type2_combo:output": "180kW",
    "socket:type2_combo:voltage": "1000",
    "website": "https://www.mobie.pt/",
    "id": "node/9847958422"
  },
  "geometry": {
    "type": "Point",
    "coordinates": [
      -7.7826986,
      39.5736592
    ]
  }
},
{
  "type": "Feature",
  "id": "node/9848183325",
  "properties": {
    "access": "yes",
    "addr:country": "PT",
    "amenity": "charging_station",
    "authentication:membership_card": "yes",
    "authentication:none": "no",
    "capacity": "2",
    "fee": "yes",
    "maxstay": "unlimited",
    "motorcar": "yes",
    "name": "EVR-00022 - Matos Car",
    "network": "Mobi.E",
    "opening_hours": "24/7",
    "operator": "Moon",
    "parking:fee": "no",
    "payment:app": "yes",
    "payment:cards": "no",
    "payment:cash": "no",
    "payment:membership_card": "yes",
    "ref": "EVR-00022",
    "socket:type2_cable": "1",
    "socket:type2_cable:current": "32",
    "socket:type2_cable:output": "22kW",
    "socket:type2_cable:voltage": "400",
    "socket:type2_combo": "2",
    "socket:type2_combo:current": "500",
    "socket:type2_combo:output": "300kW",
    "socket:type2_combo:voltage": "1000",
    "website": "https://www.mobie.pt/",
    "id": "node/9848183325"
  },
  "geometry": {
    "type": "Point",
    "coordinates": [
      -7.9132823,
      38.5497534
    ]
  }
},
{
  "type": "Feature",
  "id": "node/9920029557",
  "properties": {
    "access": "yes",
    "addr:country": "PT",
    "amenity": "charging_station",
    "authentication:membership_card": "yes",
    "authentication:none": "no",
    "capacity": "1",
    "email": "mobilidade.electricacrc@galp.com",
    "fee": "yes",
    "maxstay": "unlimited",
    "motorcar": "yes",
    "name": "SXL-00035/36",
    "network": "Mobi.E",
    "opening_hours": "24/7",
    "operator": "Galp Power",
    "parking:fee": "no",
    "payment:app": "yes",
    "payment:cards": "no",
    "payment:cash": "no",
    "payment:membership_card": "yes",
    "phone": "+351 800 249 249",
    "ref": "SXL-00035;SXL-00036",
    "socket:chademo": "1",
    "socket:chademo:current": "125",
    "socket:chademo:output": "50kW",
    "socket:chademo:voltage": "500",
    "socket:type2": "2",
    "socket:type2:current": "32",
    "socket:type2:output": "22kW",
    "socket:type2:voltage": "400",
    "socket:type2_combo": "1",
    "socket:type2_combo:current": "190",
    "socket:type2_combo:output": "180kW",
    "socket:type2_combo:voltage": "1000",
    "website": "https://www.mobie.pt",
    "id": "node/9920029557"
  },
  "geometry": {
    "type": "Point",
    "coordinates": [
      -9.0954263,
      38.6412759
    ]
  }
},
{
  "type": "Feature",
  "id": "node/9920038579",
  "properties": {
    "access": "yes",
    "addr:country": "PT",
    "amenity": "charging_station",
    "authentication:membership_card": "yes",
    "authentication:none": "no",
    "capacity": "1",
    "email": "mobilidade.electricacrc@galp.com",
    "fee": "yes",
    "maxstay": "unlimited",
    "motorcar": "yes",
    "name": "SXL-00027",
    "network": "Mobi.E",
    "opening_hours": "24/7",
    "operator": "Galp Power",
    "parking:fee": "no",
    "payment:app": "yes",
    "payment:cards": "no",
    "payment:cash": "no",
    "payment:membership_card": "yes",
    "phone": "+351 800 249 249",
    "ref": "SXL-00027",
    "socket:chademo": "1",
    "socket:chademo:current": "125",
    "socket:chademo:output": "50kW",
    "socket:chademo:voltage": "500",
    "socket:type2_combo": "1",
    "socket:type2_combo:current": "190",
    "socket:type2_combo:output": "180kW",
    "socket:type2_combo:voltage": "1000",
    "website": "https://www.mobie.pt",
    "id": "node/9920038579"
  },
  "geometry": {
    "type": "Point",
    "coordinates": [
      -9.0953813,
      38.6214016
    ]
  }
},
{
  "type": "Feature",
  "id": "node/9920038582",
  "properties": {
    "access": "yes",
    "addr:country": "PT",
    "amenity": "charging_station",
    "authentication:membership_card": "yes",
    "authentication:none": "no",
    "capacity": "1",
    "email": "mobilidade.electricacrc@galp.com",
    "fee": "yes",
    "maxstay": "unlimited",
    "motorcar": "yes",
    "name": "SXL-00032",
    "network": "Mobi.E",
    "opening_hours": "24/7",
    "operator": "Galp Power",
    "parking:fee": "no",
    "payment:app": "yes",
    "payment:cards": "no",
    "payment:cash": "no",
    "payment:membership_card": "yes",
    "phone": "+351 800 249 249",
    "ref": "SXL-00032",
    "socket:chademo": "1",
    "socket:chademo:current": "125",
    "socket:chademo:output": "50kW",
    "socket:chademo:voltage": "500",
    "socket:type2_combo": "1",
    "socket:type2_combo:current": "190",
    "socket:type2_combo:output": "180kW",
    "socket:type2_combo:voltage": "1000",
    "website": "https://www.mobie.pt",
    "id": "node/9920038582"
  },
  "geometry": {
    "type": "Point",
    "coordinates": [
      -9.1513361,
      38.6324065
    ]
  }
},
{
  "type": "Feature",
  "id": "node/9920038583",
  "properties": {
    "access": "yes",
    "addr:country": "PT",
    "amenity": "charging_station",
    "authentication:membership_card": "yes",
    "authentication:none": "no",
    "capacity": "3",
    "email": "mobilidade.electricacrc@galp.com",
    "fee": "yes",
    "maxstay": "unlimited",
    "motorcar": "yes",
    "name": "SXL-00033/34",
    "network": "Mobi.E",
    "opening_hours": "24/7",
    "operator": "Galp Power",
    "parking:fee": "no",
    "payment:app": "yes",
    "payment:cards": "no",
    "payment:cash": "no",
    "payment:membership_card": "yes",
    "phone": "+351 800 249 249",
    "ref": "SXL-00033;SXL-00034",
    "socket:chademo": "1",
    "socket:chademo:current": "125",
    "socket:chademo:output": "50kW",
    "socket:chademo:voltage": "500",
    "socket:type2": "2",
    "socket:type2:current": "32",
    "socket:type2:output": "22kW",
    "socket:type2:voltage": "400",
    "socket:type2_combo": "1",
    "socket:type2_combo:current": "190",
    "socket:type2_combo:output": "180kW",
    "socket:type2_combo:voltage": "1000",
    "website": "https://www.mobie.pt",
    "id": "node/9920038583"
  },
  "geometry": {
    "type": "Point",
    "coordinates": [
      -9.143155,
      38.6511705
    ]
  }
},
{
  "type": "Feature",
  "id": "node/9920140184",
  "properties": {
    "access": "yes",
    "addr:country": "PT",
    "amenity": "charging_station",
    "authentication:membership_card": "yes",
    "authentication:none": "no",
    "capacity": "1",
    "email": "mobilidade.electricacrc@galp.com",
    "fee": "yes",
    "maxstay": "unlimited",
    "motorcar": "yes",
    "name": "SXL-00028",
    "network": "Mobi.E",
    "opening_hours": "24/7",
    "operator": "Galp Power",
    "parking:fee": "no",
    "payment:app": "yes",
    "payment:cards": "no",
    "payment:cash": "no",
    "payment:membership_card": "yes",
    "phone": "+351 800 249 249",
    "ref": "SXL-00028",
    "socket:chademo": "1",
    "socket:chademo:current": "125",
    "socket:chademo:output": "50kW",
    "socket:chademo:voltage": "500",
    "socket:type2_combo": "1",
    "socket:type2_combo:current": "190",
    "socket:type2_combo:output": "180kW",
    "socket:type2_combo:voltage": "1000",
    "website": "https://www.mobie.pt",
    "id": "node/9920140184"
  },
  "geometry": {
    "type": "Point",
    "coordinates": [
      -9.1020014,
      38.6165392
    ]
  }
},
{
  "type": "Feature",
  "id": "node/9932668654",
  "properties": {
    "access": "yes",
    "addr:country": "PT",
    "amenity": "charging_station",
    "authentication:membership_card": "yes",
    "authentication:none": "no",
    "capacity": "3",
    "email": "mobilidade.electricacrc@galp.com",
    "fee": "yes",
    "maxstay": "unlimited",
    "motorcar": "yes",
    "name": "BRG-00066 - Jomecsport",
    "network": "Mobi.E",
    "opening_hours": "24/7",
    "operator": "Galp Power",
    "parking:fee": "no",
    "payment:app": "yes",
    "payment:cards": "no",
    "payment:cash": "no",
    "payment:membership_card": "yes",
    "phone": "+351 800 249 249",
    "ref": "BRG-00066",
    "socket:type2": "1",
    "socket:type2:current": "32",
    "socket:type2:output": "22kW",
    "socket:type2:voltage": "400",
    "socket:type2_combo": "2",
    "socket:type2_combo:current": "300",
    "socket:type2_combo:output": "150kW",
    "socket:type2_combo:voltage": "1000",
    "website": "https://www.mobie.pt/",
    "id": "node/9932668654"
  },
  "geometry": {
    "type": "Point",
    "coordinates": [
      -8.4183691,
      41.5262073
    ]
  }
},
{
  "type": "Feature",
  "id": "node/9947919965",
  "properties": {
    "access": "yes",
    "addr:country": "PT",
    "amenity": "charging_station",
    "authentication:membership_card": "yes",
    "authentication:none": "no",
    "capacity": "2",
    "fee": "yes",
    "maxstay": "unlimited",
    "motorcar": "yes",
    "name": "LRA-00046 - Lubrisport",
    "network": "Mobi.E",
    "opening_hours": "24/7",
    "operator": "Moon",
    "parking:fee": "no",
    "payment:app": "yes",
    "payment:cards": "no",
    "payment:cash": "no",
    "payment:membership_card": "yes",
    "ref": "LRA-00046",
    "socket:type2_cable": "1",
    "socket:type2_cable:current": "32",
    "socket:type2_cable:output": "22kW",
    "socket:type2_cable:voltage": "400",
    "socket:type2_combo": "1",
    "socket:type2_combo:current": "190",
    "socket:type2_combo:output": "180kW",
    "socket:type2_combo:voltage": "1000",
    "website": "https://www.mobie.pt/",
    "id": "node/9947919965"
  },
  "geometry": {
    "type": "Point",
    "coordinates": [
      -8.7851988,
      39.7637275
    ]
  }
},
{
  "type": "Feature",
  "id": "node/9960356554",
  "properties": {
    "access": "yes",
    "addr:country": "PT",
    "amenity": "charging_station",
    "authentication:membership_card": "yes",
    "authentication:none": "no",
    "capacity": "2",
    "fee": "yes",
    "maxstay": "unlimited",
    "motorcar": "yes",
    "name": "GDL-00017 - BP",
    "network": "Mobi.E",
    "opening_hours": "24/7",
    "operator": "Charging Together",
    "parking:fee": "no",
    "payment:app": "yes",
    "payment:cards": "no",
    "payment:cash": "no",
    "payment:membership_card": "yes",
    "ref": "GDL-00007",
    "socket:chademo": "1",
    "socket:chademo:current": "200",
    "socket:chademo:output": "100kW",
    "socket:chademo:voltage": "500",
    "socket:type2_combo": "2",
    "socket:type2_combo:current": "500",
    "socket:type2_combo:output": "150kW",
    "socket:type2_combo:voltage": "1000",
    "website": "https://www.mobie.pt/",
    "id": "node/9960356554"
  },
  "geometry": {
    "type": "Point",
    "coordinates": [
      -8.5688332,
      38.1844696
    ]
  }
},
{
  "type": "Feature",
  "id": "node/10005184505",
  "properties": {
    "access": "yes",
    "addr:country": "PT",
    "amenity": "charging_station",
    "authentication:membership_card": "yes",
    "authentication:none": "no",
    "capacity": "9",
    "email": "ajuda@powerdot.pt",
    "fee": "yes",
    "maxstay": "unlimited",
    "motorcar": "yes",
    "name": "AMD-00052/54 - Decathlon",
    "network": "Mobi.E",
    "opening_hours": "24/7",
    "operator": "Powerdot",
    "parking:fee": "no",
    "payment:app": "yes",
    "payment:cards": "no",
    "payment:cash": "no",
    "payment:membership_card": "yes",
    "phone": "+351 800 180 292",
    "ref": "AMD-00052;AMD-00054",
    "socket:chademo": "2",
    "socket:chademo:current": "125",
    "socket:chademo:output": "50kW",
    "socket:chademo:voltage": "500",
    "socket:type2": "1",
    "socket:type2:current": "16",
    "socket:type2:output": "11kW",
    "socket:type2:voltage": "400",
    "socket:type2_combo": "6",
    "socket:type2_combo:current": "375",
    "socket:type2_combo:output": "150kW",
    "socket:type2_combo:voltage": "1000",
    "website": "https://www.mobie.pt/",
    "id": "node/10005184505"
  },
  "geometry": {
    "type": "Point",
    "coordinates": [
      -9.2112469,
      38.7275445
    ]
  }
},
{
  "type": "Feature",
  "id": "node/10075901095",
  "properties": {
    "access": "yes",
    "addr:country": "PT",
    "amenity": "charging_station",
    "authentication:membership_card": "yes",
    "authentication:none": "no",
    "capacity": "2",
    "email": "ajuda@powerdot.pt",
    "fee": "yes",
    "maxstay": "unlimited",
    "motorcar": "yes",
    "name": "CSC-00114 - Elefante Azul",
    "network": "Mobi.E",
    "opening_hours": "24/7",
    "operator": "Powerdot",
    "parking:fee": "no",
    "payment:app": "yes",
    "payment:cards": "no",
    "payment:cash": "no",
    "payment:membership_card": "yes",
    "phone": "+351 800 180 292",
    "ref": "CSC-00114",
    "socket:type2_combo": "2",
    "socket:type2_combo:current": "200",
    "socket:type2_combo:output": "180kW",
    "socket:type2_combo:voltage": "1000",
    "website": "https://www.mobie.pt/",
    "id": "node/10075901095"
  },
  "geometry": {
    "type": "Point",
    "coordinates": [
      -9.3354579,
      38.7289063
    ]
  }
},
{
  "type": "Feature",
  "id": "node/10202612684",
  "properties": {
    "access": "yes",
    "addr:country": "PT",
    "amenity": "charging_station",
    "authentication:membership_card": "yes",
    "authentication:none": "no",
    "capacity": "2",
    "fee": "yes",
    "maxstay": "unlimited",
    "motorcar": "yes",
    "name": "VRL-00016",
    "network": "Mobi.E",
    "opening_hours": "24/7",
    "operator": "NRG",
    "parking:fee": "no",
    "payment:app": "yes",
    "payment:cards": "no",
    "payment:cash": "no",
    "payment:membership_card": "yes",
    "ref": "VRL-00016",
    "socket:chademo": "1",
    "socket:chademo:current": "200",
    "socket:chademo:output": "100kW",
    "socket:chademo:voltage": "500",
    "socket:type2_combo": "1",
    "socket:type2_combo:current": "200",
    "socket:type2_combo:output": "180kW",
    "socket:type2_combo:voltage": "1000",
    "website": "https://www.mobie.pt/",
    "id": "node/10202612684"
  },
  "geometry": {
    "type": "Point",
    "coordinates": [
      -7.731619,
      41.3142261
    ]
  }
},
{
  "type": "Feature",
  "id": "node/10297334788",
  "properties": {
    "access": "yes",
    "amenity": "charging_station",
    "authentication:membership_card": "yes",
    "authentication:none": "no",
    "capacity": "2",
    "fee": "yes",
    "maxstay": "unlimited",
    "motorcar": "yes",
    "name": "OER-00222 - BP",
    "network": "Mobi.E",
    "old_operator": "BP Pulse",
    "old_ref": "OER-00176",
    "opening_hours": "24/7",
    "operator": "Charging Together",
    "parking:fee": "no",
    "payment:app": "yes",
    "payment:cards": "no",
    "payment:cash": "no",
    "payment:membership_card": "yes",
    "ref": "OER-00222",
    "socket:chademo": "1",
    "socket:chademo:current": "200",
    "socket:chademo:output": "100kW",
    "socket:chademo:voltage": "500",
    "socket:type2_combo": "2",
    "socket:type2_combo:current": "500",
    "socket:type2_combo:output": "150kW",
    "socket:type2_combo:voltage": "1000",
    "website": "https://www.mobie.pt/",
    "id": "node/10297334788"
  },
  "geometry": {
    "type": "Point",
    "coordinates": [
      -9.3047172,
      38.7508871
    ]
  }
},
{
  "type": "Feature",
  "id": "node/10300355543",
  "properties": {
    "access": "yes",
    "addr:country": "PT",
    "amenity": "charging_station",
    "authentication:membership_card": "yes",
    "authentication:none": "no",
    "capacity": "2",
    "email": "ajuda@powerdot.pt",
    "fee": "yes",
    "maxstay": "unlimited",
    "motorcar": "yes",
    "name": "CLD-00021 - Via-Atlântica",
    "network": "Mobi.E",
    "opening_hours": "24/7",
    "operator": "Powerdot",
    "parking:fee": "no",
    "payment:app": "yes",
    "payment:cards": "no",
    "payment:cash": "no",
    "payment:membership_card": "yes",
    "phone": "+351 800 180 292",
    "ref": "CLD-00021",
    "socket:chademo": "1",
    "socket:chademo:current": "120",
    "socket:chademo:output": "50kW",
    "socket:chademo:voltage": "500",
    "socket:type2_combo": "1",
    "socket:type2_combo:current": "190",
    "socket:type2_combo:output": "180kW",
    "socket:type2_combo:voltage": "1000",
    "website": "https://www.mobie.pt/",
    "id": "node/10300355543"
  },
  "geometry": {
    "type": "Point",
    "coordinates": [
      -9.16165,
      39.425435
    ]
  }
},
{
  "type": "Feature",
  "id": "node/10589018779",
  "properties": {
    "access": "yes",
    "addr:country": "PT",
    "amenity": "charging_station",
    "authentication:membership_card": "yes",
    "authentication:none": "no",
    "capacity": "2",
    "fee": "yes",
    "maxstay": "unlimited",
    "motorcar": "yes",
    "name": "PLM-00025",
    "network": "Mobi.E",
    "opening_hours": "24/7",
    "operator": "NRG",
    "parking:fee": "no",
    "payment:app": "yes",
    "payment:cards": "no",
    "payment:cash": "no",
    "payment:membership_card": "yes",
    "ref": "PLM-00025",
    "socket:chademo": "1",
    "socket:chademo:current": "200",
    "socket:chademo:output": "100kW",
    "socket:chademo:voltage": "500",
    "socket:type2_combo": "1",
    "socket:type2_combo:current": "200",
    "socket:type2_combo:output": "180kW",
    "socket:type2_combo:voltage": "1000",
    "website": "https://www.mobie.pt/",
    "id": "node/10589018779"
  },
  "geometry": {
    "type": "Point",
    "coordinates": [
      -8.6921186,
      38.5859868
    ]
  }
},
{
  "type": "Feature",
  "id": "node/10604939077",
  "properties": {
    "access": "yes",
    "addr:country": "PT",
    "amenity": "charging_station",
    "authentication:membership_card": "yes",
    "authentication:none": "no",
    "capacity": "2",
    "fee": "yes",
    "maxstay": "unlimited",
    "motorcar": "yes",
    "name": "EVR-00031",
    "network": "Mobi.E",
    "opening_hours": "24/7",
    "operator": "NRG",
    "parking:fee": "no",
    "payment:app": "yes",
    "payment:cards": "no",
    "payment:cash": "no",
    "payment:membership_card": "yes",
    "ref": "EVR-00031",
    "socket:chademo": "1",
    "socket:chademo:current": "125",
    "socket:chademo:output": "50kW",
    "socket:chademo:voltage": "500",
    "socket:type2_combo": "1",
    "socket:type2_combo:current": "200",
    "socket:type2_combo:output": "180kW",
    "socket:type2_combo:voltage": "1000",
    "website": "https://www.mobie.pt/",
    "id": "node/10604939077"
  },
  "geometry": {
    "type": "Point",
    "coordinates": [
      -7.914554,
      38.576177
    ]
  }
},
{
  "type": "Feature",
  "id": "node/10635011299",
  "properties": {
    "access": "yes",
    "addr:country": "PT",
    "amenity": "charging_station",
    "authentication:membership_card": "yes",
    "authentication:none": "no",
    "capacity": "4",
    "email": "ajuda@powerdot.pt",
    "fee": "yes",
    "maxstay": "unlimited",
    "motorcar": "yes",
    "name": "PNF-00035",
    "network": "Mobi.E",
    "old_ref": "PNF-00019",
    "opening_hours": "09:00-20:00",
    "operator": "Powerdot",
    "parking:fee": "no",
    "payment:app": "yes",
    "payment:cards": "no",
    "payment:cash": "no",
    "payment:membership_card": "yes",
    "phone": "+351 800 180 292",
    "ref": "PNF-00035",
    "socket:chademo": "1",
    "socket:chademo:current": "125",
    "socket:chademo:output": "50kW",
    "socket:chademo:voltage": "500",
    "socket:type2_combo": "3",
    "socket:type2_combo:current": "300",
    "socket:type2_combo:output": "200kW",
    "socket:type2_combo:voltage": "1000",
    "website": "https://www.mobie.pt",
    "id": "node/10635011299"
  },
  "geometry": {
    "type": "Point",
    "coordinates": [
      -8.2833334,
      41.2151351
    ]
  }
},
{
  "type": "Feature",
  "id": "node/10648560883",
  "properties": {
    "access": "yes",
    "addr:country": "PT",
    "amenity": "charging_station",
    "authentication:membership_card": "yes",
    "authentication:none": "no",
    "capacity": "4",
    "email": "ajuda@powerdot.pt",
    "fee": "yes",
    "maxstay": "unlimited",
    "motorcar": "yes",
    "name": "LRS-00090 - Roady",
    "network": "Mobi.E",
    "opening_hours": "24/7",
    "operator": "Powerdot",
    "parking:fee": "no",
    "payment:app": "yes",
    "payment:cards": "no",
    "payment:cash": "no",
    "payment:membership_card": "yes",
    "phone": "+351 800 180 292",
    "ref": "LRS-00090",
    "socket:chademo": "1",
    "socket:chademo:current": "125",
    "socket:chademo:output": "50kW",
    "socket:chademo:voltage": "500",
    "socket:type2_combo": "3",
    "socket:type2_combo:current": "375",
    "socket:type2_combo:output": "200kW",
    "socket:type2_combo:voltage": "1000",
    "website": "https://www.mobie.pt",
    "id": "node/10648560883"
  },
  "geometry": {
    "type": "Point",
    "coordinates": [
      -9.0762009,
      38.8514757
    ]
  }
},
{
  "type": "Feature",
  "id": "node/10707933571",
  "properties": {
    "access": "yes",
    "addr:city": "Matosinhos",
    "addr:country": "PT",
    "addr:street": "Rua de Goa",
    "amenity": "charging_station",
    "authentication:membership_card": "yes",
    "authentication:none": "no",
    "capacity": "1",
    "fee": "yes",
    "maxstay": "unlimited",
    "motorcar": "yes",
    "name": "MTS-00145",
    "network": "Mobi.E",
    "old_operator": "Iberdrola",
    "old_ref": "MTS-00104",
    "opening_hours": "24/7",
    "operator": "Charging Together",
    "parking:fee": "no",
    "payment:app": "yes",
    "payment:cards": "no",
    "payment:cash": "no",
    "payment:membership_card": "yes",
    "ref": "MTS-00145",
    "socket:chademo": "1",
    "socket:chademo:current": "120",
    "socket:chademo:output": "50kW",
    "socket:chademo:voltage": "500",
    "socket:type2_combo": "1",
    "socket:type2_combo:current": "300",
    "socket:type2_combo:output": "175kW",
    "socket:type2_combo:voltage": "1000",
    "website": "https://www.mobie.pt",
    "id": "node/10707933571"
  },
  "geometry": {
    "type": "Point",
    "coordinates": [
      -8.6818399,
      41.1842681
    ]
  }
},
{
  "type": "Feature",
  "id": "node/10759985335",
  "properties": {
    "access": "yes",
    "addr:country": "PT",
    "amenity": "charging_station",
    "authentication:membership_card": "yes",
    "authentication:none": "no",
    "capacity": "4",
    "email": "mobilidade.electricacrc@galp.com",
    "fee": "yes",
    "maxstay": "unlimited",
    "motorcar": "yes",
    "name": "OER-00178/9 - Galp",
    "network": "Mobi.E",
    "opening_hours": "24/7",
    "operator": "Galp Geste",
    "parking:fee": "no",
    "payment:app": "yes",
    "payment:cards": "no",
    "payment:cash": "no",
    "payment:membership_card": "yes",
    "phone": "+351 800 249 249",
    "ref": "OER-00178;OER-00179",
    "socket:chademo": "2",
    "socket:chademo:current": "120",
    "socket:chademo:output": "50kW",
    "socket:chademo:voltage": "500",
    "socket:type2_combo": "2",
    "socket:type2_combo:current": "190",
    "socket:type2_combo:output": "180kW",
    "socket:type2_combo:voltage": "1000",
    "website": "https://www.mobie.pt/",
    "id": "node/10759985335"
  },
  "geometry": {
    "type": "Point",
    "coordinates": [
      -9.3220906,
      38.6943834
    ]
  }
},
{
  "type": "Feature",
  "id": "node/10809116535",
  "properties": {
    "access": "yes",
    "addr:country": "PT",
    "amenity": "charging_station",
    "authentication:membership_card": "yes",
    "authentication:none": "no",
    "capacity": "2",
    "fee": "yes",
    "maxstay": "unlimited",
    "motorcar": "yes",
    "name": "GRD-00021",
    "network": "Mobi.E",
    "opening_hours": "24/7",
    "operator": "NRG",
    "parking:fee": "no",
    "payment:app": "yes",
    "payment:cards": "no",
    "payment:cash": "no",
    "payment:membership_card": "yes",
    "ref": "GRD-00021",
    "socket:chademo": "1",
    "socket:chademo:current": "120",
    "socket:chademo:output": "50kW",
    "socket:chademo:voltage": "500",
    "socket:type2_combo": "1",
    "socket:type2_combo:current": "200",
    "socket:type2_combo:output": "180kW",
    "socket:type2_combo:voltage": "1000",
    "website": "https://www.mobie.pt/",
    "id": "node/10809116535"
  },
  "geometry": {
    "type": "Point",
    "coordinates": [
      -7.241882,
      40.549415
    ]
  }
},
{
  "type": "Feature",
  "id": "node/10830538307",
  "properties": {
    "access": "yes",
    "addr:country": "PT",
    "amenity": "charging_station",
    "authentication:membership_card": "yes",
    "authentication:none": "no",
    "capacity": "2",
    "fee": "yes",
    "maxstay": "unlimited",
    "motorcar": "yes",
    "name": "CSC-00126 - Intermarché",
    "network": "Mobi.E",
    "opening_hours": "24/7",
    "operator": "Ucharge",
    "parking:fee": "no",
    "payment:app": "yes",
    "payment:cards": "no",
    "payment:cash": "no",
    "payment:membership_card": "yes",
    "ref": "CSC-00126",
    "socket:type2_combo": "2",
    "socket:type2_combo:current": "375",
    "socket:type2_combo:output": "150kW",
    "socket:type2_combo:voltage": "1000",
    "website": "https://www.mobie.pt/",
    "id": "node/10830538307"
  },
  "geometry": {
    "type": "Point",
    "coordinates": [
      -9.3356013,
      38.7096349
    ]
  }
},
{
  "type": "Feature",
  "id": "node/10830538308",
  "properties": {
    "access": "yes",
    "addr:country": "PT",
    "amenity": "charging_station",
    "authentication:membership_card": "yes",
    "authentication:none": "no",
    "capacity": "2",
    "email": "mobilidade.electricacrc@galp.com",
    "fee": "yes",
    "maxstay": "unlimited",
    "motorcar": "yes",
    "name": "OER-00169",
    "network": "Mobi.E",
    "old_ref": "OER-00039",
    "opening_hours": "24/7",
    "operator": "Galp Power",
    "parking:fee": "no",
    "payment:app": "yes",
    "payment:cards": "no",
    "payment:cash": "no",
    "payment:membership_card": "yes",
    "phone": "+351 800 249 249",
    "ref": "OER-00169",
    "socket:type2_combo": "2",
    "socket:type2_combo:current": "190",
    "socket:type2_combo:output": "160kW",
    "socket:type2_combo:voltage": "1000",
    "website": "https://www.mobie.pt/",
    "id": "node/10830538308"
  },
  "geometry": {
    "type": "Point",
    "coordinates": [
      -9.3164136,
      38.6839783
    ]
  }
},
{
  "type": "Feature",
  "id": "node/10830538309",
  "properties": {
    "access": "yes",
    "addr:country": "PT",
    "amenity": "charging_station",
    "authentication:membership_card": "yes",
    "authentication:none": "no",
    "capacity": "2",
    "email": "mobilidade.electricacrc@galp.com",
    "fee": "yes",
    "maxstay": "unlimited",
    "motorcar": "yes",
    "name": "OER-00170",
    "network": "Mobi.E",
    "old_ref": "OER-00065",
    "opening_hours": "24/7",
    "operator": "Galp Power",
    "parking:fee": "no",
    "payment:app": "yes",
    "payment:cards": "no",
    "payment:cash": "no",
    "payment:membership_card": "yes",
    "phone": "+351 800 249 249",
    "ref": "OER-00170",
    "socket:type2_combo": "2",
    "socket:type2_combo:current": "190",
    "socket:type2_combo:output": "160kW",
    "socket:type2_combo:voltage": "1000",
    "website": "https://www.mobie.pt/",
    "id": "node/10830538309"
  },
  "geometry": {
    "type": "Point",
    "coordinates": [
      -9.2279442,
      38.700745
    ]
  }
},
{
  "type": "Feature",
  "id": "node/10913978957",
  "properties": {
    "access": "yes",
    "addr:country": "PT",
    "amenity": "charging_station",
    "authentication:membership_card": "yes",
    "authentication:none": "no",
    "capacity": "4",
    "email": "ajuda@powerdot.pt",
    "fee": "yes",
    "maxstay": "unlimited",
    "motorcar": "yes",
    "name": "MTJ-00032 - Roady",
    "network": "Mobi.E",
    "opening_hours": "24/7",
    "operator": "Powerdot",
    "parking:fee": "no",
    "payment:app": "yes",
    "payment:cards": "no",
    "payment:cash": "no",
    "payment:membership_card": "yes",
    "phone": "+351 800 180 292",
    "ref": "MTJ-00032",
    "socket:chademo": "1",
    "socket:chademo:current": "125",
    "socket:chademo:output": "50kW",
    "socket:chademo:voltage": "500",
    "socket:type2_combo": "3",
    "socket:type2_combo:current": "375",
    "socket:type2_combo:output": "200kW",
    "socket:type2_combo:voltage": "1000",
    "website": "https://www.mobie.pt",
    "id": "node/10913978957"
  },
  "geometry": {
    "type": "Point",
    "coordinates": [
      -8.9685695,
      38.7102027
    ]
  }
},
{
  "type": "Feature",
  "id": "node/10948848125",
  "properties": {
    "access": "yes",
    "addr:country": "PT",
    "amenity": "charging_station",
    "authentication:membership_card": "yes",
    "authentication:none": "no",
    "capacity": "2",
    "email": "mobilidade.electricacrc@galp.com",
    "fee": "yes",
    "maxstay": "unlimited",
    "motorcar": "yes",
    "name": "PVZ-00029",
    "network": "Mobi.E",
    "old_ref": "PVZ-00008;PVZ-00009",
    "opening_hours": "24/7",
    "operator": "Galp Power",
    "parking:fee": "no",
    "payment:app": "yes",
    "payment:cards": "no",
    "payment:cash": "no",
    "payment:membership_card": "yes",
    "phone": "+351 800 249 249",
    "ref": "PVZ-00029",
    "socket:type2_combo": "2",
    "socket:type2_combo:current": "375",
    "socket:type2_combo:output": "150kW",
    "socket:type2_combo:voltage": "1000",
    "website": "https://www.mobie.pt/",
    "id": "node/10948848125"
  },
  "geometry": {
    "type": "Point",
    "coordinates": [
      -8.7588347,
      41.3792569
    ]
  }
},
{
  "type": "Feature",
  "id": "node/10981659769",
  "properties": {
    "access": "yes",
    "addr:country": "PT",
    "amenity": "charging_station",
    "authentication:membership_card": "yes",
    "authentication:none": "no",
    "capacity": "2",
    "email": "mobilidade.electricacrc@galp.com",
    "fee": "yes",
    "maxstay": "unlimited",
    "motorcar": "yes",
    "name": "LSB-00640 - Galp",
    "network": "Mobi.E",
    "opening_hours": "24/7",
    "operator": "Galp Geste",
    "parking:fee": "no",
    "payment:app": "yes",
    "payment:cards": "no",
    "payment:cash": "no",
    "payment:membership_card": "yes",
    "phone": "+351 800 249 249",
    "ref": "LSB-00640",
    "socket:chademo": "1",
    "socket:chademo:current": "120",
    "socket:chademo:output": "50kW",
    "socket:chademo:voltage": "500",
    "socket:type2_combo": "1",
    "socket:type2_combo:current": "200",
    "socket:type2_combo:output": "180kW",
    "socket:type2_combo:voltage": "1000",
    "website": "https://www.mobie.pt/",
    "id": "node/10981659769"
  },
  "geometry": {
    "type": "Point",
    "coordinates": [
      -9.101152,
      38.767077
    ]
  }
},
{
  "type": "Feature",
  "id": "node/10981663998",
  "properties": {
    "access": "yes",
    "addr:country": "PT",
    "amenity": "charging_station",
    "authentication:membership_card": "yes",
    "authentication:none": "no",
    "capacity": "4",
    "email": "ajuda@powerdot.pt",
    "fee": "yes",
    "maxstay": "unlimited",
    "motorcar": "yes",
    "name": "VLG-00029 - Intermarché",
    "network": "Mobi.E",
    "opening_hours": "24/7",
    "operator": "Powerdot",
    "parking:fee": "no",
    "payment:app": "yes",
    "payment:cards": "no",
    "payment:cash": "no",
    "payment:membership_card": "yes",
    "phone": "+351 800 180 292",
    "ref": "VLG-00029",
    "socket:chademo": "1",
    "socket:chademo:current": "125",
    "socket:chademo:output": "50kW",
    "socket:chademo:voltage": "500",
    "socket:type2_combo": "3",
    "socket:type2_combo:current": "375",
    "socket:type2_combo:output": "150kW",
    "socket:type2_combo:voltage": "500",
    "website": "https://www.mobie.pt",
    "id": "node/10981663998"
  },
  "geometry": {
    "type": "Point",
    "coordinates": [
      -8.5316559,
      41.2379241
    ]
  }
},
{
  "type": "Feature",
  "id": "node/10992882423",
  "properties": {
    "access": "yes",
    "addr:country": "PT",
    "amenity": "charging_station",
    "authentication:membership_card": "yes",
    "authentication:none": "no",
    "capacity": "8",
    "email": "ajuda@powerdot.pt",
    "fee": "yes",
    "maxstay": "unlimited",
    "motorcar": "yes",
    "name": "MTS-00115",
    "network": "Mobi.E",
    "opening_hours": "24/7",
    "operator": "Powerdot",
    "parking:fee": "no",
    "payment:app": "yes",
    "payment:cards": "no",
    "payment:cash": "no",
    "payment:membership_card": "yes",
    "phone": "+351 800 180 292",
    "ref": "MTS-00115",
    "socket:chademo": "1",
    "socket:chademo:current": "125",
    "socket:chademo:output": "50kW",
    "socket:chademo:voltage": "500",
    "socket:type2_combo": "7",
    "socket:type2_combo:current": "375",
    "socket:type2_combo:output": "150kW",
    "socket:type2_combo:voltage": "500",
    "website": "https://www.mobie.pt",
    "id": "node/10992882423"
  },
  "geometry": {
    "type": "Point",
    "coordinates": [
      -8.6270559,
      41.1990073
    ]
  }
},
{
  "type": "Feature",
  "id": "node/10998269607",
  "properties": {
    "access": "yes",
    "addr:country": "PT",
    "amenity": "charging_station",
    "authentication:membership_card": "yes",
    "authentication:none": "no",
    "capacity": "2",
    "email": "mobilidade.electricacrc@galp.com",
    "fee": "yes",
    "maxstay": "unlimited",
    "motorcar": "yes",
    "name": "OER-00174 - Galp",
    "network": "Mobi.E",
    "opening_hours": "24/7",
    "operator": "Galp Geste",
    "parking:fee": "no",
    "payment:app": "yes",
    "payment:cards": "no",
    "payment:cash": "no",
    "payment:membership_card": "yes",
    "phone": "+351 800 249 249",
    "ref": "OER-00174",
    "socket:type2_combo": "2",
    "socket:type2_combo:current": "190",
    "socket:type2_combo:output": "180kW",
    "socket:type2_combo:voltage": "1000",
    "website": "https://www.mobie.pt/",
    "id": "node/10998269607"
  },
  "geometry": {
    "type": "Point",
    "coordinates": [
      -9.3043137,
      38.7026454
    ]
  }
},
{
  "type": "Feature",
  "id": "node/11017553877",
  "properties": {
    "access": "yes",
    "addr:country": "PT",
    "amenity": "charging_station",
    "authentication:membership_card": "yes",
    "authentication:none": "no",
    "capacity": "4",
    "email": "ajuda@powerdot.pt",
    "fee": "yes",
    "maxstay": "unlimited",
    "motorcar": "yes",
    "name": "AVV-00004 - Intermarché",
    "network": "Mobi.E",
    "opening_hours": "24/7",
    "operator": "Powerdot",
    "parking:fee": "no",
    "payment:app": "yes",
    "payment:cards": "no",
    "payment:cash": "no",
    "payment:membership_card": "yes",
    "phone": "+351 800 180 292",
    "ref": "AVV-00004",
    "socket:chademo": "1",
    "socket:chademo:current": "125",
    "socket:chademo:output": "50kW",
    "socket:chademo:voltage": "500",
    "socket:type2_combo": "3",
    "socket:type2_combo:current": "300",
    "socket:type2_combo:output": "180kW",
    "socket:type2_combo:voltage": "1000",
    "website": "https://www.mobie.pt",
    "id": "node/11017553877"
  },
  "geometry": {
    "type": "Point",
    "coordinates": [
      -8.419084,
      41.813847
    ]
  }
},
{
  "type": "Feature",
  "id": "node/11017553879",
  "properties": {
    "access": "yes",
    "addr:country": "PT",
    "amenity": "charging_station",
    "authentication:membership_card": "yes",
    "authentication:none": "no",
    "capacity": "2",
    "email": "mobilidade.electricacrc@galp.com",
    "fee": "yes",
    "maxstay": "unlimited",
    "motorcar": "yes",
    "name": "VFR-00064 - Intermarché",
    "network": "Mobi.E",
    "opening_hours": "24/7",
    "operator": "Galp Power",
    "parking:fee": "no",
    "payment:app": "yes",
    "payment:cards": "no",
    "payment:cash": "no",
    "payment:membership_card": "yes",
    "phone": "+351 800 249 249",
    "ref": "VFR-00064",
    "socket:type2_combo": "2",
    "socket:type2_combo:current": "200",
    "socket:type2_combo:output": "180kW",
    "socket:type2_combo:voltage": "1000",
    "website": "https://www.mobie.pt/",
    "id": "node/11017553879"
  },
  "geometry": {
    "type": "Point",
    "coordinates": [
      -8.4922629,
      40.9124868
    ]
  }
},
{
  "type": "Feature",
  "id": "node/11033968436",
  "properties": {
    "access": "yes",
    "addr:country": "PT",
    "amenity": "charging_station",
    "authentication:membership_card": "yes",
    "authentication:none": "no",
    "capacity": "6",
    "email": "ajuda@powerdot.pt",
    "fee": "yes",
    "maxstay": "unlimited",
    "motorcar": "yes",
    "name": "CSC-00129 - Roady",
    "network": "Mobi.E",
    "opening_hours": "24/7",
    "operator": "Powerdot",
    "parking:fee": "no",
    "payment:app": "yes",
    "payment:cards": "no",
    "payment:cash": "no",
    "payment:membership_card": "yes",
    "phone": "+351 800 180 292",
    "ref": "CSC-00129",
    "socket:chademo": "1",
    "socket:chademo:current": "125",
    "socket:chademo:output": "50kW",
    "socket:chademo:voltage": "500",
    "socket:type2_combo": "5",
    "socket:type2_combo:current": "300",
    "socket:type2_combo:output": "180kW",
    "socket:type2_combo:voltage": "500",
    "website": "https://www.mobie.pt",
    "id": "node/11033968436"
  },
  "geometry": {
    "type": "Point",
    "coordinates": [
      -9.3364748,
      38.7107747
    ]
  }
},
{
  "type": "Feature",
  "id": "node/11047843443",
  "properties": {
    "access": "yes",
    "addr:country": "PT",
    "amenity": "charging_station",
    "authentication:membership_card": "yes",
    "authentication:none": "no",
    "capacity": "4",
    "email": "ajuda@powerdot.pt",
    "fee": "yes",
    "maxstay": "unlimited",
    "motorcar": "yes",
    "name": "AZB-00011 - Intermarché",
    "network": "Mobi.E",
    "opening_hours": "24/7",
    "operator": "Powerdot",
    "parking:fee": "no",
    "payment:app": "yes",
    "payment:cards": "no",
    "payment:cash": "no",
    "payment:membership_card": "yes",
    "phone": "+351 800 180 292",
    "ref": "AZB-00011",
    "socket:chademo": "1",
    "socket:chademo:current": "125",
    "socket:chademo:output": "50kW",
    "socket:chademo:voltage": "500",
    "socket:type2_combo": "3",
    "socket:type2_combo:current": "375",
    "socket:type2_combo:output": "150kW",
    "socket:type2_combo:voltage": "500",
    "website": "https://www.mobie.pt",
    "id": "node/11047843443"
  },
  "geometry": {
    "type": "Point",
    "coordinates": [
      -8.9004263,
      39.1439172
    ]
  }
},
{
  "type": "Feature",
  "id": "node/11047843447",
  "properties": {
    "access": "yes",
    "addr:country": "PT",
    "amenity": "charging_station",
    "authentication:membership_card": "yes",
    "authentication:none": "no",
    "capacity": "4",
    "fee": "yes",
    "maxstay": "unlimited",
    "motorcar": "yes",
    "name": "ALM-00070",
    "network": "Mobi.E",
    "opening_hours": "08:00-24:00",
    "operator": "Mota Engil II",
    "parking:fee": "yes",
    "payment:app": "yes",
    "payment:cards": "no",
    "payment:cash": "no",
    "payment:membership_card": "yes",
    "ref": "ALM-00070",
    "socket:chademo": "1",
    "socket:chademo:current": "125",
    "socket:chademo:output": "50kW",
    "socket:chademo:voltage": "500",
    "socket:type2_combo": "3",
    "socket:type2_combo:current": "300",
    "socket:type2_combo:output": "200kW",
    "socket:type2_combo:voltage": "1000",
    "website": "https://www.mobie.pt/",
    "id": "node/11047843447"
  },
  "geometry": {
    "type": "Point",
    "coordinates": [
      -9.1754343,
      38.6606655
    ]
  }
},
{
  "type": "Feature",
  "id": "node/11127335087",
  "properties": {
    "access": "yes",
    "addr:country": "PT",
    "amenity": "charging_station",
    "authentication:membership_card": "yes",
    "authentication:none": "no",
    "capacity": "5",
    "fee": "yes",
    "maxstay": "unlimited",
    "motorcar": "yes",
    "name": "RMR-00011/12 - O Coxo",
    "network": "Mobi.E",
    "old_ref": "RMR-00005",
    "opening_hours": "24/7",
    "operator": "Powerdot",
    "parking:fee": "no",
    "payment:app": "yes",
    "payment:cards": "no",
    "payment:cash": "no",
    "payment:membership_card": "yes",
    "ref": "RMR-00011;RMR-00012",
    "socket:chademo": "1",
    "socket:chademo:current": "125",
    "socket:chademo:output": "50kW",
    "socket:chademo:voltage": "500",
    "socket:type2": "1",
    "socket:type2:current": "16",
    "socket:type2:output": "11kW",
    "socket:type2:voltage": "400",
    "socket:type2_combo": "3",
    "socket:type2_combo:current": "375",
    "socket:type2_combo:output": "200kW",
    "socket:type2_combo:voltage": "1000",
    "website": "https://www.mobie.pt",
    "id": "node/11127335087"
  },
  "geometry": {
    "type": "Point",
    "coordinates": [
      -8.9619517,
      39.382141
    ]
  }
},
{
  "type": "Feature",
  "id": "node/11143615507",
  "properties": {
    "access": "yes",
    "addr:country": "PT",
    "amenity": "charging_station",
    "authentication:membership_card": "yes",
    "authentication:none": "no",
    "capacity": "2",
    "fee": "yes",
    "maxstay": "unlimited",
    "motorcar": "yes",
    "name": "VCT-00041",
    "network": "Mobi.E",
    "opening_hours": "24/7",
    "operator": "NRG",
    "parking:fee": "no",
    "payment:app": "yes",
    "payment:cards": "no",
    "payment:cash": "no",
    "payment:membership_card": "yes",
    "ref": "VCT-00041",
    "socket:chademo": "1",
    "socket:chademo:current": "125",
    "socket:chademo:output": "50kW",
    "socket:chademo:voltage": "500",
    "socket:type2_combo": "1",
    "socket:type2_combo:current": "200",
    "socket:type2_combo:output": "180kW",
    "socket:type2_combo:voltage": "1000",
    "website": "https://www.mobie.pt/",
    "id": "node/11143615507"
  },
  "geometry": {
    "type": "Point",
    "coordinates": [
      -8.769702,
      41.640046
    ]
  }
},
{
  "type": "Feature",
  "id": "node/11145894251",
  "properties": {
    "access": "yes",
    "addr:country": "PT",
    "amenity": "charging_station",
    "authentication:membership_card": "yes",
    "authentication:none": "no",
    "capacity": "4",
    "fee": "yes",
    "maxstay": "unlimited",
    "motorcar": "yes",
    "name": "OBD-00024",
    "network": "Mobi.E",
    "old_ref": "OBD-00023",
    "opening_hours": "24/7",
    "operator": "Powerdot",
    "parking:fee": "no",
    "payment:app": "yes",
    "payment:cards": "no",
    "payment:cash": "no",
    "payment:membership_card": "yes",
    "ref": "OBD-00024",
    "socket:chademo": "1",
    "socket:chademo:current": "125",
    "socket:chademo:output": "50kW",
    "socket:chademo:voltage": "500",
    "socket:type2": "1",
    "socket:type2:current": "32",
    "socket:type2:output": "22kW",
    "socket:type2:voltage": "400",
    "socket:type2_combo": "3",
    "socket:type2_combo:current": "375",
    "socket:type2_combo:output": "150kW",
    "socket:type2_combo:voltage": "1000",
    "website": "https://www.mobie.pt",
    "id": "node/11145894251"
  },
  "geometry": {
    "type": "Point",
    "coordinates": [
      -9.1386209,
      39.375424
    ]
  }
},
{
  "type": "Feature",
  "id": "node/11196066691",
  "properties": {
    "access": "yes",
    "addr:country": "PT",
    "amenity": "charging_station",
    "authentication:membership_card": "yes",
    "authentication:none": "no",
    "capacity": "5",
    "fee": "yes",
    "maxstay": "unlimited",
    "motorcar": "yes",
    "name": "ACB-00010 - Roady",
    "network": "Mobi.E",
    "opening_hours": "24/7",
    "operator": "Powerdot",
    "parking:fee": "no",
    "payment:app": "yes",
    "payment:cards": "no",
    "payment:cash": "no",
    "payment:membership_card": "yes",
    "ref": "ACB-00010",
    "socket:chademo": "1",
    "socket:chademo:current": "125",
    "socket:chademo:output": "50kW",
    "socket:chademo:voltage": "500",
    "socket:type2": "1",
    "socket:type2:current": "32",
    "socket:type2:output": "22kW",
    "socket:type2:voltage": "400",
    "socket:type2_combo": "3",
    "socket:type2_combo:current": "375",
    "socket:type2_combo:output": "150kW",
    "socket:type2_combo:voltage": "500",
    "website": "https://www.mobie.pt",
    "id": "node/11196066691"
  },
  "geometry": {
    "type": "Point",
    "coordinates": [
      -8.9685993,
      39.5537497
    ]
  }
},
{
  "type": "Feature",
  "id": "node/11210963899",
  "properties": {
    "access": "yes",
    "addr:country": "PT",
    "amenity": "charging_station",
    "authentication:membership_card": "yes",
    "authentication:none": "no",
    "capacity": "2",
    "fee": "yes",
    "maxstay": "unlimited",
    "motorcar": "yes",
    "name": "PCV-00006",
    "network": "Mobi.E",
    "opening_hours": "24/7",
    "operator": "Wowplug",
    "parking:fee": "no",
    "payment:app": "yes",
    "payment:cards": "no",
    "payment:cash": "no",
    "payment:membership_card": "yes",
    "ref": "PCV-00006",
    "socket:type2_combo": "1",
    "socket:type2_combo:current": "320",
    "socket:type2_combo:output": "150kW",
    "socket:type2_combo:voltage": "500",
    "website": "https://www.mobie.pt/",
    "id": "node/11210963899"
  },
  "geometry": {
    "type": "Point",
    "coordinates": [
      -8.3214443,
      40.3032834
    ]
  }
},
{
  "type": "Feature",
  "id": "node/11211049175",
  "properties": {
    "access": "yes",
    "addr:country": "PT",
    "amenity": "charging_station",
    "authentication:membership_card": "yes",
    "authentication:none": "no",
    "capacity": "4",
    "fee": "yes",
    "maxstay": "unlimited",
    "motorcar": "yes",
    "name": "AMD-00091 - Norauto",
    "network": "Mobi.E",
    "opening_hours": "24/7",
    "operator": "Powerdot",
    "parking:fee": "no",
    "payment:app": "yes",
    "payment:cards": "no",
    "payment:cash": "no",
    "payment:membership_card": "yes",
    "ref": "AMD-00091",
    "socket:chademo": "1",
    "socket:chademo:current": "125",
    "socket:chademo:output": "50kW",
    "socket:chademo:voltage": "500",
    "socket:type2_combo": "3",
    "socket:type2_combo:current": "200",
    "socket:type2_combo:output": "180kW",
    "socket:type2_combo:voltage": "500",
    "website": "https://www.mobie.pt",
    "id": "node/11211049175"
  },
  "geometry": {
    "type": "Point",
    "coordinates": [
      -9.2164113,
      38.7742707
    ]
  }
},
{
  "type": "Feature",
  "id": "node/11237161443",
  "properties": {
    "access": "yes",
    "addr:country": "PT",
    "amenity": "charging_station",
    "authentication:membership_card": "yes",
    "authentication:none": "no",
    "capacity": "2",
    "fee": "yes",
    "maxstay": "unlimited",
    "motorcar": "yes",
    "name": "SCD-00004 - Galp",
    "network": "Mobi.E",
    "opening_hours": "24/7",
    "operator": "Galp Geste",
    "parking:fee": "no",
    "payment:app": "yes",
    "payment:cards": "no",
    "payment:cash": "no",
    "payment:membership_card": "yes",
    "ref": "SCD-00004",
    "socket:type2_combo": "2",
    "socket:type2_combo:current": "190",
    "socket:type2_combo:output": "180kW",
    "socket:type2_combo:voltage": "1000",
    "website": "https://www.mobie.pt/",
    "id": "node/11237161443"
  },
  "geometry": {
    "type": "Point",
    "coordinates": [
      -8.1294852,
      40.397617
    ]
  }
},
{
  "type": "Feature",
  "id": "node/11275817600",
  "properties": {
    "access": "yes",
    "addr:country": "PT",
    "amenity": "charging_station",
    "authentication:membership_card": "yes",
    "authentication:none": "no",
    "capacity": "4",
    "fee": "yes",
    "maxstay": "unlimited",
    "motorcar": "yes",
    "name": "ODV-00018 - Roady",
    "network": "Mobi.E",
    "opening_hours": "24/7",
    "operator": "Powerdot",
    "parking:fee": "no",
    "payment:app": "yes",
    "payment:cards": "no",
    "payment:cash": "no",
    "payment:membership_card": "yes",
    "ref": "ODV-00018",
    "socket:chademo": "1",
    "socket:chademo:current": "125",
    "socket:chademo:output": "50kW",
    "socket:chademo:voltage": "500",
    "socket:type2_combo": "3",
    "socket:type2_combo:current": "300",
    "socket:type2_combo:output": "150kW",
    "socket:type2_combo:voltage": "500",
    "website": "https://www.mobie.pt",
    "id": "node/11275817600"
  },
  "geometry": {
    "type": "Point",
    "coordinates": [
      -9.2157619,
      38.7922714
    ]
  }
},
{
  "type": "Feature",
  "id": "node/11289495897",
  "properties": {
    "access": "yes",
    "addr:country": "PT",
    "amenity": "charging_station",
    "authentication:membership_card": "yes",
    "authentication:none": "no",
    "capacity": "2",
    "fee": "yes",
    "maxstay": "unlimited",
    "motorcar": "yes",
    "name": "LGS-00030 - Galp",
    "network": "Mobi.E",
    "opening_hours": "24/7",
    "operator": "Galp Geste",
    "parking:fee": "no",
    "payment:app": "yes",
    "payment:cards": "no",
    "payment:cash": "no",
    "payment:membership_card": "yes",
    "ref": "LGS-00030",
    "socket:type2_combo": "2",
    "socket:type2_combo:current": "190",
    "socket:type2_combo:output": "180kW",
    "socket:type2_combo:voltage": "1000",
    "website": "https://www.mobie.pt/",
    "id": "node/11289495897"
  },
  "geometry": {
    "type": "Point",
    "coordinates": [
      -8.67924,
      37.111085
    ]
  }
},
{
  "type": "Feature",
  "id": "node/11301244261",
  "properties": {
    "access": "yes",
    "addr:country": "PT",
    "amenity": "charging_station",
    "authentication:membership_card": "yes",
    "authentication:none": "no",
    "capacity": "2",
    "fee": "yes",
    "maxstay": "unlimited",
    "motorcar": "yes",
    "name": "CLD-00033 - BP",
    "network": "Mobi.E",
    "old_operator": "BP Pulse",
    "old_ref": "CLD-00026",
    "opening_hours": "24/7",
    "operator": "Charging Together",
    "parking:fee": "no",
    "payment:app": "yes",
    "payment:cards": "no",
    "payment:cash": "no",
    "payment:membership_card": "yes",
    "ref": "CLD-00033",
    "socket:chademo": "1",
    "socket:chademo:current": "200",
    "socket:chademo:output": "100kW",
    "socket:chademo:voltage": "500",
    "socket:type2_combo": "2",
    "socket:type2_combo:current": "500",
    "socket:type2_combo:output": "150kW",
    "socket:type2_combo:voltage": "500",
    "website": "https://www.mobie.pt",
    "id": "node/11301244261"
  },
  "geometry": {
    "type": "Point",
    "coordinates": [
      -9.1515307,
      39.4173451
    ]
  }
},
{
  "type": "Feature",
  "id": "node/11303436716",
  "properties": {
    "access": "yes",
    "addr:country": "PT",
    "amenity": "charging_station",
    "authentication:membership_card": "yes",
    "authentication:none": "no",
    "capacity": "4",
    "fee": "yes",
    "maxstay": "unlimited",
    "motorcar": "yes",
    "name": "BRR-00125",
    "network": "Mobi.E",
    "opening_hours": "24/7",
    "operator": "Powerdot",
    "parking:fee": "no",
    "payment:app": "yes",
    "payment:cards": "no",
    "payment:cash": "no",
    "payment:membership_card": "yes",
    "ref": "BRR-00125",
    "socket:chademo": "1",
    "socket:chademo:current": "125",
    "socket:chademo:output": "50kW",
    "socket:chademo:voltage": "500",
    "socket:type2": "1",
    "socket:type2:current": "32",
    "socket:type2:output": "22kW",
    "socket:type2:voltage": "400",
    "socket:type2_combo": "3",
    "socket:type2_combo:current": "375",
    "socket:type2_combo:output": "150kW",
    "socket:type2_combo:voltage": "500",
    "website": "https://www.mobie.pt",
    "id": "node/11303436716"
  },
  "geometry": {
    "type": "Point",
    "coordinates": [
      -9.0490091,
      38.6317088
    ]
  }
},
{
  "type": "Feature",
  "id": "node/11333727919",
  "properties": {
    "access": "yes",
    "addr:country": "PT",
    "amenity": "charging_station",
    "authentication:membership_card": "yes",
    "authentication:none": "no",
    "capacity": "2",
    "fee": "yes",
    "maxstay": "unlimited",
    "motorcar": "yes",
    "name": "NZR-00025",
    "network": "Mobi.E",
    "opening_hours": "24/7",
    "operator": "Powerdot",
    "parking:fee": "no",
    "payment:app": "yes",
    "payment:cards": "no",
    "payment:cash": "no",
    "payment:membership_card": "yes",
    "ref": "NZR-00025",
    "socket:chademo": "1",
    "socket:chademo:current": "125",
    "socket:chademo:output": "50kW",
    "socket:chademo:voltage": "500",
    "socket:type2": "1",
    "socket:type2:current": "32",
    "socket:type2:output": "22kW",
    "socket:type2:voltage": "400",
    "socket:type2_combo": "1",
    "socket:type2_combo:current": "200",
    "socket:type2_combo:output": "150kW",
    "socket:type2_combo:voltage": "1000",
    "website": "https://www.mobie.pt/",
    "id": "node/11333727919"
  },
  "geometry": {
    "type": "Point",
    "coordinates": [
      -9.0657457,
      39.6081641
    ]
  }
},
{
  "type": "Feature",
  "id": "node/11336662768",
  "properties": {
    "access": "yes",
    "addr:country": "PT",
    "amenity": "charging_station",
    "authentication:membership_card": "yes",
    "authentication:none": "no",
    "capacity": "4",
    "fee": "yes",
    "maxstay": "unlimited",
    "motorcar": "yes",
    "name": "AND-00005 - Nova Casa dos Leitões",
    "network": "Mobi.E",
    "opening_hours": "24/7",
    "operator": "Powerdot",
    "parking:fee": "no",
    "payment:app": "yes",
    "payment:cards": "no",
    "payment:cash": "no",
    "payment:membership_card": "yes",
    "ref": "AND-00005",
    "socket:chademo": "1",
    "socket:chademo:current": "125",
    "socket:chademo:output": "50kW",
    "socket:chademo:voltage": "500",
    "socket:type2": "1",
    "socket:type2:current": "32",
    "socket:type2:output": "22kW",
    "socket:type2:voltage": "400",
    "socket:type2_combo": "3",
    "socket:type2_combo:current": "375",
    "socket:type2_combo:output": "150kW",
    "socket:type2_combo:voltage": "500",
    "website": "https://www.mobie.pt",
    "id": "node/11336662768"
  },
  "geometry": {
    "type": "Point",
    "coordinates": [
      -8.4550639,
      40.408684
    ]
  }
},
{
  "type": "Feature",
  "id": "node/11339406823",
  "properties": {
    "access": "yes",
    "addr:country": "PT",
    "amenity": "charging_station",
    "authentication:membership_card": "yes",
    "authentication:none": "no",
    "capacity": "2",
    "fee": "yes",
    "maxstay": "unlimited",
    "motorcar": "yes",
    "name": "ACB-00009 - Galp",
    "network": "Mobi.E",
    "opening_hours": "24/7",
    "operator": "Galp Geste",
    "parking:fee": "no",
    "payment:app": "yes",
    "payment:cards": "no",
    "payment:cash": "no",
    "payment:membership_card": "yes",
    "ref": "ACB-00009",
    "socket:type2_combo": "2",
    "socket:type2_combo:current": "200",
    "socket:type2_combo:output": "180kW",
    "socket:type2_combo:voltage": "1000",
    "website": "https://www.mobie.pt/",
    "id": "node/11339406823"
  },
  "geometry": {
    "type": "Point",
    "coordinates": [
      -8.9779911,
      39.5596522
    ]
  }
},
{
  "type": "Feature",
  "id": "node/11349894184",
  "properties": {
    "access": "yes",
    "addr:country": "PT",
    "amenity": "charging_station",
    "authentication:membership_card": "yes",
    "authentication:none": "no",
    "capacity": "2",
    "fee": "yes",
    "maxstay": "unlimited",
    "motorcar": "yes",
    "name": "ACH-00019 - BP",
    "network": "Mobi.E",
    "old_operator": "BP Pulse",
    "old_ref": "ACH-00012",
    "opening_hours": "24/7",
    "operator": "Charging Together",
    "parking:fee": "no",
    "payment:app": "yes",
    "payment:cards": "no",
    "payment:cash": "no",
    "payment:membership_card": "yes",
    "ref": "ACH-00019",
    "socket:chademo": "1",
    "socket:chademo:current": "200",
    "socket:chademo:output": "100kW",
    "socket:chademo:voltage": "500",
    "socket:type2_combo": "2",
    "socket:type2_combo:current": "500",
    "socket:type2_combo:output": "150kW",
    "socket:type2_combo:voltage": "500",
    "website": "https://www.mobie.pt",
    "id": "node/11349894184"
  },
  "geometry": {
    "type": "Point",
    "coordinates": [
      -8.946112,
      38.751684
    ]
  }
},
{
  "type": "Feature",
  "id": "node/11359317372",
  "properties": {
    "access": "yes",
    "addr:country": "PT",
    "amenity": "charging_station",
    "authentication:membership_card": "yes",
    "authentication:none": "no",
    "capacity": "2",
    "fee": "yes",
    "maxstay": "unlimited",
    "motorcar": "yes",
    "name": "FAF-00008 - Galp",
    "network": "Mobi.E",
    "opening_hours": "24/7",
    "operator": "Galp Power",
    "parking:fee": "no",
    "payment:app": "yes",
    "payment:cards": "no",
    "payment:cash": "no",
    "payment:membership_card": "yes",
    "ref": "FAF-00008",
    "socket:type2_combo": "2",
    "socket:type2_combo:current": "190",
    "socket:type2_combo:output": "180kW",
    "socket:type2_combo:voltage": "1000",
    "website": "https://www.mobie.pt/",
    "id": "node/11359317372"
  },
  "geometry": {
    "type": "Point",
    "coordinates": [
      -8.1775045,
      41.4521062
    ]
  }
},
{
  "type": "Feature",
  "id": "node/11364954441",
  "properties": {
    "access": "yes",
    "addr:country": "PT",
    "amenity": "charging_station",
    "authentication:membership_card": "yes",
    "authentication:none": "no",
    "capacity": "2",
    "fee": "yes",
    "maxstay": "unlimited",
    "motorcar": "yes",
    "name": "LRA-00113",
    "network": "Mobi.E",
    "opening_hours": "24/7",
    "operator": "KLC Serviços",
    "parking:fee": "yes",
    "payment:app": "yes",
    "payment:cards": "no",
    "payment:cash": "no",
    "payment:membership_card": "yes",
    "phone": "+351 800 202 060",
    "ref": "LRA-00113",
    "socket:type2_combo": "2",
    "socket:type2_combo:current": "200",
    "socket:type2_combo:output": "180kW",
    "socket:type2_combo:voltage": "1000",
    "website": "https://www.mobie.pt/",
    "id": "node/11364954441"
  },
  "geometry": {
    "type": "Point",
    "coordinates": [
      -8.802806,
      39.749212
    ]
  }
},
{
  "type": "Feature",
  "id": "node/11375147573",
  "properties": {
    "access": "yes",
    "addr:country": "PT",
    "amenity": "charging_station",
    "authentication:membership_card": "yes",
    "authentication:none": "no",
    "capacity": "4",
    "fee": "yes",
    "maxstay": "unlimited",
    "motorcar": "yes",
    "name": "PLM-00031/32",
    "network": "Mobi.E",
    "opening_hours": "24/7",
    "operator": "Powerdot",
    "parking:fee": "no",
    "payment:app": "yes",
    "payment:cards": "no",
    "payment:cash": "no",
    "payment:membership_card": "yes",
    "ref": "PLM-00031;PLM-00032",
    "socket:chademo": "1",
    "socket:chademo:current": "125",
    "socket:chademo:output": "50kW",
    "socket:chademo:voltage": "500",
    "socket:type2": "1",
    "socket:type2:current": "32",
    "socket:type2:output": "22kW",
    "socket:type2:voltage": "400",
    "socket:type2_combo": "3",
    "socket:type2_combo:current": "300",
    "socket:type2_combo:output": "200kW",
    "socket:type2_combo:voltage": "1000",
    "website": "https://www.mobie.pt/",
    "id": "node/11375147573"
  },
  "geometry": {
    "type": "Point",
    "coordinates": [
      -8.8924123,
      38.582949
    ]
  }
},
{
  "type": "Feature",
  "id": "node/11375222235",
  "properties": {
    "access": "yes",
    "addr:country": "PT",
    "amenity": "charging_station",
    "authentication:membership_card": "yes",
    "authentication:none": "no",
    "capacity": "4",
    "fee": "yes",
    "maxstay": "unlimited",
    "motorcar": "yes",
    "name": "VNG-00128 - Intermarché",
    "network": "Mobi.E",
    "opening_hours": "24/7",
    "operator": "Powerdot",
    "parking:fee": "no",
    "payment:app": "yes",
    "payment:cards": "no",
    "payment:cash": "no",
    "payment:membership_card": "yes",
    "ref": "VNG-00128",
    "socket:chademo": "1",
    "socket:chademo:current": "125",
    "socket:chademo:output": "50kW",
    "socket:chademo:voltage": "500",
    "socket:type2": "1",
    "socket:type2:current": "32",
    "socket:type2:output": "22kW",
    "socket:type2:voltage": "400",
    "socket:type2_combo": "3",
    "socket:type2_combo:current": "375",
    "socket:type2_combo:output": "200kW",
    "socket:type2_combo:voltage": "1000",
    "website": "https://www.mobie.pt",
    "id": "node/11375222235"
  },
  "geometry": {
    "type": "Point",
    "coordinates": [
      -8.6016822,
      41.0763806
    ]
  }
},
{
  "type": "Feature",
  "id": "node/11386032321",
  "properties": {
    "access": "yes",
    "addr:country": "PT",
    "amenity": "charging_station",
    "authentication:membership_card": "yes",
    "authentication:none": "no",
    "capacity": "4",
    "fee": "yes",
    "maxstay": "unlimited",
    "motorcar": "yes",
    "name": "PTM-00042/45 - Norauto",
    "network": "Mobi.E",
    "opening_hours": "24/7",
    "operator": "Powerdot",
    "parking:fee": "no",
    "payment:app": "yes",
    "payment:cards": "no",
    "payment:cash": "no",
    "payment:membership_card": "yes",
    "ref": "PTM-00042;PTM-00045",
    "socket:chademo": "1",
    "socket:chademo:current": "125",
    "socket:chademo:output": "50kW",
    "socket:chademo:voltage": "500",
    "socket:type2": "1",
    "socket:type2:current": "32",
    "socket:type2:output": "22kW",
    "socket:type2:voltage": "400",
    "socket:type2_combo": "3",
    "socket:type2_combo:current": "500",
    "socket:type2_combo:output": "200kW",
    "socket:type2_combo:voltage": "1000",
    "website": "https://www.mobie.pt/",
    "id": "node/11386032321"
  },
  "geometry": {
    "type": "Point",
    "coordinates": [
      -8.549766,
      37.1476547
    ]
  }
},
{
  "type": "Feature",
  "id": "node/11403978128",
  "properties": {
    "access": "yes",
    "addr:country": "PT",
    "amenity": "charging_station",
    "authentication:membership_card": "yes",
    "authentication:none": "no",
    "capacity": "4",
    "fee": "yes",
    "maxstay": "unlimited",
    "motorcar": "yes",
    "name": "MTS-00122/123/124 - Norauto",
    "network": "Mobi.E",
    "opening_hours": "24/7",
    "operator": "Powerdot",
    "parking:fee": "no",
    "payment:app": "yes",
    "payment:cards": "no",
    "payment:cash": "no",
    "payment:membership_card": "yes",
    "ref": "MTS-00122;MTS-00123;MTS-00124",
    "socket:type2": "1",
    "socket:type2:current": "32",
    "socket:type2:output": "22kW",
    "socket:type2:voltage": "400",
    "socket:type2_combo": "4",
    "socket:type2_combo:current": "200",
    "socket:type2_combo:output": "170kW",
    "socket:type2_combo:voltage": "1000",
    "website": "https://www.mobie.pt/",
    "id": "node/11403978128"
  },
  "geometry": {
    "type": "Point",
    "coordinates": [
      -8.682709,
      41.2099412
    ]
  }
},
{
  "type": "Feature",
  "id": "node/11413377051",
  "properties": {
    "access": "yes",
    "addr:country": "PT",
    "amenity": "charging_station",
    "authentication:membership_card": "yes",
    "authentication:none": "no",
    "capacity": "2",
    "fee": "yes",
    "maxstay": "unlimited",
    "motorcar": "yes",
    "name": "BJA-00031 - BP",
    "network": "Mobi.E",
    "old_operator": "BP Pulse",
    "old_ref": "BJA-00030",
    "opening_hours": "24/7",
    "operator": "Charging Together",
    "parking:fee": "no",
    "payment:app": "yes",
    "payment:cards": "no",
    "payment:cash": "no",
    "payment:membership_card": "yes",
    "ref": "BJA-00031",
    "socket:chademo": "1",
    "socket:chademo:current": "200",
    "socket:chademo:output": "100kW",
    "socket:chademo:voltage": "500",
    "socket:type2_combo": "2",
    "socket:type2_combo:current": "500",
    "socket:type2_combo:output": "150kW",
    "socket:type2_combo:voltage": "1000",
    "website": "https://www.mobie.pt",
    "id": "node/11413377051"
  },
  "geometry": {
    "type": "Point",
    "coordinates": [
      -7.8536427,
      38.019183
    ]
  }
},
{
  "type": "Feature",
  "id": "node/11429954365",
  "properties": {
    "access": "yes",
    "addr:country": "PT",
    "amenity": "charging_station",
    "authentication:membership_card": "yes",
    "authentication:none": "no",
    "capacity": "2",
    "fee": "yes",
    "maxstay": "unlimited",
    "motorcar": "yes",
    "name": "STN-00005 - BP",
    "network": "Mobi.E",
    "old_operator": "BP Pulse",
    "old_ref": "STN-00004",
    "opening_hours": "24/7",
    "operator": "Charging Together",
    "parking:fee": "no",
    "payment:app": "yes",
    "payment:cards": "no",
    "payment:cash": "no",
    "payment:membership_card": "yes",
    "ref": "STN-00005",
    "socket:chademo": "1",
    "socket:chademo:current": "200",
    "socket:chademo:output": "100kW",
    "socket:chademo:voltage": "500",
    "socket:type2_combo": "2",
    "socket:type2_combo:current": "500",
    "socket:type2_combo:output": "150kW",
    "socket:type2_combo:voltage": "500",
    "website": "https://www.mobie.pt",
    "id": "node/11429954365"
  },
  "geometry": {
    "type": "Point",
    "coordinates": [
      -16.8844332,
      32.8107485
    ]
  }
},
{
  "type": "Feature",
  "id": "node/11429954367",
  "properties": {
    "access": "yes",
    "addr:country": "PT",
    "amenity": "charging_station",
    "authentication:membership_card": "yes",
    "authentication:none": "no",
    "capacity": "2",
    "fee": "yes",
    "maxstay": "unlimited",
    "motorcar": "yes",
    "name": "MCH-00010 - BP",
    "network": "Mobi.E",
    "old_operator": "BP Pulse",
    "old_ref": "MCH-00009",
    "opening_hours": "24/7",
    "operator": "Charging Together",
    "parking:fee": "no",
    "payment:app": "yes",
    "payment:cards": "no",
    "payment:cash": "no",
    "payment:membership_card": "yes",
    "ref": "MCH-00010",
    "socket:chademo": "1",
    "socket:chademo:current": "200",
    "socket:chademo:output": "100kW",
    "socket:chademo:voltage": "500",
    "socket:type2_combo": "2",
    "socket:type2_combo:current": "500",
    "socket:type2_combo:output": "150kW",
    "socket:type2_combo:voltage": "500",
    "website": "https://www.mobie.pt",
    "id": "node/11429954367"
  },
  "geometry": {
    "type": "Point",
    "coordinates": [
      -16.7671134,
      32.7148521
    ]
  }
},
{
  "type": "Feature",
  "id": "node/11436039468",
  "properties": {
    "access": "yes",
    "addr:country": "PT",
    "amenity": "charging_station",
    "authentication:membership_card": "yes",
    "authentication:none": "no",
    "capacity": "2",
    "fee": "yes",
    "maxstay": "unlimited",
    "motorcar": "yes",
    "name": "EVR-00045 - BP",
    "network": "Mobi.E",
    "opening_hours": "24/7",
    "operator": "Charging Together",
    "parking:fee": "no",
    "payment:app": "yes",
    "payment:cards": "no",
    "payment:cash": "no",
    "payment:membership_card": "yes",
    "ref": "EVR-00045",
    "socket:chademo": "1",
    "socket:chademo:current": "200",
    "socket:chademo:output": "100kW",
    "socket:chademo:voltage": "500",
    "socket:type2_combo": "2",
    "socket:type2_combo:current": "500",
    "socket:type2_combo:output": "150kW",
    "socket:type2_combo:voltage": "500",
    "website": "https://www.mobie.pt",
    "id": "node/11436039468"
  },
  "geometry": {
    "type": "Point",
    "coordinates": [
      -7.9000792,
      38.5739165
    ]
  }
},
{
  "type": "Feature",
  "id": "node/11439936371",
  "properties": {
    "access": "yes",
    "addr:country": "PT",
    "amenity": "charging_station",
    "authentication:membership_card": "yes",
    "authentication:none": "no",
    "capacity": "2",
    "fee": "yes",
    "maxstay": "unlimited",
    "motorcar": "yes",
    "name": "PST-00006 - BP",
    "network": "Mobi.E",
    "old_operator": "BP Pulse",
    "old_ref": "PST-00005",
    "opening_hours": "24/7",
    "operator": "Charging Together",
    "parking:fee": "no",
    "payment:app": "yes",
    "payment:cards": "no",
    "payment:cash": "no",
    "payment:membership_card": "yes",
    "ref": "PST-00006",
    "socket:chademo": "1",
    "socket:chademo:current": "200",
    "socket:chademo:output": "100kW",
    "socket:chademo:voltage": "500",
    "socket:type2_combo": "2",
    "socket:type2_combo:current": "500",
    "socket:type2_combo:output": "150kW",
    "socket:type2_combo:voltage": "500",
    "website": "https://www.mobie.pt",
    "id": "node/11439936371"
  },
  "geometry": {
    "type": "Point",
    "coordinates": [
      -16.3428816,
      33.0711084
    ]
  }
},
{
  "type": "Feature",
  "id": "node/11443337435",
  "properties": {
    "access": "yes",
    "addr:country": "PT",
    "amenity": "charging_station",
    "authentication:membership_card": "yes",
    "authentication:none": "no",
    "capacity": "2",
    "fee": "yes",
    "maxstay": "unlimited",
    "motorcar": "yes",
    "name": "AMD-00103",
    "network": "Mobi.E",
    "opening_hours": "07:00-23:00",
    "operator": "Galp Power",
    "parking:fee": "yes",
    "payment:app": "yes",
    "payment:cards": "no",
    "payment:cash": "no",
    "payment:membership_card": "yes",
    "ref": "AMD-00103",
    "socket:type2": "1",
    "socket:type2:current": "32",
    "socket:type2:output": "22kW",
    "socket:type2:voltage": "400",
    "socket:type2_combo": "2",
    "socket:type2_combo:current": "400",
    "socket:type2_combo:output": "180kW",
    "socket:type2_combo:voltage": "1000",
    "website": "https://www.mobie.pt/",
    "id": "node/11443337435"
  },
  "geometry": {
    "type": "Point",
    "coordinates": [
      -9.228919,
      38.737303
    ]
  }
},
{
  "type": "Feature",
  "id": "node/11506741418",
  "properties": {
    "access": "yes",
    "addr:country": "PT",
    "amenity": "charging_station",
    "authentication:membership_card": "yes",
    "authentication:none": "no",
    "capacity": "4",
    "fee": "yes",
    "maxstay": "unlimited",
    "motorcar": "yes",
    "name": "MTA-00010/11 - Intermarché",
    "network": "Mobi.E",
    "opening_hours": "24/7",
    "operator": "Powerdot",
    "parking:fee": "no",
    "payment:app": "yes",
    "payment:cards": "no",
    "payment:cash": "no",
    "payment:membership_card": "yes",
    "ref": "MTA-00010;MTA-00011",
    "socket:chademo": "1",
    "socket:chademo:current": "125",
    "socket:chademo:output": "50kW",
    "socket:chademo:voltage": "500",
    "socket:type2": "1",
    "socket:type2:current": "32",
    "socket:type2:output": "22kW",
    "socket:type2:voltage": "400",
    "socket:type2_combo": "3",
    "socket:type2_combo:current": "375",
    "socket:type2_combo:output": "200kW",
    "socket:type2_combo:voltage": "1000",
    "website": "https://www.mobie.pt",
    "id": "node/11506741418"
  },
  "geometry": {
    "type": "Point",
    "coordinates": [
      -8.9942668,
      38.6461613
    ]
  }
},
{
  "type": "Feature",
  "id": "node/11533583680",
  "properties": {
    "access": "yes",
    "addr:country": "PT",
    "amenity": "charging_station",
    "authentication:membership_card": "yes",
    "authentication:none": "no",
    "capacity": "2",
    "fee": "yes",
    "maxstay": "unlimited",
    "motorcar": "yes",
    "name": "LRA-00117 - BP",
    "network": "Mobi.E",
    "opening_hours": "24/7",
    "operator": "Charging Together",
    "parking:fee": "no",
    "payment:app": "yes",
    "payment:cards": "no",
    "payment:cash": "no",
    "payment:membership_card": "yes",
    "ref": "LRA-00117",
    "socket:type2_combo": "2",
    "socket:type2_combo:current": "500",
    "socket:type2_combo:output": "150kW",
    "socket:type2_combo:voltage": "1000",
    "website": "https://www.mobie.pt/",
    "id": "node/11533583680"
  },
  "geometry": {
    "type": "Point",
    "coordinates": [
      -8.682973,
      39.828206
    ]
  }
},
{
  "type": "Feature",
  "id": "node/11548088251",
  "properties": {
    "access": "yes",
    "addr:country": "PT",
    "amenity": "charging_station",
    "authentication:membership_card": "yes",
    "authentication:none": "no",
    "capacity": "2",
    "fee": "yes",
    "maxstay": "unlimited",
    "motorcar": "yes",
    "name": "OER-00219 - Galp",
    "network": "Mobi.E",
    "opening_hours": "24/7",
    "operator": "Galp Power",
    "parking:fee": "no",
    "payment:app": "yes",
    "payment:cards": "no",
    "payment:cash": "no",
    "payment:membership_card": "yes",
    "ref": "OER-00219",
    "socket:type2_combo": "2",
    "socket:type2_combo:current": "190",
    "socket:type2_combo:output": "180kW",
    "socket:type2_combo:voltage": "1000",
    "website": "https://www.mobie.pt/",
    "id": "node/11548088251"
  },
  "geometry": {
    "type": "Point",
    "coordinates": [
      -9.3063898,
      38.7001251
    ]
  }
},
{
  "type": "Feature",
  "id": "node/11571346759",
  "properties": {
    "access": "yes",
    "addr:country": "PT",
    "amenity": "charging_station",
    "authentication:membership_card": "yes",
    "authentication:none": "no",
    "capacity": "1",
    "fee": "yes",
    "maxstay": "unlimited",
    "motorcar": "yes",
    "name": "GDM-00047 - Cepsa",
    "network": "Mobi.E",
    "old_ref": "GDM-00045",
    "opening_hours": "24/7",
    "operator": "Cepsa",
    "parking:fee": "no",
    "payment:app": "yes",
    "payment:cards": "no",
    "payment:cash": "no",
    "payment:membership_card": "yes",
    "ref": "GDM-00047",
    "socket:type2_combo": "1",
    "socket:type2_combo:current": "500",
    "socket:type2_combo:output": "150kW",
    "socket:type2_combo:voltage": "1000",
    "website": "https://www.mobie.pt",
    "id": "node/11571346759"
  },
  "geometry": {
    "type": "Point",
    "coordinates": [
      -8.544065,
      41.165703
    ]
  }
},
{
  "type": "Feature",
  "id": "node/11607745532",
  "properties": {
    "access": "yes",
    "addr:country": "PT",
    "amenity": "charging_station",
    "authentication:membership_card": "yes",
    "authentication:none": "no",
    "capacity": "8",
    "description": "2 tomadas CCS de 150kW (375A@500V) + 3 tomadas CCS de 80kW (200A@500V)",
    "fee": "yes",
    "maxstay": "unlimited",
    "motorcar": "yes",
    "name": "MCD-00005",
    "network": "Mobi.E",
    "opening_hours": "24/7",
    "operator": "Powerdot",
    "parking:fee": "no",
    "payment:app": "yes",
    "payment:cards": "no",
    "payment:cash": "no",
    "payment:membership_card": "yes",
    "ref": "MCD-00005",
    "socket:chademo": "1",
    "socket:chademo:current": "125",
    "socket:chademo:output": "50kW",
    "socket:chademo:voltage": "500",
    "socket:type2": "2",
    "socket:type2:current": "32",
    "socket:type2:output": "22kW",
    "socket:type2:voltage": "400",
    "socket:type2_combo": "5",
    "socket:type2_combo:current": "375",
    "socket:type2_combo:output": "150kW",
    "socket:type2_combo:voltage": "500",
    "website": "https://www.mobie.pt",
    "id": "node/11607745532"
  },
  "geometry": {
    "type": "Point",
    "coordinates": [
      -6.9461618,
      41.5780272
    ]
  }
},
{
  "type": "Feature",
  "id": "node/11624943332",
  "properties": {
    "access": "yes",
    "addr:country": "PT",
    "amenity": "charging_station",
    "authentication:membership_card": "yes",
    "authentication:none": "no",
    "capacity": "1",
    "fee": "yes",
    "maxstay": "unlimited",
    "motorcar": "yes",
    "name": "PTG-00023 - Cepsa",
    "network": "Mobi.E",
    "opening_hours": "24/7",
    "operator": "Cepsa",
    "parking:fee": "no",
    "payment:app": "yes",
    "payment:cards": "no",
    "payment:cash": "no",
    "payment:membership_card": "yes",
    "ref": "PTG-00023",
    "socket:type2_combo": "1",
    "socket:type2_combo:current": "500",
    "socket:type2_combo:output": "150kW",
    "socket:type2_combo:voltage": "1000",
    "website": "https://www.mobie.pt/",
    "id": "node/11624943332"
  },
  "geometry": {
    "type": "Point",
    "coordinates": [
      -7.4318513,
      39.2789331
    ]
  }
},
{
  "type": "Feature",
  "id": "node/11634211673",
  "properties": {
    "access": "yes",
    "addr:country": "PT",
    "amenity": "charging_station",
    "authentication:membership_card": "yes",
    "authentication:none": "no",
    "capacity": "6",
    "email": "ajuda@powerdot.pt",
    "fee": "yes",
    "maxstay": "unlimited",
    "motorcar": "yes",
    "name": "SNT-00117 - SuperCor",
    "network": "Mobi.E",
    "old_ref": "SNT-00107",
    "opening_hours": "24/7",
    "operator": "Powerdot",
    "parking:fee": "no",
    "payment:app": "yes",
    "payment:cards": "no",
    "payment:cash": "no",
    "payment:membership_card": "yes",
    "phone": "+351 800 180 292",
    "ref": "SNT-00117",
    "socket:chademo": "1",
    "socket:chademo:current": "125",
    "socket:chademo:output": "100kW",
    "socket:chademo:voltage": "500",
    "socket:type2_combo": "5",
    "socket:type2_combo:current": "375",
    "socket:type2_combo:output": "150kW",
    "socket:type2_combo:voltage": "500",
    "website": "https://www.mobie.pt/",
    "id": "node/11634211673"
  },
  "geometry": {
    "type": "Point",
    "coordinates": [
      -9.3860646,
      38.7610357
    ]
  }
},
{
  "type": "Feature",
  "id": "node/11642884537",
  "properties": {
    "access": "yes",
    "addr:country": "PT",
    "amenity": "charging_station",
    "authentication:membership_card": "yes",
    "authentication:none": "no",
    "capacity": "2",
    "fee": "yes",
    "maxstay": "unlimited",
    "motorcar": "yes",
    "name": "VLG-00038 - Galp",
    "network": "Mobi.E",
    "opening_hours": "24/7",
    "operator": "Galp Power",
    "parking:fee": "no",
    "payment:app": "yes",
    "payment:cards": "no",
    "payment:cash": "no",
    "payment:membership_card": "yes",
    "ref": "VLG-00038",
    "socket:type2_combo": "2",
    "socket:type2_combo:current": "200",
    "socket:type2_combo:output": "180kW",
    "socket:type2_combo:voltage": "1000",
    "website": "https://www.mobie.pt/",
    "id": "node/11642884537"
  },
  "geometry": {
    "type": "Point",
    "coordinates": [
      -8.5326531,
      41.2379797
    ]
  }
},
{
  "type": "Feature",
  "id": "node/11650619048",
  "properties": {
    "access": "yes",
    "addr:country": "PT",
    "amenity": "charging_station",
    "authentication:membership_card": "yes",
    "authentication:none": "no",
    "capacity": "4",
    "fee": "yes",
    "maxstay": "unlimited",
    "motorcar": "yes",
    "name": "VCD-00042 - Roady",
    "network": "Mobi.E",
    "opening_hours": "24/7",
    "operator": "Powerdot",
    "parking:fee": "no",
    "payment:app": "yes",
    "payment:cards": "no",
    "payment:cash": "no",
    "payment:membership_card": "yes",
    "ref": "VCD-00042",
    "socket:chademo": "1",
    "socket:chademo:current": "125",
    "socket:chademo:output": "50kW",
    "socket:chademo:voltage": "500",
    "socket:type2_combo": "3",
    "socket:type2_combo:current": "300",
    "socket:type2_combo:output": "200kW",
    "socket:type2_combo:voltage": "1000",
    "website": "https://www.mobie.pt",
    "id": "node/11650619048"
  },
  "geometry": {
    "type": "Point",
    "coordinates": [
      -8.7428768,
      41.3697987
    ]
  }
},
{
  "type": "Feature",
  "id": "node/11650619050",
  "properties": {
    "access": "yes",
    "addr:country": "PT",
    "amenity": "charging_station",
    "authentication:membership_card": "yes",
    "authentication:none": "no",
    "capacity": "2",
    "fee": "yes",
    "maxstay": "unlimited",
    "motorcar": "yes",
    "name": "PRD-00020 - Cepsa",
    "network": "Mobi.E",
    "opening_hours": "24/7",
    "operator": "Cepsa",
    "parking:fee": "no",
    "payment:app": "yes",
    "payment:cards": "no",
    "payment:cash": "no",
    "payment:membership_card": "yes",
    "ref": "PRD-00020",
    "socket:type2_combo": "1",
    "socket:type2_combo:current": "500",
    "socket:type2_combo:output": "150kW",
    "socket:type2_combo:voltage": "1000",
    "website": "https://www.mobie.pt/",
    "id": "node/11650619050"
  },
  "geometry": {
    "type": "Point",
    "coordinates": [
      -8.3405175,
      41.2032019
    ]
  }
},
{
  "type": "Feature",
  "id": "node/11654639435",
  "properties": {
    "access": "yes",
    "addr:country": "PT",
    "amenity": "charging_station",
    "authentication:membership_card": "yes",
    "authentication:none": "no",
    "capacity": "2",
    "fee": "yes",
    "maxstay": "unlimited",
    "motorcar": "yes",
    "name": "SMG-00012 - BP",
    "network": "Mobi.E",
    "opening_hours": "24/7",
    "operator": "Charging Together",
    "parking:fee": "no",
    "payment:app": "yes",
    "payment:cards": "no",
    "payment:cash": "no",
    "payment:membership_card": "yes",
    "ref": "SMG-00012",
    "socket:chademo": "1",
    "socket:chademo:current": "200",
    "socket:chademo:output": "100kW",
    "socket:chademo:voltage": "500",
    "socket:type2_combo": "2",
    "socket:type2_combo:current": "500",
    "socket:type2_combo:output": "150kW",
    "socket:type2_combo:voltage": "1000",
    "website": "https://www.mobie.pt",
    "id": "node/11654639435"
  },
  "geometry": {
    "type": "Point",
    "coordinates": [
      -8.7945484,
      39.0214794
    ]
  }
},
{
  "type": "Feature",
  "id": "node/11673676753",
  "properties": {
    "access": "yes",
    "addr:country": "PT",
    "amenity": "charging_station",
    "authentication:membership_card": "yes",
    "authentication:none": "no",
    "capacity": "2",
    "fee": "yes",
    "maxstay": "unlimited",
    "motorcar": "yes",
    "name": "PBL-00018 - Pingo Doce",
    "network": "Mobi.E",
    "opening_hours": "24/7",
    "operator": "Atlante",
    "parking:fee": "no",
    "payment:app": "yes",
    "payment:cards": "no",
    "payment:cash": "no",
    "payment:membership_card": "yes",
    "ref": "PBL-00018",
    "socket:type2_combo": "2",
    "socket:type2_combo:current": "375",
    "socket:type2_combo:output": "150kW",
    "socket:type2_combo:voltage": "500",
    "website": "https://www.mobie.pt/",
    "id": "node/11673676753"
  },
  "geometry": {
    "type": "Point",
    "coordinates": [
      -8.7946164,
      39.9733682
    ]
  }
},
{
  "type": "Feature",
  "id": "node/11673676754",
  "properties": {
    "access": "yes",
    "addr:country": "PT",
    "amenity": "charging_station",
    "authentication:membership_card": "yes",
    "authentication:none": "no",
    "capacity": "2",
    "fee": "yes",
    "maxstay": "unlimited",
    "motorcar": "yes",
    "name": "PRT-00240 - BP",
    "network": "Mobi.E",
    "opening_hours": "24/7",
    "operator": "Charging Together",
    "parking:fee": "no",
    "payment:app": "yes",
    "payment:cards": "no",
    "payment:cash": "no",
    "payment:membership_card": "yes",
    "ref": "PRT-00240",
    "socket:type2_combo": "2",
    "socket:type2_combo:current": "500",
    "socket:type2_combo:output": "150kW",
    "socket:type2_combo:voltage": "1000",
    "website": "https://www.mobie.pt/",
    "id": "node/11673676754"
  },
  "geometry": {
    "type": "Point",
    "coordinates": [
      -8.646591,
      41.1821933
    ]
  }
},
{
  "type": "Feature",
  "id": "node/11678732876",
  "properties": {
    "access": "yes",
    "addr:country": "PT",
    "amenity": "charging_station",
    "authentication:membership_card": "yes",
    "authentication:none": "no",
    "capacity": "2",
    "fee": "yes",
    "maxstay": "unlimited",
    "motorcar": "yes",
    "name": "PTG-00024 - BP",
    "network": "Mobi.E",
    "opening_hours": "24/7",
    "operator": "Charging Together",
    "parking:fee": "no",
    "payment:app": "yes",
    "payment:cards": "no",
    "payment:cash": "no",
    "payment:membership_card": "yes",
    "ref": "PTG-00024",
    "socket:chademo": "1",
    "socket:chademo:current": "200",
    "socket:chademo:output": "100kW",
    "socket:chademo:voltage": "500",
    "socket:type2_combo": "2",
    "socket:type2_combo:current": "500",
    "socket:type2_combo:output": "150kW",
    "socket:type2_combo:voltage": "1000",
    "website": "https://www.mobie.pt",
    "id": "node/11678732876"
  },
  "geometry": {
    "type": "Point",
    "coordinates": [
      -7.4314604,
      39.2803821
    ]
  }
},
{
  "type": "Feature",
  "id": "node/11717508846",
  "properties": {
    "access": "yes",
    "addr:country": "PT",
    "amenity": "charging_station",
    "authentication:membership_card": "yes",
    "authentication:none": "no",
    "capacity": "1",
    "fee": "yes",
    "maxstay": "unlimited",
    "motorcar": "yes",
    "name": "FZZ-00003 - Cepsa",
    "network": "Mobi.E",
    "opening_hours": "24/7",
    "operator": "Cepsa",
    "parking:fee": "no",
    "payment:app": "yes",
    "payment:cards": "no",
    "payment:cash": "no",
    "payment:membership_card": "yes",
    "ref": "FZZ-00003",
    "socket:type2_combo": "1",
    "socket:type2_combo:current": "500",
    "socket:type2_combo:output": "150kW",
    "socket:type2_combo:voltage": "1000",
    "website": "https://www.mobie.pt/",
    "id": "node/11717508846"
  },
  "geometry": {
    "type": "Point",
    "coordinates": [
      -8.29488,
      39.6936948
    ]
  }
},
{
  "type": "Feature",
  "id": "node/11725759946",
  "properties": {
    "access": "yes",
    "addr:country": "PT",
    "amenity": "charging_station",
    "authentication:membership_card": "yes",
    "authentication:none": "no",
    "capacity": "2",
    "fee": "yes",
    "maxstay": "unlimited",
    "motorcar": "yes",
    "name": "GMR-00113 - Galp",
    "network": "Mobi.E",
    "opening_hours": "24/7",
    "operator": "Galp Power",
    "parking:fee": "no",
    "payment:app": "yes",
    "payment:cards": "no",
    "payment:cash": "no",
    "payment:membership_card": "yes",
    "ref": "GMR-00113",
    "socket:type2_combo": "2",
    "socket:type2_combo:current": "200",
    "socket:type2_combo:output": "180kW",
    "socket:type2_combo:voltage": "1000",
    "website": "https://www.mobie.pt/",
    "id": "node/11725759946"
  },
  "geometry": {
    "type": "Point",
    "coordinates": [
      -8.3609527,
      41.492797
    ]
  }
},
{
  "type": "Feature",
  "id": "node/11728396726",
  "properties": {
    "access": "yes",
    "addr:country": "PT",
    "amenity": "charging_station",
    "authentication:membership_card": "yes",
    "authentication:none": "no",
    "capacity": "6",
    "fee": "yes",
    "maxstay": "unlimited",
    "motorcar": "yes",
    "name": "STB-00070/71/81",
    "network": "Mobi.E",
    "opening_hours": "24/7",
    "operator": "Powerdot",
    "parking:fee": "no",
    "payment:app": "yes",
    "payment:cards": "no",
    "payment:cash": "no",
    "payment:membership_card": "yes",
    "ref": "STB-00070;STB-00071;STB-00081",
    "socket:type2": "2",
    "socket:type2:current": "32",
    "socket:type2:output": "22kW",
    "socket:type2:voltage": "400",
    "socket:type2_combo": "4",
    "socket:type2_combo:current": "200",
    "socket:type2_combo:output": "160kW",
    "socket:type2_combo:voltage": "1000",
    "website": "https://www.mobie.pt/",
    "id": "node/11728396726"
  },
  "geometry": {
    "type": "Point",
    "coordinates": [
      -8.8735022,
      38.5349913
    ]
  }
},
{
  "type": "Feature",
  "id": "node/11746437178",
  "properties": {
    "access": "yes",
    "addr:country": "PT",
    "amenity": "charging_station",
    "authentication:membership_card": "yes",
    "authentication:none": "no",
    "capacity": "4",
    "fee": "yes",
    "maxstay": "unlimited",
    "motorcar": "yes",
    "name": "AMD-00098",
    "network": "Mobi.E",
    "opening_hours": "24/7",
    "operator": "Powerdot",
    "parking:fee": "yes",
    "payment:app": "yes",
    "payment:cards": "no",
    "payment:cash": "no",
    "payment:membership_card": "yes",
    "ref": "AMD-00098",
    "socket:chademo": "1",
    "socket:chademo:current": "125",
    "socket:chademo:output": "50kW",
    "socket:chademo:voltage": "500",
    "socket:type2": "1",
    "socket:type2:current": "32",
    "socket:type2:output": "22kW",
    "socket:type2:voltage": "400",
    "socket:type2_combo": "3",
    "socket:type2_combo:current": "375",
    "socket:type2_combo:output": "150kW",
    "socket:type2_combo:voltage": "500",
    "website": "https://www.mobie.pt",
    "id": "node/11746437178"
  },
  "geometry": {
    "type": "Point",
    "coordinates": [
      -9.2085761,
      38.7253992
    ]
  }
},
{
  "type": "Feature",
  "id": "node/11779036082",
  "properties": {
    "access": "yes",
    "addr:country": "PT",
    "amenity": "charging_station",
    "authentication:membership_card": "yes",
    "authentication:none": "no",
    "capacity": "2",
    "fee": "yes",
    "maxstay": "unlimited",
    "motorcar": "yes",
    "name": "FLG-00017 - BP",
    "network": "Mobi.E",
    "opening_hours": "24/7",
    "operator": "Charging Together",
    "parking:fee": "no",
    "payment:app": "yes",
    "payment:cards": "no",
    "payment:cash": "no",
    "payment:membership_card": "yes",
    "ref": "FLG-00017",
    "socket:chademo": "1",
    "socket:chademo:current": "200",
    "socket:chademo:output": "100kW",
    "socket:chademo:voltage": "500",
    "socket:type2_combo": "2",
    "socket:type2_combo:current": "500",
    "socket:type2_combo:output": "150kW",
    "socket:type2_combo:voltage": "1000",
    "website": "https://www.mobie.pt/",
    "id": "node/11779036082"
  },
  "geometry": {
    "type": "Point",
    "coordinates": [
      -8.1743755,
      41.376804
    ]
  }
},
{
  "type": "Feature",
  "id": "node/11779036083",
  "properties": {
    "access": "yes",
    "addr:country": "PT",
    "amenity": "charging_station",
    "authentication:membership_card": "yes",
    "authentication:none": "no",
    "capacity": "4",
    "fee": "yes",
    "maxstay": "unlimited",
    "motorcar": "yes",
    "name": "BGC-00017/18 - O Nó da Seara",
    "network": "Mobi.E",
    "opening_hours": "24/7",
    "operator": "Atlante",
    "parking:fee": "no",
    "payment:app": "yes",
    "payment:cards": "no",
    "payment:cash": "no",
    "payment:membership_card": "yes",
    "ref": "BGC-00017;BGC-00018",
    "socket:type2_combo": "4",
    "socket:type2_combo:current": "500",
    "socket:type2_combo:output": "300kW",
    "socket:type2_combo:voltage": "1000",
    "website": "https://www.mobie.pt/",
    "id": "node/11779036083"
  },
  "geometry": {
    "type": "Point",
    "coordinates": [
      -6.7214562,
      41.7934121
    ]
  }
},
{
  "type": "Feature",
  "id": "node/11793970831",
  "properties": {
    "access": "yes",
    "addr:country": "PT",
    "amenity": "charging_station",
    "authentication:membership_card": "yes",
    "authentication:none": "no",
    "capacity": "2",
    "fee": "yes",
    "maxstay": "unlimited",
    "motorcar": "yes",
    "name": "VCT-00050 - BP",
    "network": "Mobi.E",
    "opening_hours": "24/7",
    "operator": "Charging Together",
    "parking:fee": "no",
    "payment:app": "yes",
    "payment:cards": "no",
    "payment:cash": "no",
    "payment:membership_card": "yes",
    "ref": "VCT-00050",
    "socket:chademo": "1",
    "socket:chademo:current": "200",
    "socket:chademo:output": "100kW",
    "socket:chademo:voltage": "500",
    "socket:type2_combo": "2",
    "socket:type2_combo:current": "500",
    "socket:type2_combo:output": "150kW",
    "socket:type2_combo:voltage": "1000",
    "website": "https://www.mobie.pt",
    "id": "node/11793970831"
  },
  "geometry": {
    "type": "Point",
    "coordinates": [
      -8.8222777,
      41.7073333
    ]
  }
},
{
  "type": "Feature",
  "id": "node/11802659860",
  "properties": {
    "access": "yes",
    "addr:country": "PT",
    "amenity": "charging_station",
    "authentication:membership_card": "yes",
    "authentication:none": "no",
    "capacity": "2",
    "fee": "yes",
    "maxstay": "unlimited",
    "motorcar": "yes",
    "name": "VNF-00045 - BP",
    "network": "Mobi.E",
    "opening_hours": "24/7",
    "operator": "Charging Together",
    "parking:fee": "no",
    "payment:app": "yes",
    "payment:cards": "no",
    "payment:cash": "no",
    "payment:membership_card": "yes",
    "ref": "VNF-00045",
    "socket:chademo": "1",
    "socket:chademo:current": "200",
    "socket:chademo:output": "100kW",
    "socket:chademo:voltage": "500",
    "socket:type2_combo": "2",
    "socket:type2_combo:current": "500",
    "socket:type2_combo:output": "150kW",
    "socket:type2_combo:voltage": "1000",
    "website": "https://www.mobie.pt",
    "id": "node/11802659860"
  },
  "geometry": {
    "type": "Point",
    "coordinates": [
      -8.5452028,
      41.3783193
    ]
  }
},
{
  "type": "Feature",
  "id": "node/11802659861",
  "properties": {
    "access": "yes",
    "addr:country": "PT",
    "amenity": "charging_station",
    "authentication:membership_card": "yes",
    "authentication:none": "no",
    "capacity": "2",
    "fee": "yes",
    "maxstay": "unlimited",
    "motorcar": "yes",
    "name": "VLG-00040",
    "network": "Mobi.E",
    "opening_hours": "24/7",
    "operator": "Prio.E",
    "parking:fee": "no",
    "payment:app": "yes",
    "payment:cards": "no",
    "payment:cash": "no",
    "payment:membership_card": "yes",
    "ref": "VLG-00040",
    "socket:type2_combo": "2",
    "socket:type2_combo:current": "200",
    "socket:type2_combo:output": "150kW",
    "socket:type2_combo:voltage": "1000",
    "website": "https://www.mobie.pt/",
    "id": "node/11802659861"
  },
  "geometry": {
    "type": "Point",
    "coordinates": [
      -8.5415348,
      41.2085495
    ]
  }
},
{
  "type": "Feature",
  "id": "node/11808213996",
  "properties": {
    "access": "yes",
    "addr:country": "PT",
    "amenity": "charging_station",
    "authentication:membership_card": "yes",
    "authentication:none": "no",
    "capacity": "2",
    "fee": "yes",
    "maxstay": "unlimited",
    "motorcar": "yes",
    "name": "VRL-00032",
    "network": "Mobi.E",
    "opening_hours": "24/7",
    "operator": "EDP Comercial",
    "parking:fee": "no",
    "payment:app": "yes",
    "payment:cards": "no",
    "payment:cash": "no",
    "payment:membership_card": "yes",
    "ref": "VRL-00032",
    "socket:type2_combo": "2",
    "socket:type2_combo:current": "235",
    "socket:type2_combo:output": "150kW",
    "socket:type2_combo:voltage": "1000",
    "website": "https://www.mobie.pt/",
    "id": "node/11808213996"
  },
  "geometry": {
    "type": "Point",
    "coordinates": [
      -7.7063087,
      41.2795247
    ]
  }
},
{
  "type": "Feature",
  "id": "node/11812512710",
  "properties": {
    "access": "yes",
    "addr:country": "PT",
    "amenity": "charging_station",
    "authentication:membership_card": "yes",
    "authentication:none": "no",
    "capacity": "5",
    "fee": "yes",
    "maxstay": "unlimited",
    "motorcar": "yes",
    "name": "RMR-00009",
    "network": "Mobi.E",
    "opening_hours": "24/7",
    "operator": "Powerdot",
    "parking:fee": "no",
    "payment:app": "yes",
    "payment:cards": "no",
    "payment:cash": "no",
    "payment:membership_card": "yes",
    "ref": "RMR-00009",
    "socket:chademo": "1",
    "socket:chademo:current": "125",
    "socket:chademo:output": "50kW",
    "socket:chademo:voltage": "500",
    "socket:type2": "1",
    "socket:type2:current": "32",
    "socket:type2:output": "22kW",
    "socket:type2:voltage": "400",
    "socket:type2_combo": "3",
    "socket:type2_combo:current": "375",
    "socket:type2_combo:output": "200kW",
    "socket:type2_combo:voltage": "1000",
    "website": "https://www.mobie.pt",
    "id": "node/11812512710"
  },
  "geometry": {
    "type": "Point",
    "coordinates": [
      -8.9641236,
      39.3704067
    ]
  }
},
{
  "type": "Feature",
  "id": "node/11812512711",
  "properties": {
    "access": "yes",
    "addr:country": "PT",
    "amenity": "charging_station",
    "authentication:membership_card": "yes",
    "authentication:none": "no",
    "capacity": "2",
    "fee": "yes",
    "maxstay": "unlimited",
    "motorcar": "yes",
    "name": "ODV-00033 - BP",
    "network": "Mobi.E",
    "opening_hours": "24/7",
    "operator": "Charging Together",
    "parking:fee": "no",
    "payment:app": "yes",
    "payment:cards": "no",
    "payment:cash": "no",
    "payment:membership_card": "yes",
    "ref": "ODV-00033",
    "socket:chademo": "1",
    "socket:chademo:current": "200",
    "socket:chademo:output": "100kW",
    "socket:chademo:voltage": "500",
    "socket:type2_combo": "2",
    "socket:type2_combo:current": "500",
    "socket:type2_combo:output": "150kW",
    "socket:type2_combo:voltage": "1000",
    "website": "https://www.mobie.pt",
    "id": "node/11812512711"
  },
  "geometry": {
    "type": "Point",
    "coordinates": [
      -9.2343967,
      38.8104506
    ]
  }
},
{
  "type": "Feature",
  "id": "node/11813592525",
  "properties": {
    "access": "yes",
    "addr:country": "PT",
    "amenity": "charging_station",
    "authentication:membership_card": "yes",
    "authentication:none": "no",
    "capacity": "2",
    "fee": "yes",
    "maxstay": "unlimited",
    "motorcar": "yes",
    "name": "STB-00082 - BP",
    "network": "Mobi.E",
    "opening_hours": "24/7",
    "operator": "Charging Together",
    "parking:fee": "no",
    "payment:app": "yes",
    "payment:cards": "no",
    "payment:cash": "no",
    "payment:membership_card": "yes",
    "ref": "STB-00082",
    "socket:chademo": "1",
    "socket:chademo:current": "200",
    "socket:chademo:output": "100kW",
    "socket:chademo:voltage": "500",
    "socket:type2_combo": "2",
    "socket:type2_combo:current": "500",
    "socket:type2_combo:output": "150kW",
    "socket:type2_combo:voltage": "1000",
    "website": "https://www.mobie.pt",
    "id": "node/11813592525"
  },
  "geometry": {
    "type": "Point",
    "coordinates": [
      -8.8842969,
      38.5325929
    ]
  }
},
{
  "type": "Feature",
  "id": "node/11861626514",
  "properties": {
    "access": "yes",
    "addr:country": "PT",
    "amenity": "charging_station",
    "authentication:membership_card": "yes",
    "authentication:none": "no",
    "capacity": "1",
    "fee": "yes",
    "maxstay": "unlimited",
    "motorcar": "yes",
    "name": "IDN-00004",
    "network": "Mobi.E",
    "opening_hours": "24/7",
    "operator": "Iberdrola",
    "parking:fee": "no",
    "payment:app": "yes",
    "payment:cards": "no",
    "payment:cash": "no",
    "payment:membership_card": "yes",
    "ref": "IDN-00004",
    "socket:chademo": "1",
    "socket:chademo:current": "125",
    "socket:chademo:output": "50kW",
    "socket:chademo:voltage": "500",
    "socket:type2_combo": "1",
    "socket:type2_combo:current": "300",
    "socket:type2_combo:output": "180kW",
    "socket:type2_combo:voltage": "1000",
    "website": "https://www.mobie.pt/",
    "id": "node/11861626514"
  },
  "geometry": {
    "type": "Point",
    "coordinates": [
      -6.8760823,
      40.0010816
    ]
  }
},
{
  "type": "Feature",
  "id": "node/11861840245",
  "properties": {
    "access": "yes",
    "addr:country": "PT",
    "amenity": "charging_station",
    "authentication:membership_card": "yes",
    "authentication:none": "no",
    "capacity": "2",
    "fee": "yes",
    "maxstay": "unlimited",
    "motorcar": "yes",
    "name": "ODV-00029 - Cepsa",
    "network": "Mobi.E",
    "old_ref": "ODV-00036",
    "opening_hours": "24/7",
    "operator": "Cepsa",
    "parking:fee": "no",
    "payment:app": "yes",
    "payment:cards": "no",
    "payment:cash": "no",
    "payment:membership_card": "yes",
    "ref": "ODV-00029",
    "socket:type2_combo": "2",
    "socket:type2_combo:current": "500",
    "socket:type2_combo:output": "300kW",
    "socket:type2_combo:voltage": "1000",
    "website": "https://www.mobie.pt",
    "id": "node/11861840245"
  },
  "geometry": {
    "type": "Point",
    "coordinates": [
      -9.2003576,
      38.8065832
    ]
  }
},
{
  "type": "Feature",
  "id": "node/11889655235",
  "properties": {
    "access": "yes",
    "addr:country": "PT",
    "amenity": "charging_station",
    "authentication:membership_card": "yes",
    "authentication:none": "no",
    "capacity": "2",
    "fee": "yes",
    "maxstay": "unlimited",
    "motorcar": "yes",
    "name": "CSC-00184 - BP",
    "network": "Mobi.E",
    "opening_hours": "24/7",
    "operator": "Charging Together",
    "parking:fee": "no",
    "payment:app": "yes",
    "payment:cards": "no",
    "payment:cash": "no",
    "payment:membership_card": "yes",
    "ref": "CSC-00184",
    "socket:chademo": "1",
    "socket:chademo:current": "200",
    "socket:chademo:output": "100kW",
    "socket:chademo:voltage": "500",
    "socket:type2_combo": "2",
    "socket:type2_combo:current": "500",
    "socket:type2_combo:output": "150kW",
    "socket:type2_combo:voltage": "1000",
    "website": "https://www.mobie.pt",
    "id": "node/11889655235"
  },
  "geometry": {
    "type": "Point",
    "coordinates": [
      -9.328458,
      38.7283291
    ]
  }
},
{
  "type": "Feature",
  "id": "node/11892126460",
  "properties": {
    "access": "yes",
    "addr:country": "PT",
    "amenity": "charging_station",
    "authentication:membership_card": "yes",
    "authentication:none": "no",
    "capacity": "4",
    "fee": "yes",
    "maxstay": "unlimited",
    "motorcar": "yes",
    "name": "TMR-00037 - Roady",
    "network": "Mobi.E",
    "opening_hours": "24/7",
    "operator": "Powerdot",
    "parking:fee": "no",
    "payment:app": "yes",
    "payment:cards": "no",
    "payment:cash": "no",
    "payment:membership_card": "yes",
    "ref": "TMR-00037",
    "socket:chademo": "1",
    "socket:chademo:current": "125",
    "socket:chademo:output": "50kW",
    "socket:chademo:voltage": "500",
    "socket:type2_combo": "3",
    "socket:type2_combo:current": "375",
    "socket:type2_combo:output": "200kW",
    "socket:type2_combo:voltage": "1000",
    "website": "https://www.mobie.pt",
    "id": "node/11892126460"
  },
  "geometry": {
    "type": "Point",
    "coordinates": [
      -8.3962327,
      39.6075301
    ]
  }
},
{
  "type": "Feature",
  "id": "node/11892126462",
  "properties": {
    "access": "yes",
    "addr:country": "PT",
    "amenity": "charging_station",
    "authentication:membership_card": "yes",
    "authentication:none": "no",
    "capacity": "6",
    "fee": "yes",
    "maxstay": "unlimited",
    "motorcar": "yes",
    "name": "EVR-00046/47",
    "network": "Mobi.E",
    "opening_hours": "24/7",
    "operator": "Powerdot",
    "parking:fee": "no",
    "payment:app": "yes",
    "payment:cards": "no",
    "payment:cash": "no",
    "payment:membership_card": "yes",
    "ref": "EVR-00046;EVR-00047",
    "socket:chademo": "1",
    "socket:chademo:current": "125",
    "socket:chademo:output": "50kW",
    "socket:chademo:voltage": "500",
    "socket:type2": "1",
    "socket:type2:current": "16",
    "socket:type2:output": "11kW",
    "socket:type2:voltage": "400",
    "socket:type2_combo": "5",
    "socket:type2_combo:current": "375",
    "socket:type2_combo:output": "180kW",
    "socket:type2_combo:voltage": "1000",
    "website": "https://www.mobie.pt",
    "id": "node/11892126462"
  },
  "geometry": {
    "type": "Point",
    "coordinates": [
      -7.8949452,
      38.5596852
    ]
  }
},
{
  "type": "Feature",
  "id": "node/11910670629",
  "properties": {
    "access": "yes",
    "addr:country": "PT",
    "amenity": "charging_station",
    "authentication:membership_card": "yes",
    "authentication:none": "no",
    "capacity": "2",
    "fee": "yes",
    "maxstay": "unlimited",
    "motorcar": "yes",
    "name": "MMN-00014 - Galp",
    "network": "Mobi.E",
    "opening_hours": "24/7",
    "operator": "Galp Power",
    "parking:fee": "no",
    "payment:app": "yes",
    "payment:cards": "no",
    "payment:cash": "no",
    "payment:membership_card": "yes",
    "ref": "MMN-00014",
    "socket:type2_combo": "2",
    "socket:type2_combo:current": "200",
    "socket:type2_combo:output": "180kW",
    "socket:type2_combo:voltage": "1000",
    "website": "https://www.mobie.pt/",
    "id": "node/11910670629"
  },
  "geometry": {
    "type": "Point",
    "coordinates": [
      -8.2163722,
      38.6494638
    ]
  }
},
{
  "type": "Feature",
  "id": "node/11927011375",
  "properties": {
    "access": "yes",
    "addr:country": "PT",
    "amenity": "charging_station",
    "authentication:membership_card": "yes",
    "authentication:none": "no",
    "capacity": "2",
    "fee": "yes",
    "maxstay": "unlimited",
    "motorcar": "yes",
    "name": "MAI-00052 - BP",
    "network": "Mobi.E",
    "opening_hours": "24/7",
    "operator": "Charging Together",
    "parking:fee": "no",
    "payment:app": "yes",
    "payment:cards": "no",
    "payment:cash": "no",
    "payment:membership_card": "yes",
    "ref": "MAI-00052",
    "socket:chademo": "1",
    "socket:chademo:current": "200",
    "socket:chademo:output": "100kW",
    "socket:chademo:voltage": "500",
    "socket:type2_combo": "2",
    "socket:type2_combo:current": "500",
    "socket:type2_combo:output": "150kW",
    "socket:type2_combo:voltage": "1000",
    "website": "https://www.mobie.pt",
    "id": "node/11927011375"
  },
  "geometry": {
    "type": "Point",
    "coordinates": [
      -8.6297725,
      41.245109
    ]
  }
},
{
  "type": "Feature",
  "id": "node/11947706719",
  "properties": {
    "access": "yes",
    "addr:country": "PT",
    "amenity": "charging_station",
    "authentication:membership_card": "yes",
    "authentication:none": "no",
    "capacity": "4",
    "fee": "yes",
    "location": "underground",
    "maxstay": "unlimited",
    "motorcar": "yes",
    "name": "ODV-00028",
    "network": "Mobi.E",
    "opening_hours": "Mo-Su 07:00-24:00",
    "operator": "Powerdot",
    "parking:fee": "no",
    "payment:app": "yes",
    "payment:cards": "no",
    "payment:cash": "no",
    "payment:membership_card": "yes",
    "ref": "ODV-00028",
    "socket:chademo": "1",
    "socket:chademo:current": "125",
    "socket:chademo:output": "50kW",
    "socket:chademo:voltage": "500",
    "socket:type2_combo": "3",
    "socket:type2_combo:current": "250",
    "socket:type2_combo:output": "200kW",
    "socket:type2_combo:voltage": "1000",
    "website": "https://www.mobie.pt",
    "id": "node/11947706719"
  },
  "geometry": {
    "type": "Point",
    "coordinates": [
      -9.1921807,
      38.7826632
    ]
  }
},
{
  "type": "Feature",
  "id": "node/11947706721",
  "properties": {
    "access": "yes",
    "addr:country": "PT",
    "amenity": "charging_station",
    "authentication:membership_card": "yes",
    "authentication:none": "no",
    "capacity": "2",
    "fee": "yes",
    "maxstay": "unlimited",
    "motorcar": "yes",
    "name": "CVL-00029",
    "network": "Mobi.E",
    "opening_hours": "24/7",
    "operator": "DTE",
    "parking:fee": "no",
    "payment:app": "yes",
    "payment:cards": "no",
    "payment:cash": "no",
    "payment:membership_card": "yes",
    "ref": "CVL-00029",
    "socket:type2_combo": "2",
    "socket:type2_combo:current": "200",
    "socket:type2_combo:output": "150kW",
    "socket:type2_combo:voltage": "1000",
    "website": "https://www.mobie.pt",
    "id": "node/11947706721"
  },
  "geometry": {
    "type": "Point",
    "coordinates": [
      -7.4921881,
      40.2649739
    ]
  }
},
{
  "type": "Feature",
  "id": "node/11947706722",
  "properties": {
    "access": "yes",
    "addr:country": "PT",
    "amenity": "charging_station",
    "authentication:membership_card": "yes",
    "authentication:none": "no",
    "capacity": "2",
    "fee": "yes",
    "maxstay": "unlimited",
    "motorcar": "yes",
    "name": "CVL-00024",
    "network": "Mobi.E",
    "opening_hours": "24/7",
    "operator": "DTE",
    "parking:fee": "no",
    "payment:app": "yes",
    "payment:cards": "no",
    "payment:cash": "no",
    "payment:membership_card": "yes",
    "ref": "CVL-00024",
    "socket:chademo": "1",
    "socket:chademo:current": "125",
    "socket:chademo:output": "50kW",
    "socket:chademo:voltage": "500",
    "socket:type2_combo": "1",
    "socket:type2_combo:current": "200",
    "socket:type2_combo:output": "150kW",
    "socket:type2_combo:voltage": "1000",
    "website": "https://www.mobie.pt",
    "id": "node/11947706722"
  },
  "geometry": {
    "type": "Point",
    "coordinates": [
      -7.5053803,
      40.2842859
    ]
  }
},
{
  "type": "Feature",
  "id": "node/11947706723",
  "properties": {
    "access": "yes",
    "addr:country": "PT",
    "amenity": "charging_station",
    "authentication:membership_card": "yes",
    "authentication:none": "no",
    "capacity": "2",
    "fee": "yes",
    "maxstay": "unlimited",
    "motorcar": "yes",
    "name": "CVL-00022",
    "network": "Mobi.E",
    "opening_hours": "24/7",
    "operator": "DTE",
    "parking:fee": "no",
    "payment:app": "yes",
    "payment:cards": "no",
    "payment:cash": "no",
    "payment:membership_card": "yes",
    "ref": "CVL-00022",
    "socket:chademo": "1",
    "socket:chademo:current": "125",
    "socket:chademo:output": "50kW",
    "socket:chademo:voltage": "500",
    "socket:type2_combo": "1",
    "socket:type2_combo:current": "200",
    "socket:type2_combo:output": "150kW",
    "socket:type2_combo:voltage": "1000",
    "website": "https://www.mobie.pt",
    "id": "node/11947706723"
  },
  "geometry": {
    "type": "Point",
    "coordinates": [
      -7.4783204,
      40.296251
    ]
  }
},
{
  "type": "Feature",
  "id": "node/11947706727",
  "properties": {
    "access": "yes",
    "addr:country": "PT",
    "amenity": "charging_station",
    "authentication:membership_card": "yes",
    "authentication:none": "no",
    "capacity": "4",
    "fee": "yes",
    "maxstay": "unlimited",
    "motorcar": "yes",
    "name": "ACB-00021/22",
    "network": "Mobi.E",
    "opening_hours": "24/7",
    "operator": "Powerdot",
    "parking:fee": "no",
    "payment:app": "yes",
    "payment:cards": "no",
    "payment:cash": "no",
    "payment:membership_card": "yes",
    "ref": "ACB-00021;ACB-00022",
    "socket:chademo": "1",
    "socket:chademo:current": "125",
    "socket:chademo:output": "50kW",
    "socket:chademo:voltage": "500",
    "socket:type2": "1",
    "socket:type2:current": "16",
    "socket:type2:output": "11kW",
    "socket:type2:voltage": "400",
    "socket:type2_combo": "3",
    "socket:type2_combo:current": "250",
    "socket:type2_combo:output": "200kW",
    "socket:type2_combo:voltage": "1000",
    "website": "https://www.mobie.pt",
    "id": "node/11947706727"
  },
  "geometry": {
    "type": "Point",
    "coordinates": [
      -9.0955834,
      39.4979246
    ]
  }
},
{
  "type": "Feature",
  "id": "node/11954649034",
  "properties": {
    "access": "yes",
    "addr:country": "PT",
    "amenity": "charging_station",
    "authentication:membership_card": "yes",
    "authentication:none": "no",
    "capacity": "2",
    "fee": "yes",
    "maxstay": "unlimited",
    "motorcar": "yes",
    "name": "LRA-00123 - BP",
    "network": "Mobi.E",
    "opening_hours": "24/7",
    "operator": "Charging Together",
    "parking:fee": "no",
    "payment:app": "yes",
    "payment:cards": "no",
    "payment:cash": "no",
    "payment:membership_card": "yes",
    "ref": "LRA-00123",
    "socket:chademo": "1",
    "socket:chademo:current": "200",
    "socket:chademo:output": "100kW",
    "socket:chademo:voltage": "500",
    "socket:type2_combo": "2",
    "socket:type2_combo:current": "500",
    "socket:type2_combo:output": "150kW",
    "socket:type2_combo:voltage": "1000",
    "website": "https://www.mobie.pt",
    "id": "node/11954649034"
  },
  "geometry": {
    "type": "Point",
    "coordinates": [
      -8.8274484,
      39.8988176
    ]
  }
},
{
  "type": "Feature",
  "id": "node/11958592399",
  "properties": {
    "access": "yes",
    "addr:country": "PT",
    "amenity": "charging_station",
    "authentication:membership_card": "yes",
    "authentication:none": "no",
    "capacity": "2",
    "fee": "yes",
    "maxstay": "unlimited",
    "motorcar": "yes",
    "name": "CVL-00028",
    "network": "Mobi.E",
    "opening_hours": "24/7",
    "operator": "DTE",
    "parking:fee": "no",
    "payment:app": "yes",
    "payment:cards": "no",
    "payment:cash": "no",
    "payment:membership_card": "yes",
    "ref": "CVL-00028",
    "socket:type2_combo": "2",
    "socket:type2_combo:current": "200",
    "socket:type2_combo:output": "150kW",
    "socket:type2_combo:voltage": "1000",
    "website": "https://www.mobie.pt",
    "id": "node/11958592399"
  },
  "geometry": {
    "type": "Point",
    "coordinates": [
      -7.5068081,
      40.2704958
    ]
  }
},
{
  "type": "Feature",
  "id": "node/11958592401",
  "properties": {
    "access": "yes",
    "addr:country": "PT",
    "amenity": "charging_station",
    "authentication:membership_card": "yes",
    "authentication:none": "no",
    "capacity": "2",
    "fee": "yes",
    "maxstay": "unlimited",
    "motorcar": "yes",
    "name": "CVL-00026",
    "network": "Mobi.E",
    "opening_hours": "24/7",
    "operator": "DTE",
    "parking:fee": "no",
    "payment:app": "yes",
    "payment:cards": "no",
    "payment:cash": "no",
    "payment:membership_card": "yes",
    "ref": "CVL-00026",
    "socket:type2_combo": "2",
    "socket:type2_combo:current": "200",
    "socket:type2_combo:output": "150kW",
    "socket:type2_combo:voltage": "1000",
    "website": "https://www.mobie.pt",
    "id": "node/11958592401"
  },
  "geometry": {
    "type": "Point",
    "coordinates": [
      -7.4970059,
      40.2774259
    ]
  }
},
{
  "type": "Feature",
  "id": "node/11958592402",
  "properties": {
    "access": "yes",
    "addr:country": "PT",
    "amenity": "charging_station",
    "authentication:membership_card": "yes",
    "authentication:none": "no",
    "capacity": "2",
    "fee": "yes",
    "maxstay": "unlimited",
    "motorcar": "yes",
    "name": "CVL-00025",
    "network": "Mobi.E",
    "opening_hours": "24/7",
    "operator": "DTE",
    "parking:fee": "no",
    "payment:app": "yes",
    "payment:cards": "no",
    "payment:cash": "no",
    "payment:membership_card": "yes",
    "ref": "CVL-00025",
    "socket:type2_combo": "2",
    "socket:type2_combo:current": "200",
    "socket:type2_combo:output": "150kW",
    "socket:type2_combo:voltage": "1000",
    "website": "https://www.mobie.pt",
    "id": "node/11958592402"
  },
  "geometry": {
    "type": "Point",
    "coordinates": [
      -7.5012676,
      40.2769914
    ]
  }
},
{
  "type": "Feature",
  "id": "node/11961650877",
  "properties": {
    "access": "yes",
    "addr:country": "PT",
    "amenity": "charging_station",
    "authentication:membership_card": "yes",
    "authentication:none": "no",
    "capacity": "2",
    "fee": "yes",
    "maxstay": "unlimited",
    "motorcar": "yes",
    "name": "CVL-00032",
    "network": "Mobi.E",
    "opening_hours": "24/7",
    "operator": "DTE",
    "parking:fee": "no",
    "payment:app": "yes",
    "payment:cards": "no",
    "payment:cash": "no",
    "payment:membership_card": "yes",
    "ref": "CVL-00032",
    "socket:chademo": "1",
    "socket:chademo:current": "125",
    "socket:chademo:output": "50kW",
    "socket:chademo:voltage": "500",
    "socket:type2_combo": "1",
    "socket:type2_combo:current": "200",
    "socket:type2_combo:output": "150kW",
    "socket:type2_combo:voltage": "1000",
    "website": "https://www.mobie.pt/",
    "id": "node/11961650877"
  },
  "geometry": {
    "type": "Point",
    "coordinates": [
      -7.522066,
      40.239977
    ]
  }
},
{
  "type": "Feature",
  "id": "node/11962514258",
  "properties": {
    "access": "yes",
    "addr:country": "PT",
    "amenity": "charging_station",
    "authentication:membership_card": "yes",
    "authentication:none": "no",
    "capacity": "2",
    "fee": "yes",
    "maxstay": "unlimited",
    "motorcar": "yes",
    "name": "CVL-00018 - Prio",
    "network": "Mobi.E",
    "opening_hours": "24/7",
    "operator": "Prio.E",
    "parking:fee": "no",
    "payment:app": "yes",
    "payment:cards": "no",
    "payment:cash": "no",
    "payment:membership_card": "yes",
    "ref": "CVL-00018",
    "socket:type2_combo": "2",
    "socket:type2_combo:current": "250",
    "socket:type2_combo:output": "180kW",
    "socket:type2_combo:voltage": "1000",
    "website": "https://www.mobie.pt/",
    "id": "node/11962514258"
  },
  "geometry": {
    "type": "Point",
    "coordinates": [
      -7.4811566,
      40.2948043
    ]
  }
},
{
  "type": "Feature",
  "id": "node/11963115974",
  "properties": {
    "access": "yes",
    "addr:country": "PT",
    "amenity": "charging_station",
    "authentication:membership_card": "yes",
    "authentication:none": "no",
    "capacity": "2",
    "fee": "yes",
    "maxstay": "unlimited",
    "motorcar": "yes",
    "name": "VLF-00005",
    "network": "Mobi.E",
    "opening_hours": "24/7",
    "operator": "Prio.E",
    "parking:fee": "no",
    "payment:app": "yes",
    "payment:cards": "no",
    "payment:cash": "no",
    "payment:membership_card": "yes",
    "ref": "VLF-00005",
    "socket:chademo": "1",
    "socket:chademo:current": "125",
    "socket:chademo:output": "50kW",
    "socket:chademo:voltage": "500",
    "socket:type2_combo": "1",
    "socket:type2_combo:current": "200",
    "socket:type2_combo:output": "150kW",
    "socket:type2_combo:voltage": "1000",
    "website": "https://www.mobie.pt/",
    "id": "node/11963115974"
  },
  "geometry": {
    "type": "Point",
    "coordinates": [
      -7.15495,
      41.069427
    ]
  }
},
{
  "type": "Feature",
  "id": "node/11980639521",
  "properties": {
    "access": "yes",
    "addr:country": "PT",
    "amenity": "charging_station",
    "authentication:membership_card": "yes",
    "authentication:none": "no",
    "capacity": "2",
    "fee": "yes",
    "maxstay": "unlimited",
    "motorcar": "yes",
    "name": "CLD-00034 - BP",
    "network": "Mobi.E",
    "opening_hours": "24/7",
    "operator": "Charging Together",
    "parking:fee": "no",
    "payment:app": "yes",
    "payment:cards": "no",
    "payment:cash": "no",
    "payment:membership_card": "yes",
    "ref": "CLD-00034",
    "socket:chademo": "1",
    "socket:chademo:current": "200",
    "socket:chademo:output": "100kW",
    "socket:chademo:voltage": "500",
    "socket:type2_combo": "2",
    "socket:type2_combo:current": "500",
    "socket:type2_combo:output": "150kW",
    "socket:type2_combo:voltage": "1000",
    "website": "https://www.mobie.pt",
    "id": "node/11980639521"
  },
  "geometry": {
    "type": "Point",
    "coordinates": [
      -9.1310375,
      39.392294
    ]
  }
}
]
}
