{
  "version": 0.6,
  "generator": "Overpass API 0.7.59.5 b201bb38",
  "osm3s": {
    "copyright": "The data included in this document is from www.openstreetmap.org. The data is made available under ODbL."
  },
  "elements": [

{
  "type": "node",
  "id": 8206970203,
  "lat": 37.0796129,
  "lon": -8.9136216,
  "tags": {
    "access": "yes",
    "addr:city": "Vila do Bispo",
    "addr:country": "PT",
    "authentication:membership_card": "yes",
    "authentication:none": "no",
    "capacity": "2",
    "email": "apoio.cliente@kmlowcost.com",
    "fee": "yes",
    "maxstay": "unlimited",
    "motorcar": "yes",
    "name": "VBP-00003",
    "network": "Mobi.E",
    "opening_hours": "24/7",
    "operator": "Atlante",
    "parking:fee": "no",
    "payment:app": "yes",
    "payment:cards": "no",
    "payment:cash": "no",
    "payment:membership_card": "yes",
    "phone": "+351 800 296 929",
    "planned:amenity": "charging_station",
    "ref": "VBP-00003",
    "socket:chademo": "1",
    "socket:chademo:current": "120",
    "socket:chademo:output": "50kW",
    "socket:chademo:voltage": "500",
    "socket:type2_cable": "1",
    "socket:type2_cable:current": "63",
    "socket:type2_cable:output": "43kW",
    "socket:type2_cable:voltage": "400",
    "socket:type2_combo": "1",
    "socket:type2_combo:current": "125",
    "socket:type2_combo:output": "50kW",
    "socket:type2_combo:voltage": "500",
    "website": "https://www.mobie.pt"
  }
},
{
  "type": "node",
  "id": 8222783912,
  "lat": 38.7618780,
  "lon": -9.2968915,
  "tags": {
    "access": "yes",
    "addr:city": "Sintra",
    "addr:country": "PT",
    "addr:street": "IC 19",
    "authentication:membership_card": "yes",
    "authentication:none": "no",
    "capacity": "2",
    "email": "apoio.cliente@kmlowcost.com",
    "fee": "yes",
    "maxstay": "unlimited",
    "motorcar": "yes",
    "name": "SNT-00009",
    "network": "Mobi.E",
    "opening_hours": "24/7",
    "operator": "Atlante",
    "parking:fee": "no",
    "payment:app": "yes",
    "payment:cards": "no",
    "payment:cash": "no",
    "payment:membership_card": "yes",
    "phone": "+351 800 296 929",
    "planned:amenity": "charging_station",
    "ref": "SNT-00009",
    "socket:chademo": "1",
    "socket:chademo:current": "120",
    "socket:chademo:output": "50kW",
    "socket:chademo:voltage": "500",
    "socket:type2_cable": "1",
    "socket:type2_cable:current": "63",
    "socket:type2_cable:output": "43kW",
    "socket:type2_cable:voltage": "400",
    "socket:type2_combo": "1",
    "socket:type2_combo:current": "125",
    "socket:type2_combo:output": "50kW",
    "socket:type2_combo:voltage": "500",
    "website": "https://www.mobie.pt"
  }
},
{
  "type": "node",
  "id": 8223094755,
  "lat": 38.6997370,
  "lon": -9.3063124,
  "tags": {
    "access": "yes",
    "addr:city": "Oeiras",
    "addr:country": "PT",
    "addr:street": "Rua Engenheiro Álvaro Roquette",
    "authentication:membership_card": "yes",
    "authentication:none": "no",
    "capacity": "2",
    "email": "mobilidade.electricacrc@galp.com",
    "fee": "yes",
    "maxstay": "unlimited",
    "motorcar": "yes",
    "name": "OER-00010",
    "network": "Mobi.E",
    "opening_hours": "24/7",
    "operator": "Galp Geste",
    "parking:fee": "no",
    "payment:app": "yes",
    "payment:cards": "no",
    "payment:cash": "no",
    "payment:membership_card": "yes",
    "phone": "+351 800 249 249",
    "planned:amenity": "charging_station",
    "ref": "OER-00010",
    "socket:chademo": "1",
    "socket:chademo:current": "120",
    "socket:chademo:output": "50kW",
    "socket:chademo:voltage": "500",
    "socket:type2_cable": "1",
    "socket:type2_cable:current": "63",
    "socket:type2_cable:output": "43kW",
    "socket:type2_cable:voltage": "400",
    "socket:type2_combo": "1",
    "socket:type2_combo:current": "125",
    "socket:type2_combo:output": "50kW",
    "socket:type2_combo:voltage": "500",
    "website": "https://www.mobie.pt"
  }
},
{
  "type": "node",
  "id": 8229011333,
  "lat": 41.2002051,
  "lon": -8.5660878,
  "tags": {
    "access": "yes",
    "addr:city": "Maia",
    "addr:country": "PT",
    "authentication:membership_card": "yes",
    "authentication:none": "no",
    "capacity": "2",
    "email": "mobilidade.electricacrc@galp.com",
    "fee": "yes",
    "maxstay": "unlimited",
    "motorcar": "yes",
    "name": "MAI-00002",
    "network": "Mobi.E",
    "opening_hours": "24/7",
    "operator": "Galp Geste",
    "parking:fee": "no",
    "payment:app": "yes",
    "payment:cards": "no",
    "payment:cash": "no",
    "payment:membership_card": "yes",
    "phone": "+351 800 249 249",
    "planned:amenity": "charging_station",
    "ref": "MAI-00002",
    "socket:chademo": "1",
    "socket:chademo:current": "120",
    "socket:chademo:output": "50kW",
    "socket:chademo:voltage": "500",
    "socket:type2_cable": "1",
    "socket:type2_cable:current": "63",
    "socket:type2_cable:output": "43kW",
    "socket:type2_cable:voltage": "400",
    "socket:type2_combo": "1",
    "socket:type2_combo:current": "125",
    "socket:type2_combo:output": "50kW",
    "socket:type2_combo:voltage": "500",
    "website": "https://www.mobie.pt"
  }
},
{
  "type": "node",
  "id": 8229011334,
  "lat": 41.2006107,
  "lon": -8.5683543,
  "tags": {
    "access": "yes",
    "addr:city": "Maia",
    "addr:country": "PT",
    "authentication:membership_card": "yes",
    "authentication:none": "no",
    "capacity": "2",
    "email": "mobilidade.electricacrc@galp.com",
    "fee": "yes",
    "maxstay": "unlimited",
    "motorcar": "yes",
    "name": "MAI-00003",
    "network": "Mobi.E",
    "opening_hours": "24/7",
    "operator": "Galp Geste",
    "parking:fee": "no",
    "payment:app": "yes",
    "payment:cards": "no",
    "payment:cash": "no",
    "payment:membership_card": "yes",
    "phone": "+351 800 249 249",
    "planned:amenity": "charging_station",
    "ref": "MAI-00003",
    "socket:chademo": "1",
    "socket:chademo:current": "120",
    "socket:chademo:output": "50kW",
    "socket:chademo:voltage": "500",
    "socket:type2_cable": "1",
    "socket:type2_cable:current": "63",
    "socket:type2_cable:output": "43kW",
    "socket:type2_cable:voltage": "400",
    "socket:type2_combo": "1",
    "socket:type2_combo:current": "125",
    "socket:type2_combo:output": "50kW",
    "socket:type2_combo:voltage": "500",
    "website": "https://www.mobie.pt"
  }
},
{
  "type": "node",
  "id": 8231863153,
  "lat": 41.2634640,
  "lon": -8.5632420,
  "tags": {
    "access": "yes",
    "addr:city": "Trofa",
    "addr:country": "PT",
    "authentication:membership_card": "yes",
    "authentication:none": "no",
    "capacity": "2",
    "email": "mobilidade.electricacrc@galp.com",
    "fee": "yes",
    "maxstay": "unlimited",
    "motorcar": "yes",
    "name": "TRF-00003",
    "network": "Mobi.E",
    "opening_hours": "24/7",
    "operator": "Galp Geste",
    "parking:fee": "no",
    "payment:app": "yes",
    "payment:cards": "no",
    "payment:cash": "no",
    "payment:membership_card": "yes",
    "phone": "+351 800 249 249",
    "planned:amenity": "charging_station",
    "ref": "TRF-00003",
    "socket:chademo": "1",
    "socket:chademo:current": "120",
    "socket:chademo:output": "50kW",
    "socket:chademo:voltage": "500",
    "socket:type2_cable": "1",
    "socket:type2_cable:current": "63",
    "socket:type2_cable:output": "43kW",
    "socket:type2_cable:voltage": "400",
    "socket:type2_combo": "1",
    "socket:type2_combo:current": "125",
    "socket:type2_combo:output": "50kW",
    "socket:type2_combo:voltage": "500",
    "website": "https://www.mobie.pt"
  }
},
{
  "type": "node",
  "id": 8255599299,
  "lat": 40.6964896,
  "lon": -7.9213357,
  "tags": {
    "access": "yes",
    "addr:country": "PT",
    "authentication:membership_card": "yes",
    "authentication:none": "no",
    "capacity": "2",
    "email": "apoio.cliente@kmlowcost.com",
    "fee": "yes",
    "maxstay": "unlimited",
    "motorcar": "yes",
    "name": "VIS-00051",
    "network": "Mobi.E",
    "opening_hours": "24/7",
    "operator": "Atlante",
    "parking:fee": "no",
    "payment:app": "yes",
    "payment:cards": "no",
    "payment:cash": "no",
    "payment:membership_card": "yes",
    "phone": "+351 800 296 929",
    "planned:amenity": "charging_station",
    "ref": "VIS-00051",
    "socket:type2": "2",
    "socket:type2:current": "16",
    "socket:type2:output": "3.7kW",
    "socket:type2:voltage": "230",
    "website": "https://www.mobie.pt"
  }
},
{
  "type": "node",
  "id": 8270263220,
  "lat": 37.0817677,
  "lon": -8.9124294,
  "tags": {
    "access": "yes",
    "addr:country": "PT",
    "authentication:membership_card": "yes",
    "authentication:none": "no",
    "capacity": "2",
    "email": "ajuda@powerdot.pt",
    "fee": "yes",
    "maxstay": "unlimited",
    "motorcar": "yes",
    "name": "VBP-00002",
    "network": "Mobi.E",
    "opening_hours": "24/7",
    "operator": "Powerdot",
    "parking:fee": "no",
    "payment:app": "yes",
    "payment:cards": "no",
    "payment:cash": "no",
    "payment:membership_card": "yes",
    "phone": "+351 800 180 292",
    "planned:amenity": "charging_station",
    "ref": "VBP-00002",
    "socket:type2": "2",
    "socket:type2:current": "32",
    "socket:type2:output": "22kW",
    "socket:type2:voltage": "400",
    "website": "https://www.mobie.pt"
  }
},
{
  "type": "node",
  "id": 8273804468,
  "lat": 37.9554932,
  "lon": -8.8659785,
  "tags": {
    "access": "yes",
    "addr:country": "PT",
    "authentication:membership_card": "yes",
    "authentication:none": "no",
    "capacity": "2",
    "email": "ajuda@powerdot.pt",
    "fee": "yes",
    "maxstay": "unlimited",
    "motorcar": "yes",
    "name": "SNS-00002",
    "network": "Mobi.E",
    "opening_hours": "24/7",
    "operator": "Powerdot",
    "parking:fee": "no",
    "payment:app": "yes",
    "payment:cards": "no",
    "payment:cash": "no",
    "payment:membership_card": "yes",
    "phone": "+351 800 180 292",
    "planned:amenity": "charging_station",
    "ref": "SNS-00002",
    "socket:type2": "2",
    "socket:type2:current": "32",
    "socket:type2:output": "22kW",
    "socket:type2:voltage": "400",
    "website": "https://www.mobie.pt"
  }
},
{
  "type": "node",
  "id": 8289565051,
  "lat": 38.9981436,
  "lon": -9.0849450,
  "tags": {
    "access": "yes",
    "addr:country": "PT",
    "authentication:membership_card": "yes",
    "authentication:none": "no",
    "capacity": "2",
    "email": "suporte@evpower.pt",
    "fee": "yes",
    "maxstay": "unlimited",
    "motorcar": "yes",
    "name": "ARV-00004",
    "network": "Mobi.E",
    "opening_hours": "24/7",
    "operator": "EV Power",
    "parking:fee": "no",
    "payment:app": "yes",
    "payment:cards": "no",
    "payment:cash": "no",
    "payment:membership_card": "yes",
    "phone": "+351 800 254 565",
    "planned:amenity": "charging_station",
    "ref": "ARV-00004",
    "socket:type2": "2",
    "socket:type2:current": "32",
    "socket:type2:output": "22kW",
    "socket:type2:voltage": "400",
    "website": "https://www.mobie.pt"
  }
},
{
  "type": "node",
  "id": 8309468833,
  "lat": 40.7254070,
  "lon": -6.9055939,
  "tags": {
    "access": "yes",
    "addr:country": "PT",
    "authentication:membership_card": "yes",
    "authentication:none": "no",
    "capacity": "2",
    "email": "mobilidade.electricacrc@galp.com",
    "fee": "yes",
    "maxstay": "unlimited",
    "motorcar": "yes",
    "name": "ALD-00001",
    "network": "Mobi.E",
    "opening_hours": "24/7",
    "operator": "Galp Power",
    "parking:fee": "no",
    "payment:app": "yes",
    "payment:cards": "no",
    "payment:cash": "no",
    "payment:membership_card": "yes",
    "phone": "+351 800 249 249",
    "planned:amenity": "charging_station",
    "ref": "ALD-00001",
    "socket:type2": "2",
    "socket:type2:current": "32",
    "socket:type2:output": "22kW",
    "socket:type2:voltage": "400",
    "website": "https://www.mobie.pt"
  }
},
{
  "type": "node",
  "id": 8313052209,
  "lat": 41.5309637,
  "lon": -8.7805572,
  "tags": {
    "access": "yes",
    "addr:country": "PT",
    "authentication:membership_card": "yes",
    "authentication:none": "no",
    "capacity": "2",
    "email": "mobilidade-eletrica@edp.pt",
    "fee": "yes",
    "maxstay": "unlimited",
    "motorcar": "yes",
    "name": "EPS-00001",
    "network": "Mobi.E",
    "opening_hours": "24/7",
    "operator": "EDP Comercial",
    "parking:fee": "no",
    "payment:app": "yes",
    "payment:cards": "no",
    "payment:cash": "no",
    "payment:membership_card": "yes",
    "phone": "+351 800 222 222",
    "planned:amenity": "charging_station",
    "ref": "EPS-00001",
    "socket:type2": "2",
    "socket:type2:current": "32",
    "socket:type2:output": "22kW",
    "socket:type2:voltage": "400",
    "website": "https://www.mobie.pt"
  }
},
{
  "type": "node",
  "id": 8385348937,
  "lat": 41.1402564,
  "lon": -8.6341676,
  "tags": {
    "access": "yes",
    "addr:city": "Vila Nova de Gaia",
    "addr:country": "PT",
    "addr:street": "Via 8",
    "authentication:membership_card": "yes",
    "authentication:none": "no",
    "capacity": "2",
    "email": "mobilidade.electricacrc@galp.com",
    "fee": "yes",
    "maxstay": "unlimited",
    "motorcar": "yes",
    "name": "VNG-00064 - Galp",
    "network": "Mobi.E",
    "opening_hours": "24/7",
    "operator": "Galp Geste",
    "parking:fee": "no",
    "payment:app": "yes",
    "payment:cards": "no",
    "payment:cash": "no",
    "payment:membership_card": "yes",
    "phone": "+351 800 249 249",
    "planned:amenity": "charging_station",
    "ref": "VNG-00064",
    "socket:chademo": "1",
    "socket:chademo:current": "120",
    "socket:chademo:output": "50kW",
    "socket:chademo:voltage": "500",
    "socket:type2_cable": "1",
    "socket:type2_cable:current": "63",
    "socket:type2_cable:output": "43kW",
    "socket:type2_cable:voltage": "400",
    "socket:type2_combo": "1",
    "socket:type2_combo:current": "125",
    "socket:type2_combo:output": "50kW",
    "socket:type2_combo:voltage": "500",
    "website": "https://www.mobie.pt"
  }
},
{
  "type": "node",
  "id": 8385464352,
  "lat": 38.6959231,
  "lon": -9.3294793,
  "tags": {
    "access": "yes",
    "addr:city": "Oeiras",
    "addr:country": "PT",
    "authentication:membership_card": "yes",
    "authentication:none": "no",
    "capacity": "1",
    "email": "suporte@mobiletric.com",
    "fee": "yes",
    "maxstay": "unlimited",
    "motorcar": "yes",
    "name": "OER-XXXXX - Quinta do Marquês",
    "network": "Mobi.E",
    "opening_hours": "24/7",
    "operator": "Mobiletric",
    "parking:fee": "no",
    "payment:app": "yes",
    "payment:cards": "no",
    "payment:cash": "no",
    "payment:membership_card": "yes",
    "phone": "+351 800 210 204",
    "planned:amenity": "charging_station",
    "ref": "OER-XXXXX",
    "socket:chademo": "1",
    "socket:chademo:current": "120",
    "socket:chademo:output": "50kW",
    "socket:chademo:voltage": "500",
    "socket:type2_combo": "1",
    "socket:type2_combo:current": "350",
    "socket:type2_combo:output": "160kW",
    "socket:type2_combo:voltage": "920",
    "website": "https://www.mobie.pt"
  }
},
{
  "type": "node",
  "id": 8385485018,
  "lat": 38.6851685,
  "lon": -9.3136972,
  "tags": {
    "access": "yes",
    "addr:city": "Oeiras",
    "addr:country": "PT",
    "authentication:membership_card": "yes",
    "authentication:none": "no",
    "capacity": "1",
    "email": "mobilidade.electricacrc@galp.com",
    "fee": "yes",
    "maxstay": "unlimited",
    "motorcar": "yes",
    "name": "OER-00083 - Jardim de Oeiras",
    "network": "Mobi.E",
    "opening_hours": "24/7",
    "operator": "Galp Power",
    "parking:fee": "no",
    "payment:app": "yes",
    "payment:cards": "no",
    "payment:cash": "no",
    "payment:membership_card": "yes",
    "phone": "+351 800 249 249",
    "planned:amenity": "charging_station",
    "ref": "OER-00083",
    "socket:chademo": "1",
    "socket:chademo:current": "120",
    "socket:chademo:output": "50kW",
    "socket:chademo:voltage": "500",
    "socket:type2_combo": "1",
    "socket:type2_combo:current": "350",
    "socket:type2_combo:output": "160kW",
    "socket:type2_combo:voltage": "920",
    "website": "https://www.mobie.pt"
  }
},
{
  "type": "node",
  "id": 8400118013,
  "lat": 38.6608281,
  "lon": -9.0784688,
  "tags": {
    "access": "yes",
    "addr:country": "PT",
    "authentication:membership_card": "yes",
    "authentication:none": "no",
    "capacity": "2",
    "email": "mobilidade-eletrica@edp.pt",
    "fee": "yes",
    "maxstay": "unlimited",
    "motorcar": "yes",
    "name": "BRR-XXXXX",
    "network": "Mobi.E",
    "opening_hours": "24/7",
    "operator": "EDP Comercial",
    "parking:fee": "no",
    "payment:app": "yes",
    "payment:cards": "no",
    "payment:cash": "no",
    "payment:membership_card": "yes",
    "phone": "+351 800 222 222",
    "planned:amenity": "charging_station",
    "ref": "BRR-XXXXX",
    "socket:type2": "2",
    "socket:type2:current": "32",
    "socket:type2:output": "22kW",
    "socket:type2:voltage": "400",
    "website": "https://www.mobie.pt"
  }
},
{
  "type": "node",
  "id": 8757747706,
  "lat": 37.7732298,
  "lon": -25.3144647,
  "tags": {
    "access": "yes",
    "addr:country": "PT",
    "authentication:membership_card": "yes",
    "authentication:none": "no",
    "capacity": "2",
    "email": "segma@segma.pt",
    "fee": "yes",
    "maxstay": "unlimited",
    "motorcar": "yes",
    "name": "PVC-00002",
    "network": "Mobi.E",
    "opening_hours": "24/7",
    "operator": "SEGMA",
    "parking:fee": "no",
    "payment:app": "yes",
    "payment:cards": "no",
    "payment:cash": "no",
    "payment:membership_card": "yes",
    "planned:amenity": "charging_station",
    "ref": "PVC-00002",
    "socket:type2": "2",
    "socket:type2:current": "32",
    "socket:type2:output": "22kW",
    "socket:type2:voltage": "400",
    "website": "https://www.mobie.pt"
  }
},
{
  "type": "node",
  "id": 8830368191,
  "lat": 40.9214700,
  "lon": -8.5669135,
  "tags": {
    "access": "yes",
    "addr:country": "PT",
    "authentication:membership_card": "yes",
    "authentication:none": "no",
    "capacity": "2",
    "email": "apoio.cliente@kmlowcost.com",
    "fee": "yes",
    "maxstay": "unlimited",
    "motorcar": "yes",
    "name": "VFR-00009 - Pingo Doce",
    "network": "Mobi.E",
    "opening_hours": "24/7",
    "operator": "Atlante",
    "parking:fee": "no",
    "payment:app": "yes",
    "payment:cards": "no",
    "payment:cash": "no",
    "payment:membership_card": "yes",
    "phone": "+351 800 296 929",
    "planned:amenity": "charging_station",
    "ref": "VFR-00009",
    "socket:type2": "2",
    "socket:type2:current": "32",
    "socket:type2:output": "22kW",
    "socket:type2:voltage": "400",
    "website": "https://www.mobie.pt"
  }
},
{
  "type": "node",
  "id": 8851234254,
  "lat": 38.6958693,
  "lon": -9.2929526,
  "tags": {
    "access": "yes",
    "addr:country": "PT",
    "authentication:membership_card": "yes",
    "authentication:none": "no",
    "capacity": "2",
    "email": "apoio.cliente@kmlowcost.com",
    "fee": "yes",
    "maxstay": "unlimited",
    "motorcar": "yes",
    "name": "OER-XXXXX - Pingo Doce",
    "network": "Mobi.E",
    "opening_hours": "24/7",
    "operator": "Atlante",
    "parking:fee": "no",
    "payment:app": "yes",
    "payment:cards": "no",
    "payment:cash": "no",
    "payment:membership_card": "yes",
    "phone": "+351 800 296 929",
    "planned:amenity": "charging_station",
    "ref": "OER-XXXXX",
    "socket:chademo": "1",
    "socket:chademo:current": "120",
    "socket:chademo:output": "50kW",
    "socket:chademo:voltage": "500",
    "socket:type2_cable": "1",
    "socket:type2_cable:current": "63",
    "socket:type2_cable:output": "43kW",
    "socket:type2_cable:voltage": "400",
    "socket:type2_combo": "1",
    "socket:type2_combo:current": "125",
    "socket:type2_combo:output": "50kW",
    "socket:type2_combo:voltage": "500",
    "website": "https://www.mobie.pt"
  }
},
{
  "type": "node",
  "id": 8851234255,
  "lat": 38.6955015,
  "lon": -9.2151760,
  "tags": {
    "access": "yes",
    "addr:country": "PT",
    "authentication:membership_card": "yes",
    "authentication:none": "no",
    "capacity": "2",
    "email": "apoio.cliente@kmlowcost.com",
    "fee": "yes",
    "maxstay": "unlimited",
    "motorcar": "yes",
    "name": "LSB-00330 - Pingo Doce",
    "network": "Mobi.E",
    "opening_hours": "24/7",
    "operator": "Atlante",
    "parking:fee": "no",
    "payment:app": "yes",
    "payment:cards": "no",
    "payment:cash": "no",
    "payment:membership_card": "yes",
    "phone": "+351 800 296 929",
    "planned:amenity": "charging_station",
    "ref": "LSB-00330",
    "socket:chademo": "1",
    "socket:chademo:current": "120",
    "socket:chademo:output": "50kW",
    "socket:chademo:voltage": "500",
    "socket:type2_cable": "1",
    "socket:type2_cable:current": "63",
    "socket:type2_cable:output": "43kW",
    "socket:type2_cable:voltage": "400",
    "socket:type2_combo": "1",
    "socket:type2_combo:current": "125",
    "socket:type2_combo:output": "50kW",
    "socket:type2_combo:voltage": "500",
    "website": "https://www.mobie.pt"
  }
},
{
  "type": "node",
  "id": 8888875830,
  "lat": 38.7735433,
  "lon": -9.1597271,
  "tags": {
    "access": "yes",
    "addr:country": "PT",
    "authentication:membership_card": "yes",
    "authentication:none": "no",
    "capacity": "8",
    "email": "opc@emel.pt",
    "fee": "yes",
    "maxstay": "unlimited",
    "motorcar": "yes",
    "name": "LSB-00422/423/424/425 - Parque Estacionamento Lumiar",
    "network": "Mobi.E",
    "opening_hours": "24/7",
    "operator": "EMEL",
    "parking:fee": "yes",
    "payment:app": "yes",
    "payment:cards": "no",
    "payment:cash": "no",
    "payment:membership_card": "yes",
    "phone": "+351 800 910 255",
    "planned:amenity": "charging_station",
    "ref": "LSB-00422;LSB-00423;LSB-00424;LSB-00425",
    "socket:type2": "8",
    "socket:type2:current": "32",
    "socket:type2:output": "7.4kW",
    "socket:type2:voltage": "230",
    "website": "https://www.mobie.pt"
  }
},
{
  "type": "node",
  "id": 8888875831,
  "lat": 38.7734372,
  "lon": -9.1596644,
  "tags": {
    "access": "yes",
    "addr:country": "PT",
    "authentication:membership_card": "yes",
    "authentication:none": "no",
    "capacity": "8",
    "email": "opc@emel.pt",
    "fee": "yes",
    "maxstay": "unlimited",
    "motorcar": "yes",
    "name": "LSB-00418/419/420/421 - Parque Estacionamento Lumiar",
    "network": "Mobi.E",
    "opening_hours": "24/7",
    "operator": "EMEL",
    "parking:fee": "yes",
    "payment:app": "yes",
    "payment:cards": "no",
    "payment:cash": "no",
    "payment:membership_card": "yes",
    "phone": "+351 800 910 255",
    "planned:amenity": "charging_station",
    "ref": "LSB-00418;LSB-00419;LSB-00420;LSB-00421",
    "socket:type2": "8",
    "socket:type2:current": "32",
    "socket:type2:output": "22kW",
    "socket:type2:voltage": "400",
    "website": "https://www.mobie.pt"
  }
},
{
  "type": "node",
  "id": 8958089017,
  "lat": 37.0863720,
  "lon": -8.2418890,
  "tags": {
    "access": "yes",
    "addr:country": "PT",
    "authentication:membership_card": "yes",
    "authentication:none": "no",
    "capacity": "2",
    "fee": "yes",
    "maxstay": "unlimited",
    "motorcar": "yes",
    "name": "ABF-00018",
    "network": "Mobi.E",
    "opening_hours": "24/7",
    "operator": "CME",
    "parking:fee": "no",
    "payment:app": "yes",
    "payment:cards": "no",
    "payment:cash": "no",
    "payment:membership_card": "yes",
    "planned:amenity": "charging_station",
    "ref": "ABF-00018",
    "socket:type2": "2",
    "socket:type2:current": "32",
    "socket:type2:output": "22kW",
    "socket:type2:voltage": "400",
    "website": "https://www.mobie.pt"
  }
},
{
  "type": "node",
  "id": 8958089021,
  "lat": 38.0397937,
  "lon": -8.7314635,
  "tags": {
    "access": "yes",
    "addr:country": "PT",
    "authentication:membership_card": "yes",
    "authentication:none": "no",
    "capacity": "1",
    "email": "geral@eplug.pt",
    "fee": "yes",
    "maxstay": "unlimited",
    "motorcar": "yes",
    "name": "STC-00006 - Hospital do Litoral Alentejano",
    "network": "Mobi.E",
    "opening_hours": "24/7",
    "operator": "E-Plug",
    "parking:fee": "no",
    "payment:app": "yes",
    "payment:cards": "no",
    "payment:cash": "no",
    "payment:membership_card": "yes",
    "phone": "+351 211 648 577",
    "planned:amenity": "charging_station",
    "ref": "STC-00006",
    "socket:chademo": "1",
    "socket:chademo:current": "120",
    "socket:chademo:output": "50kW",
    "socket:chademo:voltage": "500",
    "socket:type2_combo": "1",
    "socket:type2_combo:current": "125",
    "socket:type2_combo:output": "50kW",
    "socket:type2_combo:voltage": "500",
    "website": "https://www.mobie.pt"
  }
},
{
  "type": "node",
  "id": 9108791145,
  "lat": 37.0885230,
  "lon": -8.2328210,
  "tags": {
    "access": "yes",
    "addr:country": "PT",
    "authentication:membership_card": "yes",
    "authentication:none": "no",
    "capacity": "2",
    "fee": "yes",
    "maxstay": "unlimited",
    "motorcar": "yes",
    "name": "ABF-00028",
    "network": "Mobi.E",
    "opening_hours": "24/7",
    "operator": "Atlante",
    "parking:fee": "no",
    "payment:app": "yes",
    "payment:cards": "no",
    "payment:cash": "no",
    "payment:membership_card": "yes",
    "planned:amenity": "charging_station",
    "ref": "ABF-00028",
    "socket:type2": "2",
    "socket:type2:current": "32",
    "socket:type2:output": "22kW",
    "socket:type2:voltage": "400",
    "website": "https://www.mobie.pt"
  }
},
{
  "type": "node",
  "id": 9289779711,
  "lat": 41.1526070,
  "lon": -8.6535680,
  "tags": {
    "access": "yes",
    "addr:country": "PT",
    "authentication:membership_card": "yes",
    "authentication:none": "no",
    "capacity": "6",
    "fee": "yes",
    "maxstay": "unlimited",
    "motorcar": "yes",
    "name": "PRT-XXXXX - Mercadona",
    "network": "Mobi.E",
    "opening_hours": "09:00-21:30",
    "operator": "Iberdrola",
    "operator:wikidata": "Q1437502",
    "parking:fee": "no",
    "payment:app": "yes",
    "payment:cards": "no",
    "payment:cash": "no",
    "payment:membership_card": "yes",
    "planned:amenity": "charging_station",
    "ref": "PRT-XXXXX",
    "socket:type2": "6",
    "socket:type2:current": "32",
    "socket:type2:output": "22kW",
    "socket:type2:voltage": "400",
    "website": "https://www.mobie.pt/"
  }
},
{
  "type": "node",
  "id": 9426410190,
  "lat": 39.9086670,
  "lon": -8.6329610,
  "tags": {
    "access": "yes",
    "addr:country": "PT",
    "authentication:membership_card": "yes",
    "authentication:none": "no",
    "capacity": "2",
    "email": "mobilidade-eletrica@edp.pt",
    "fee": "yes",
    "maxstay": "unlimited",
    "motorcar": "yes",
    "name": "PBL-XXXXX - BP",
    "network": "Mobi.E",
    "opening_hours": "24/7",
    "operator": "EDP Comercial",
    "parking:fee": "no",
    "payment:app": "yes",
    "payment:cards": "no",
    "payment:cash": "no",
    "payment:membership_card": "yes",
    "phone": "+351 800 222 222",
    "planned:amenity": "charging_station",
    "ref": "PBL-XXXXX",
    "socket:chademo": "1",
    "socket:chademo:current": "120",
    "socket:chademo:output": "50kW",
    "socket:chademo:voltage": "500",
    "socket:type2_cable": "1",
    "socket:type2_cable:current": "63",
    "socket:type2_cable:output": "43kW",
    "socket:type2_cable:voltage": "400",
    "socket:type2_combo": "1",
    "socket:type2_combo:current": "125",
    "socket:type2_combo:output": "50kW",
    "socket:type2_combo:voltage": "500",
    "website": "https://www.mobie.pt/"
  }
},
{
  "type": "node",
  "id": 9455267553,
  "lat": 40.9214853,
  "lon": -8.5669126,
  "tags": {
    "access": "yes",
    "addr:city": "Santa Maria da Feira",
    "addr:country": "PT",
    "authentication:membership_card": "yes",
    "authentication:none": "no",
    "capacity": "2",
    "email": "apoio.cliente@kmlowcost.com",
    "fee": "yes",
    "maxstay": "unlimited",
    "motorcar": "yes",
    "name": "VFR-00012 - Pingo Doce",
    "network": "Mobi.E",
    "opening_hours": "24/7",
    "operator": "Atlante",
    "parking:fee": "no",
    "payment:app": "yes",
    "payment:cards": "no",
    "payment:cash": "no",
    "payment:membership_card": "yes",
    "phone": "+351 800 296 929",
    "planned:amenity": "charging_station",
    "ref": "VFR-00012",
    "socket:chademo": "1",
    "socket:chademo:current": "120",
    "socket:chademo:output": "50kW",
    "socket:chademo:voltage": "500",
    "socket:type2_combo": "1",
    "socket:type2_combo:current": "125",
    "socket:type2_combo:output": "50kW",
    "socket:type2_combo:voltage": "500",
    "website": "https://www.mobie.pt"
  }
},
{
  "type": "node",
  "id": 9455267556,
  "lat": 42.1175880,
  "lon": -8.2712272,
  "tags": {
    "access": "yes",
    "addr:country": "PT",
    "authentication:membership_card": "yes",
    "authentication:none": "no",
    "capacity": "2",
    "fee": "yes",
    "maxstay": "unlimited",
    "motorcar": "yes",
    "name": "MLG-00003",
    "network": "Mobi.E",
    "opening_hours": "24/7",
    "operator": "Cargga Inteligente",
    "parking:fee": "no",
    "payment:app": "yes",
    "payment:cards": "no",
    "payment:cash": "no",
    "payment:membership_card": "yes",
    "planned:amenity": "charging_station",
    "ref": "MLG-00003",
    "socket:type2": "2",
    "socket:type2:current": "32",
    "socket:type2:output": "22kW",
    "socket:type2:voltage": "400",
    "website": "https://www.mobie.pt/"
  }
},
{
  "type": "node",
  "id": 9455582847,
  "lat": 41.5512247,
  "lon": -8.4058580,
  "tags": {
    "access": "yes",
    "addr:country": "PT",
    "authentication:membership_card": "yes",
    "authentication:none": "no",
    "capacity": "2",
    "email": "manutencaors@repsol.com",
    "fee": "yes",
    "maxstay": "unlimited",
    "motorcar": "yes",
    "name": "BRG-00046 - Repsol",
    "network": "Mobi.E",
    "opening_hours": "24/7",
    "operator": "Repsol",
    "parking:fee": "no",
    "payment:app": "yes",
    "payment:cards": "no",
    "payment:cash": "no",
    "payment:membership_card": "yes",
    "phone": "+351 800 226 624",
    "planned:amenity": "charging_station",
    "ref": "BRG-00046",
    "socket:chademo": "1",
    "socket:chademo:current": "120",
    "socket:chademo:output": "50kW",
    "socket:chademo:voltage": "500",
    "socket:type2_cable": "1",
    "socket:type2_cable:current": "63",
    "socket:type2_cable:output": "43kW",
    "socket:type2_cable:voltage": "400",
    "socket:type2_combo": "1",
    "socket:type2_combo:current": "125",
    "socket:type2_combo:output": "50kW",
    "socket:type2_combo:voltage": "500",
    "website": "https://www.mobie.pt/"
  }
},
{
  "type": "node",
  "id": 9456735230,
  "lat": 38.9179368,
  "lon": -8.8697581,
  "tags": {
    "access": "yes",
    "addr:country": "PT",
    "authentication:membership_card": "yes",
    "authentication:none": "no",
    "capacity": "1",
    "email": "electric@prioenergy.com",
    "fee": "yes",
    "maxstay": "unlimited",
    "motorcar": "yes",
    "name": "BNV-00004 - Prio",
    "network": "Mobi.E",
    "opening_hours": "24/7",
    "operator": "Prio.E",
    "parking:fee": "no",
    "payment:app": "yes",
    "payment:cards": "no",
    "payment:cash": "no",
    "payment:membership_card": "yes",
    "phone": "+351 800 450 111",
    "planned:amenity": "charging_station",
    "ref": "BNV-00004",
    "socket:chademo": "1",
    "socket:chademo:current": "120",
    "socket:chademo:output": "50kW",
    "socket:chademo:voltage": "500",
    "socket:type2_combo": "1",
    "socket:type2_combo:current": "125",
    "socket:type2_combo:output": "50kW",
    "socket:type2_combo:voltage": "500",
    "website": "https://www.mobie.pt/"
  }
},
{
  "type": "node",
  "id": 9457675704,
  "lat": 38.6917362,
  "lon": -9.4199422,
  "tags": {
    "access": "yes",
    "addr:country": "PT",
    "authentication:membership_card": "yes",
    "authentication:none": "no",
    "capacity": "2",
    "fee": "yes",
    "maxstay": "unlimited",
    "motorcar": "yes",
    "name": "CSC-00079 - Marina de Cascais",
    "network": "Mobi.E",
    "opening_hours": "24/7",
    "operator": "Iberdrola",
    "operator:wikidata": "Q1437502",
    "parking:fee": "yes",
    "payment:app": "yes",
    "payment:cards": "no",
    "payment:cash": "no",
    "payment:membership_card": "yes",
    "planned:amenity": "charging_station",
    "ref": "CSC-00079",
    "socket:type2": "2",
    "socket:type2:current": "32",
    "socket:type2:output": "22kW",
    "socket:type2:voltage": "400",
    "website": "https://www.mobie.pt/"
  }
},
{
  "type": "node",
  "id": 9458196521,
  "lat": 38.7096377,
  "lon": -9.3353923,
  "tags": {
    "access": "yes",
    "addr:country": "PT",
    "authentication:membership_card": "yes",
    "authentication:none": "no",
    "capacity": "2",
    "email": "geral@eplug.pt",
    "fee": "yes",
    "maxstay": "unlimited",
    "motorcar": "yes",
    "name": "CSC-00084 - Intermarché",
    "network": "Mobi.E",
    "opening_hours": "24/7",
    "operator": "E-Plug",
    "parking:fee": "no",
    "payment:app": "yes",
    "payment:cards": "no",
    "payment:cash": "no",
    "payment:membership_card": "yes",
    "phone": "+351 211 648 577",
    "planned:amenity": "charging_station",
    "ref": "CSC-00084",
    "socket:type2": "2",
    "socket:type2:current": "32",
    "socket:type2:output": "22kW",
    "socket:type2:voltage": "400",
    "website": "https://www.mobie.pt/"
  }
},
{
  "type": "node",
  "id": 9458753224,
  "lat": 37.0403106,
  "lon": -7.8967103,
  "tags": {
    "access": "yes",
    "addr:country": "PT",
    "authentication:membership_card": "yes",
    "authentication:none": "no",
    "capacity": "1",
    "fee": "yes",
    "maxstay": "unlimited",
    "motorcar": "yes",
    "name": "FAR-00027 - Rolear",
    "network": "Mobi.E",
    "opening_hours": "24/7",
    "operator": "Rolear",
    "parking:fee": "no",
    "payment:app": "yes",
    "payment:cards": "no",
    "payment:cash": "no",
    "payment:membership_card": "yes",
    "planned:amenity": "charging_station",
    "ref": "FAR-00027",
    "socket:type2": "1",
    "socket:type2:current": "32",
    "socket:type2:output": "22kW",
    "socket:type2:voltage": "400",
    "website": "https://www.mobie.pt/"
  }
},
{
  "type": "node",
  "id": 9464421026,
  "lat": 41.4967413,
  "lon": -6.2718453,
  "tags": {
    "access": "yes",
    "addr:country": "PT",
    "capacity": "1",
    "motorcar": "yes",
    "name": "Hotel Parador Santa Catarina",
    "no:network": "yes",
    "operator": "Hotel Parador Santa Catarina",
    "planned:amenity": "charging_station",
    "socket:chademo": "1",
    "socket:chademo:current": "120",
    "socket:chademo:output": "50kW",
    "socket:chademo:voltage": "500",
    "socket:type2_combo": "1",
    "socket:type2_combo:current": "350",
    "socket:type2_combo:output": "160kW",
    "socket:type2_combo:voltage": "920"
  }
},
{
  "type": "node",
  "id": 9572465510,
  "lat": 40.4052055,
  "lon": -8.4536813,
  "tags": {
    "access": "yes",
    "addr:country": "PT",
    "authentication:membership_card": "yes",
    "authentication:none": "no",
    "capacity": "1",
    "fee": "yes",
    "maxstay": "unlimited",
    "motorcar": "yes",
    "name": "AND-XXXXX - Agriloja",
    "network": "Mobi.E",
    "opening_hours": "24/7",
    "operator": "unknown",
    "parking:fee": "no",
    "payment:app": "yes",
    "payment:cards": "no",
    "payment:cash": "no",
    "payment:membership_card": "yes",
    "planned:amenity": "charging_station",
    "ref": "AND-XXXXX",
    "socket:type2_combo": "1",
    "socket:type2_combo:current": "250",
    "socket:type2_combo:output": "180kW",
    "socket:type2_combo:voltage": "920",
    "website": "https://www.mobie.pt/"
  }
},
{
  "type": "node",
  "id": 9572465512,
  "lat": 39.4681007,
  "lon": -8.5246620,
  "tags": {
    "access": "yes",
    "addr:country": "PT",
    "authentication:membership_card": "yes",
    "authentication:none": "no",
    "capacity": "1",
    "fee": "yes",
    "maxstay": "unlimited",
    "motorcar": "yes",
    "name": "TNV-XXXXX - Agriloja",
    "network": "Mobi.E",
    "opening_hours": "24/7",
    "operator": "unknown",
    "parking:fee": "no",
    "payment:app": "yes",
    "payment:cards": "no",
    "payment:cash": "no",
    "payment:membership_card": "yes",
    "planned:amenity": "charging_station",
    "ref": "TNV-XXXXX",
    "socket:type2_combo": "1",
    "socket:type2_combo:current": "250",
    "socket:type2_combo:output": "180kW",
    "socket:type2_combo:voltage": "920",
    "website": "https://www.mobie.pt/"
  }
},
{
  "type": "node",
  "id": 9572465513,
  "lat": 39.2769535,
  "lon": -7.4328078,
  "tags": {
    "access": "yes",
    "addr:country": "PT",
    "authentication:membership_card": "yes",
    "authentication:none": "no",
    "capacity": "1",
    "fee": "yes",
    "maxstay": "unlimited",
    "motorcar": "yes",
    "name": "PTG-XXXXX - Agriloja",
    "network": "Mobi.E",
    "opening_hours": "24/7",
    "operator": "unknown",
    "parking:fee": "no",
    "payment:app": "yes",
    "payment:cards": "no",
    "payment:cash": "no",
    "payment:membership_card": "yes",
    "planned:amenity": "charging_station",
    "ref": "PTG-XXXXX",
    "socket:type2_combo": "1",
    "socket:type2_combo:current": "200",
    "socket:type2_combo:output": "80kW",
    "socket:type2_combo:voltage": "920",
    "website": "https://www.mobie.pt/"
  }
},
{
  "type": "node",
  "id": 9572465514,
  "lat": 38.8673294,
  "lon": -9.3744399,
  "tags": {
    "access": "yes",
    "addr:country": "PT",
    "authentication:membership_card": "yes",
    "authentication:none": "no",
    "capacity": "1",
    "fee": "yes",
    "maxstay": "unlimited",
    "motorcar": "yes",
    "name": "SNT-XXXXX - The Bike Shop",
    "network": "Mobi.E",
    "opening_hours": "24/7",
    "operator": "unknown",
    "parking:fee": "no",
    "payment:app": "yes",
    "payment:cards": "no",
    "payment:cash": "no",
    "payment:membership_card": "yes",
    "planned:amenity": "charging_station",
    "ref": "SNT-XXXXX",
    "socket:type2_combo": "1",
    "socket:type2_combo:current": "200",
    "socket:type2_combo:output": "80kW",
    "socket:type2_combo:voltage": "920",
    "website": "https://www.mobie.pt/"
  }
},
{
  "type": "node",
  "id": 9572688517,
  "lat": 40.5939964,
  "lon": -8.4616333,
  "tags": {
    "access": "yes",
    "addr:country": "PT",
    "authentication:membership_card": "yes",
    "authentication:none": "no",
    "capacity": "1",
    "fee": "yes",
    "maxstay": "unlimited",
    "motorcar": "yes",
    "name": "Auto Evolution",
    "no:network": "yes",
    "opening_hours": "24/7",
    "operator": "unknown",
    "parking:fee": "no",
    "payment:app": "yes",
    "payment:cards": "no",
    "payment:cash": "no",
    "payment:membership_card": "yes",
    "planned:amenity": "charging_station",
    "socket:type2_combo": "1",
    "socket:type2_combo:current": "200",
    "socket:type2_combo:output": "80kW",
    "socket:type2_combo:voltage": "920"
  }
},
{
  "type": "node",
  "id": 9572688518,
  "lat": 38.4380800,
  "lon": -9.1159600,
  "tags": {
    "access": "yes",
    "addr:country": "PT",
    "authentication:membership_card": "yes",
    "authentication:none": "no",
    "capacity": "2",
    "construction:amenity": "charging_station",
    "fee": "yes",
    "maxstay": "unlimited",
    "motorcar": "yes",
    "name": "SSB-00008 - Porto de Sesimbra",
    "network": "Mobi.E",
    "opening_hours": "24/7",
    "operator": "EV Power",
    "parking:fee": "no",
    "payment:app": "yes",
    "payment:cards": "no",
    "payment:cash": "no",
    "payment:membership_card": "yes",
    "planned:amenity": "charging_station",
    "ref": "SSB-00008",
    "socket:chademo": "1",
    "socket:chademo:current": "125",
    "socket:chademo:output": "60kW",
    "socket:chademo:voltage": "500",
    "socket:type2_cable": "1",
    "socket:type2_cable:current": "32",
    "socket:type2_cable:output": "22kW",
    "socket:type2_cable:voltage": "400",
    "socket:type2_combo": "1",
    "socket:type2_combo:current": "125",
    "socket:type2_combo:output": "60kW",
    "socket:type2_combo:voltage": "500",
    "website": "https://www.mobie.pt"
  }
},
{
  "type": "node",
  "id": 9572688521,
  "lat": 38.8302320,
  "lon": -9.0867750,
  "tags": {
    "access": "yes",
    "addr:country": "PT",
    "authentication:membership_card": "yes",
    "authentication:none": "no",
    "capacity": "1",
    "fee": "yes",
    "maxstay": "unlimited",
    "motorcar": "yes",
    "name": "LRS-XXXXX - ENAT",
    "network": "Mobi.E",
    "opening_hours": "24/7",
    "operator": "unknown",
    "parking:fee": "no",
    "payment:app": "yes",
    "payment:cards": "no",
    "payment:cash": "no",
    "payment:membership_card": "yes",
    "planned:amenity": "charging_station",
    "ref": "LRS-XXXXX",
    "socket:type2_combo": "1",
    "socket:type2_combo:current": "250",
    "socket:type2_combo:output": "180kW",
    "socket:type2_combo:voltage": "920",
    "website": "https://www.mobie.pt/"
  }
},
{
  "type": "node",
  "id": 9631176941,
  "lat": 37.9661068,
  "lon": -8.8581549,
  "tags": {
    "access": "yes",
    "addr:country": "PT",
    "authentication:membership_card": "yes",
    "authentication:none": "no",
    "capacity": "2",
    "email": "mobilidade-eletrica@edp.pt",
    "fee": "yes",
    "maxstay": "unlimited",
    "motorcar": "yes",
    "name": "SNS-XXXXX - Burger King",
    "network": "Mobi.E",
    "opening_hours": "24/7",
    "operator": "EDP Comercial",
    "parking:fee": "no",
    "payment:app": "yes",
    "payment:cards": "no",
    "payment:cash": "no",
    "payment:membership_card": "yes",
    "phone": "+351 800 222 222",
    "planned:amenity": "charging_station",
    "ref": "SNS-XXXXX",
    "socket:chademo": "1",
    "socket:chademo:current": "125",
    "socket:chademo:output": "30kW",
    "socket:chademo:voltage": "500",
    "socket:type2_cable": "1",
    "socket:type2_cable:current": "32",
    "socket:type2_cable:output": "22kW",
    "socket:type2_cable:voltage": "400",
    "socket:type2_combo": "1",
    "socket:type2_combo:current": "200",
    "socket:type2_combo:output": "60kW",
    "socket:type2_combo:voltage": "950",
    "website": "https://www.mobie.pt/"
  }
},
{
  "type": "node",
  "id": 9848304988,
  "lat": 38.7816816,
  "lon": -9.3297358,
  "tags": {
    "access": "yes",
    "addr:country": "PT",
    "authentication:membership_card": "yes",
    "authentication:none": "no",
    "capacity": "2",
    "fee": "yes",
    "maxstay": "unlimited",
    "motorcar": "yes",
    "name": "SNT-00077 - Lidl",
    "network": "Mobi.E",
    "opening_hours": "24/7",
    "operator": "Atlante",
    "parking:fee": "no",
    "payment:app": "yes",
    "payment:cards": "no",
    "payment:cash": "no",
    "payment:membership_card": "yes",
    "planned:amenity": "charging_station",
    "ref": "SNT-00077",
    "socket:chademo": "1",
    "socket:chademo:current": "120",
    "socket:chademo:output": "50kW",
    "socket:chademo:voltage": "500",
    "socket:type2_cable": "1",
    "socket:type2_cable:current": "63",
    "socket:type2_cable:output": "43kW",
    "socket:type2_cable:voltage": "400",
    "socket:type2_combo": "1",
    "socket:type2_combo:current": "125",
    "socket:type2_combo:output": "50kW",
    "socket:type2_combo:voltage": "500",
    "website": "https://www.mobie.pt/"
  }
},
{
  "type": "node",
  "id": 9906542109,
  "lat": 39.5999565,
  "lon": -8.8164546,
  "tags": {
    "access": "yes",
    "addr:city": "Porto de Mós",
    "addr:country": "PT",
    "authentication:membership_card": "yes",
    "authentication:none": "no",
    "capacity": "2",
    "fee": "yes",
    "maxstay": "unlimited",
    "motorcar": "yes",
    "name": "PMS-00005",
    "network": "Mobi.E",
    "opening_hours": "24/7",
    "operator": "Powerdot",
    "parking:fee": "no",
    "payment:app": "yes",
    "payment:cards": "no",
    "payment:cash": "no",
    "payment:membership_card": "yes",
    "planned:amenity": "charging_station",
    "ref": "PMS-00005",
    "socket:chademo": "1",
    "socket:chademo:current": "125",
    "socket:chademo:output": "60kW",
    "socket:chademo:voltage": "500",
    "socket:type2": "1",
    "socket:type2:current": "32",
    "socket:type2:output": "22kW",
    "socket:type2:voltage": "400",
    "socket:type2_combo": "1",
    "socket:type2_combo:current": "200",
    "socket:type2_combo:output": "90kW",
    "socket:type2_combo:voltage": "920",
    "website": "https://www.mobie.pt/"
  }
},
{
  "type": "node",
  "id": 9906542110,
  "lat": 40.5428354,
  "lon": -7.2393841,
  "tags": {
    "access": "yes",
    "addr:country": "PT",
    "authentication:membership_card": "yes",
    "authentication:none": "no",
    "capacity": "2",
    "email": "mobilidade-eletrica@edp.pt",
    "fee": "yes",
    "maxstay": "unlimited",
    "motorcar": "yes",
    "name": "GRD-00017 - McDonald's",
    "network": "Mobi.E",
    "opening_hours": "24/7",
    "operator": "EDP Comercial",
    "parking:fee": "no",
    "payment:app": "yes",
    "payment:cards": "no",
    "payment:cash": "no",
    "payment:membership_card": "yes",
    "phone": "+351 800 222 222",
    "planned:amenity": "charging_station",
    "ref": "GRD-00017",
    "socket:chademo": "1",
    "socket:chademo:current": "125",
    "socket:chademo:output": "30kW",
    "socket:chademo:voltage": "500",
    "socket:type2": "1",
    "socket:type2:current": "32",
    "socket:type2:output": "22kW",
    "socket:type2:voltage": "400",
    "socket:type2_combo": "1",
    "socket:type2_combo:current": "200",
    "socket:type2_combo:output": "60kW",
    "socket:type2_combo:voltage": "950",
    "website": "https://www.mobie.pt"
  }
},
{
  "type": "node",
  "id": 9919933657,
  "lat": 40.9778890,
  "lon": -8.5368480,
  "tags": {
    "access": "yes",
    "addr:country": "PT",
    "authentication:membership_card": "yes",
    "authentication:none": "no",
    "capacity": "3",
    "email": "mobilidade-eletrica@edp.pt",
    "fee": "yes",
    "maxstay": "unlimited",
    "motorcar": "yes",
    "name": "VFR-00015 - McDonald's",
    "network": "Mobi.E",
    "opening_hours": "24/7",
    "operator": "EDP Comercial",
    "parking:fee": "no",
    "payment:app": "yes",
    "payment:cards": "no",
    "payment:cash": "no",
    "payment:membership_card": "yes",
    "phone": "+351 800 222 222",
    "planned:amenity": "charging_station",
    "ref": "VFR-00015",
    "socket:chademo": "1",
    "socket:chademo:current": "125",
    "socket:chademo:output": "30kW",
    "socket:chademo:voltage": "500",
    "socket:type2": "1",
    "socket:type2:current": "32",
    "socket:type2:output": "22kW",
    "socket:type2:voltage": "400",
    "socket:type2_combo": "1",
    "socket:type2_combo:current": "200",
    "socket:type2_combo:output": "60kW",
    "socket:type2_combo:voltage": "920",
    "website": "https://www.mobie.pt/"
  }
},
{
  "type": "node",
  "id": 9919933661,
  "lat": 37.0299347,
  "lon": -7.8512120,
  "tags": {
    "access": "yes",
    "addr:country": "PT",
    "authentication:membership_card": "yes",
    "authentication:none": "no",
    "capacity": "2",
    "email": "mobilidade-eletrica@edp.pt",
    "fee": "yes",
    "maxstay": "unlimited",
    "motorcar": "yes",
    "name": "OLH-XXXXX - McDonald's",
    "network": "Mobi.E",
    "opening_hours": "24/7",
    "operator": "EDP Comercial",
    "parking:fee": "no",
    "payment:app": "yes",
    "payment:cards": "no",
    "payment:cash": "no",
    "payment:membership_card": "yes",
    "phone": "+351 800 222 222",
    "planned:amenity": "charging_station",
    "ref": "FAR-00032",
    "socket:chademo": "1",
    "socket:chademo:current": "125",
    "socket:chademo:output": "30kW",
    "socket:chademo:voltage": "500",
    "socket:type2": "1",
    "socket:type2:current": "32",
    "socket:type2:output": "22kW",
    "socket:type2:voltage": "400",
    "socket:type2_combo": "1",
    "socket:type2_combo:current": "200",
    "socket:type2_combo:output": "60kW",
    "socket:type2_combo:voltage": "950",
    "website": "https://www.mobie.pt"
  }
},
{
  "type": "node",
  "id": 9919933662,
  "lat": 40.6326355,
  "lon": -7.9094519,
  "tags": {
    "access": "yes",
    "addr:country": "PT",
    "amenity": "charging_station",
    "authentication:membership_card": "yes",
    "authentication:none": "no",
    "capacity": "2",
    "email": "comercial@iberdrola.pt",
    "fee": "yes",
    "maxstay": "unlimited",
    "motorcar": "yes",
    "name": "VIS-00018 - Mercadona",
    "network": "Mobi.E",
    "opening_hours": "09:00-21:30",
    "operator": "Iberdrola",
    "operator:wikidata": "Q1437502",
    "parking:fee": "no",
    "payment:app": "yes",
    "payment:cards": "no",
    "payment:cash": "no",
    "payment:membership_card": "yes",
    "phone": "+351 800 607 717",
    "planned:amenity": "charging_station",
    "ref": "VIS-00018",
    "socket:type2": "2",
    "socket:type2:current": "32",
    "socket:type2:output": "22kW",
    "socket:type2:voltage": "400",
    "website": "https://www.mobie.pt"
  }
},
{
  "type": "node",
  "id": 9920117017,
  "lat": 37.9646520,
  "lon": -8.8568889,
  "tags": {
    "access": "yes",
    "authentication:membership_card": "yes",
    "authentication:none": "no",
    "capacity": "2",
    "fee": "yes",
    "maxstay": "unlimited",
    "motorcar": "yes",
    "name": "SNS-00009 - Roady",
    "network": "Mobi.E",
    "opening_hours": "24/7",
    "operator": "Powerdot",
    "parking:fee": "no",
    "payment:app": "yes",
    "payment:cards": "no",
    "payment:cash": "no",
    "payment:membership_card": "yes",
    "planned:amenity": "charging_station",
    "ref": "SNS-00009",
    "socket:chademo": "1",
    "socket:chademo:current": "125",
    "socket:chademo:output": "50kW",
    "socket:chademo:voltage": "500",
    "socket:type2_cable": "1",
    "socket:type2_cable:current": "32",
    "socket:type2_cable:output": "22kW",
    "socket:type2_cable:voltage": "400",
    "socket:type2_combo": "1",
    "socket:type2_combo:current": "150",
    "socket:type2_combo:output": "60kW",
    "socket:type2_combo:voltage": "920",
    "website": "https://www.mobie.pt/"
  }
},
{
  "type": "node",
  "id": 9920698713,
  "lat": 41.1395590,
  "lon": -8.5291410,
  "tags": {
    "access": "yes",
    "addr:country": "PT",
    "authentication:membership_card": "yes",
    "authentication:none": "no",
    "capacity": "2",
    "fee": "yes",
    "maxstay": "unlimited",
    "motorcar": "yes",
    "name": "GDM-00001",
    "network": "Mobi.E",
    "opening_hours": "24/7",
    "operator": "Mobi.E",
    "parking:fee": "no",
    "payment:app": "yes",
    "payment:cards": "no",
    "payment:cash": "no",
    "payment:membership_card": "yes",
    "planned:amenity": "charging_station",
    "ref": "GDM-00001",
    "socket:type2": "2",
    "socket:type2:current": "32",
    "socket:type2:output": "22kW",
    "socket:type2:voltage": "400",
    "website": "https://www.mobie.pt/"
  }
},
{
  "type": "node",
  "id": 9920769048,
  "lat": 40.6618900,
  "lon": -7.9164800,
  "tags": {
    "access": "yes",
    "addr:country": "PT",
    "authentication:membership_card": "yes",
    "authentication:none": "no",
    "capacity": "2",
    "fee": "yes",
    "maxstay": "unlimited",
    "motorcar": "yes",
    "name": "VIS-00054",
    "network": "Mobi.E",
    "opening_hours": "24/7",
    "operator": "Mobi.E",
    "parking:fee": "no",
    "payment:app": "yes",
    "payment:cards": "no",
    "payment:cash": "no",
    "payment:membership_card": "yes",
    "planned:amenity": "charging_station",
    "ref": "VIS-00054",
    "socket:type2": "2",
    "socket:type2:current": "32",
    "socket:type2:output": "22kW",
    "socket:type2:voltage": "400",
    "website": "https://www.mobie.pt/"
  }
},
{
  "type": "node",
  "id": 9920769049,
  "lat": 41.3791754,
  "lon": -8.7593865,
  "tags": {
    "access": "yes",
    "addr:country": "PT",
    "authentication:membership_card": "yes",
    "authentication:none": "no",
    "capacity": "2",
    "fee": "yes",
    "maxstay": "unlimited",
    "motorcar": "yes",
    "name": "PVZ-00001",
    "network": "Mobi.E",
    "opening_hours": "24/7",
    "operator": "Mobi.E",
    "parking:fee": "no",
    "payment:app": "yes",
    "payment:cards": "no",
    "payment:cash": "no",
    "payment:membership_card": "yes",
    "planned:amenity": "charging_station",
    "ref": "PVZ-00001",
    "socket:type2": "2",
    "socket:type2:current": "32",
    "socket:type2:output": "22kW",
    "socket:type2:voltage": "400",
    "website": "https://www.mobie.pt/"
  }
},
{
  "type": "node",
  "id": 9986743354,
  "lat": 40.8710320,
  "lon": -8.6451630,
  "tags": {
    "access": "yes",
    "addr:country": "PT",
    "authentication:membership_card": "yes",
    "authentication:none": "no",
    "capacity": "2",
    "fee": "yes",
    "maxstay": "unlimited",
    "motorcar": "yes",
    "name": "OVR-00013 - Pousada da Juventude",
    "network": "Mobi.E",
    "opening_hours": "24/7",
    "operator": "E-Plug",
    "parking:fee": "no",
    "payment:app": "yes",
    "payment:cards": "no",
    "payment:cash": "no",
    "payment:membership_card": "yes",
    "planned:amenity": "charging_station",
    "ref": "OVR-00013",
    "socket:type2": "2",
    "socket:type2:current": "32",
    "socket:type2:output": "22kW",
    "socket:type2:voltage": "400",
    "website": "https://www.mobie.pt/"
  }
},
{
  "type": "node",
  "id": 9986743355,
  "lat": 37.4769270,
  "lon": -7.4709697,
  "tags": {
    "access": "yes",
    "addr:country": "PT",
    "authentication:membership_card": "yes",
    "authentication:none": "no",
    "capacity": "2",
    "fee": "yes",
    "maxstay": "unlimited",
    "motorcar": "yes",
    "name": "ACT-00003 - Pousada da Juventude",
    "network": "Mobi.E",
    "opening_hours": "24/7",
    "operator": "E-Plug",
    "parking:fee": "no",
    "payment:app": "yes",
    "payment:cards": "no",
    "payment:cash": "no",
    "payment:membership_card": "yes",
    "planned:amenity": "charging_station",
    "ref": "ACT-00003",
    "socket:type2": "2",
    "socket:type2:current": "32",
    "socket:type2:output": "22kW",
    "socket:type2:voltage": "400",
    "website": "https://www.mobie.pt/"
  }
},
{
  "type": "node",
  "id": 9986743356,
  "lat": 41.2782863,
  "lon": -7.4760230,
  "tags": {
    "access": "customers",
    "addr:country": "PT",
    "authentication:membership_card": "yes",
    "authentication:none": "no",
    "capacity": "2",
    "fee": "yes",
    "maxstay": "unlimited",
    "motorcar": "yes",
    "name": "ALJ-00002 - Pousada da Juventude",
    "network": "Mobi.E",
    "opening_hours": "24/7",
    "operator": "E-Plug",
    "parking:fee": "no",
    "payment:app": "yes",
    "payment:cards": "no",
    "payment:cash": "no",
    "payment:membership_card": "yes",
    "planned:amenity": "charging_station",
    "ref": "ALJ-00002",
    "socket:type2": "2",
    "socket:type2:current": "32",
    "socket:type2:output": "22kW",
    "socket:type2:voltage": "400",
    "website": "https://www.mobie.pt/"
  }
},
{
  "type": "node",
  "id": 9986743357,
  "lat": 38.6765121,
  "lon": -9.1784728,
  "tags": {
    "access": "customers",
    "addr:country": "PT",
    "authentication:membership_card": "yes",
    "authentication:none": "no",
    "capacity": "2",
    "fee": "yes",
    "maxstay": "unlimited",
    "motorcar": "yes",
    "name": "ALM-00041 - Pousada da Juventude",
    "network": "Mobi.E",
    "opening_hours": "24/7",
    "operator": "E-Plug",
    "parking:fee": "no",
    "payment:app": "yes",
    "payment:cards": "no",
    "payment:cash": "no",
    "payment:membership_card": "yes",
    "planned:amenity": "charging_station",
    "ref": "ALM-00041",
    "socket:type2": "2",
    "socket:type2:current": "32",
    "socket:type2:output": "22kW",
    "socket:type2:voltage": "400",
    "website": "https://www.mobie.pt/"
  }
},
{
  "type": "node",
  "id": 9986743358,
  "lat": 37.6537483,
  "lon": -8.7915333,
  "tags": {
    "access": "yes",
    "addr:country": "PT",
    "authentication:membership_card": "yes",
    "authentication:none": "no",
    "capacity": "2",
    "fee": "yes",
    "maxstay": "unlimited",
    "motorcar": "yes",
    "name": "ODM-00009 - Pousada da Juventude",
    "network": "Mobi.E",
    "opening_hours": "24/7",
    "operator": "E-Plug",
    "parking:fee": "no",
    "payment:app": "yes",
    "payment:cards": "no",
    "payment:cash": "no",
    "payment:membership_card": "yes",
    "planned:amenity": "charging_station",
    "ref": "ODM-00009",
    "socket:type2": "2",
    "socket:type2:current": "32",
    "socket:type2:output": "22kW",
    "socket:type2:voltage": "400",
    "website": "https://www.mobie.pt/"
  }
},
{
  "type": "node",
  "id": 9986743359,
  "lat": 39.5529930,
  "lon": -8.7686770,
  "tags": {
    "access": "yes",
    "addr:country": "PT",
    "authentication:membership_card": "yes",
    "authentication:none": "no",
    "capacity": "2",
    "fee": "yes",
    "maxstay": "unlimited",
    "motorcar": "yes",
    "name": "PMS-00004 - Pousada da Juventude",
    "network": "Mobi.E",
    "opening_hours": "24/7",
    "operator": "E-Plug",
    "parking:fee": "no",
    "payment:app": "yes",
    "payment:cards": "no",
    "payment:cash": "no",
    "payment:membership_card": "yes",
    "planned:amenity": "charging_station",
    "ref": "PMS-00004",
    "socket:type2": "2",
    "socket:type2:current": "32",
    "socket:type2:output": "22kW",
    "socket:type2:voltage": "400",
    "website": "https://www.mobie.pt/"
  }
},
{
  "type": "node",
  "id": 10005184504,
  "lat": 40.4422677,
  "lon": -8.4500696,
  "tags": {
    "access": "yes",
    "addr:country": "PT",
    "authentication:membership_card": "yes",
    "authentication:none": "no",
    "capacity": "2",
    "fee": "yes",
    "maxstay": "unlimited",
    "motorcar": "yes",
    "name": "AND-00004 - Lidl",
    "network": "Mobi.E",
    "opening_hours": "24/7",
    "operator": "Atlante",
    "parking:fee": "no",
    "payment:app": "yes",
    "payment:cards": "no",
    "payment:cash": "no",
    "payment:membership_card": "yes",
    "planned:amenity": "charging_station",
    "ref": "AND-00004",
    "socket:chademo": "1",
    "socket:chademo:current": "120",
    "socket:chademo:output": "50kW",
    "socket:chademo:voltage": "500",
    "socket:type2_cable": "1",
    "socket:type2_cable:current": "63",
    "socket:type2_cable:output": "43kW",
    "socket:type2_cable:voltage": "400",
    "socket:type2_combo": "1",
    "socket:type2_combo:current": "125",
    "socket:type2_combo:output": "50kW",
    "socket:type2_combo:voltage": "500",
    "website": "https://www.mobie.pt/"
  }
},
{
  "type": "node",
  "id": 10005184511,
  "lat": 41.8044340,
  "lon": -6.7661190,
  "tags": {
    "access": "customers",
    "addr:country": "PT",
    "authentication:membership_card": "yes",
    "authentication:none": "no",
    "capacity": "2",
    "fee": "yes",
    "maxstay": "unlimited",
    "motorcar": "yes",
    "name": "BGC-00008 - Pousada da Juventude",
    "network": "Mobi.E",
    "opening_hours": "24/7",
    "operator": "E-Plug",
    "parking:fee": "no",
    "payment:app": "yes",
    "payment:cards": "no",
    "payment:cash": "no",
    "payment:membership_card": "yes",
    "planned:amenity": "charging_station",
    "ref": "BGC-00008",
    "socket:type2": "2",
    "socket:type2:current": "32",
    "socket:type2:output": "22kW",
    "socket:type2:voltage": "400",
    "website": "https://www.mobie.pt/"
  }
},
{
  "type": "node",
  "id": 10005184512,
  "lat": 40.9981880,
  "lon": -8.6232030,
  "tags": {
    "access": "yes",
    "addr:country": "PT",
    "authentication:membership_card": "yes",
    "authentication:none": "no",
    "capacity": "2",
    "fee": "yes",
    "maxstay": "unlimited",
    "motorcar": "yes",
    "name": "ESP-00007 - Pousada da Juventude",
    "network": "Mobi.E",
    "opening_hours": "24/7",
    "operator": "E-Plug",
    "parking:fee": "no",
    "payment:app": "yes",
    "payment:cards": "no",
    "payment:cash": "no",
    "payment:membership_card": "yes",
    "planned:amenity": "charging_station",
    "ref": "ESP-00007",
    "socket:type2": "2",
    "socket:type2:current": "32",
    "socket:type2:output": "22kW",
    "socket:type2:voltage": "400",
    "website": "https://www.mobie.pt/"
  }
},
{
  "type": "node",
  "id": 10005184513,
  "lat": 41.7530180,
  "lon": -8.2030830,
  "tags": {
    "access": "customers",
    "addr:country": "PT",
    "authentication:membership_card": "yes",
    "authentication:none": "no",
    "capacity": "2",
    "fee": "yes",
    "maxstay": "unlimited",
    "motorcar": "yes",
    "name": "TBR-00004 - Pousada da Juventude",
    "network": "Mobi.E",
    "opening_hours": "24/7",
    "operator": "E-Plug",
    "parking:fee": "no",
    "payment:app": "yes",
    "payment:cards": "no",
    "payment:cash": "no",
    "payment:membership_card": "yes",
    "planned:amenity": "charging_station",
    "ref": "TBR-00004",
    "socket:type2": "2",
    "socket:type2:current": "32",
    "socket:type2:output": "22kW",
    "socket:type2:voltage": "400",
    "website": "https://www.mobie.pt/"
  }
},
{
  "type": "node",
  "id": 10005184514,
  "lat": 41.5108522,
  "lon": -8.7675122,
  "tags": {
    "access": "customers",
    "addr:country": "PT",
    "authentication:membership_card": "yes",
    "authentication:none": "no",
    "capacity": "2",
    "fee": "yes",
    "maxstay": "unlimited",
    "motorcar": "yes",
    "name": "EPS-00003 - Pousada da Juventude",
    "network": "Mobi.E",
    "opening_hours": "24/7",
    "operator": "E-Plug",
    "parking:fee": "no",
    "payment:app": "yes",
    "payment:cards": "no",
    "payment:cash": "no",
    "payment:membership_card": "yes",
    "planned:amenity": "charging_station",
    "ref": "EPS-00003",
    "socket:type2": "2",
    "socket:type2:current": "32",
    "socket:type2:output": "22kW",
    "socket:type2:voltage": "400",
    "website": "https://www.mobie.pt/"
  }
},
{
  "type": "node",
  "id": 10005184515,
  "lat": 37.1518810,
  "lon": -8.5444040,
  "tags": {
    "access": "customers",
    "addr:country": "PT",
    "authentication:membership_card": "yes",
    "authentication:none": "no",
    "capacity": "2",
    "fee": "yes",
    "maxstay": "unlimited",
    "motorcar": "yes",
    "name": "PTM-00024 - Pousada da Juventude",
    "network": "Mobi.E",
    "opening_hours": "24/7",
    "operator": "E-Plug",
    "parking:fee": "no",
    "payment:app": "yes",
    "payment:cards": "no",
    "payment:cash": "no",
    "payment:membership_card": "yes",
    "planned:amenity": "charging_station",
    "ref": "PTM-00024",
    "socket:type2": "2",
    "socket:type2:current": "32",
    "socket:type2:output": "22kW",
    "socket:type2:voltage": "400",
    "website": "https://www.mobie.pt/"
  }
},
{
  "type": "node",
  "id": 10005184516,
  "lat": 41.1479130,
  "lon": -8.6589800,
  "tags": {
    "access": "customers",
    "addr:country": "PT",
    "authentication:membership_card": "yes",
    "authentication:none": "no",
    "capacity": "2",
    "fee": "yes",
    "maxstay": "unlimited",
    "motorcar": "yes",
    "name": "PRT-00146 - Pousada da Juventude",
    "network": "Mobi.E",
    "opening_hours": "24/7",
    "operator": "E-Plug",
    "parking:fee": "no",
    "payment:app": "yes",
    "payment:cards": "no",
    "payment:cash": "no",
    "payment:membership_card": "yes",
    "planned:amenity": "charging_station",
    "ref": "PRT-00146",
    "socket:type2": "2",
    "socket:type2:current": "32",
    "socket:type2:output": "22kW",
    "socket:type2:voltage": "400",
    "website": "https://www.mobie.pt/"
  }
},
{
  "type": "node",
  "id": 10005235017,
  "lat": 41.9373820,
  "lon": -8.7457968,
  "tags": {
    "access": "customers",
    "addr:country": "PT",
    "authentication:membership_card": "yes",
    "authentication:none": "no",
    "capacity": "2",
    "fee": "yes",
    "maxstay": "unlimited",
    "motorcar": "yes",
    "name": "VNC-00004 - Pousada da Juventude",
    "network": "Mobi.E",
    "opening_hours": "24/7",
    "operator": "E-Plug",
    "parking:fee": "no",
    "payment:app": "yes",
    "payment:cards": "no",
    "payment:cash": "no",
    "payment:membership_card": "yes",
    "planned:amenity": "charging_station",
    "ref": "VNC-00004",
    "socket:type2": "2",
    "socket:type2:current": "32",
    "socket:type2:output": "22kW",
    "socket:type2:voltage": "400",
    "website": "https://www.mobie.pt/"
  }
},
{
  "type": "node",
  "id": 10022775165,
  "lat": 38.4732600,
  "lon": -9.0833620,
  "tags": {
    "access": "yes",
    "addr:country": "PT",
    "authentication:membership_card": "yes",
    "authentication:none": "no",
    "capacity": "2",
    "fee": "yes",
    "maxstay": "unlimited",
    "motorcar": "yes",
    "name": "SSB-XXXXX - Repsol",
    "network": "Mobi.E",
    "opening_hours": "24/7",
    "operator": "Repsol",
    "parking:fee": "no",
    "payment:app": "yes",
    "payment:cards": "no",
    "payment:cash": "no",
    "payment:membership_card": "yes",
    "planned:amenity": "charging_station",
    "ref": "SSB-XXXXX",
    "socket:chademo": "1",
    "socket:chademo:current": "120",
    "socket:chademo:output": "50kW",
    "socket:chademo:voltage": "500",
    "socket:type2_cable": "1",
    "socket:type2_cable:current": "63",
    "socket:type2_cable:output": "43kW",
    "socket:type2_cable:voltage": "400",
    "socket:type2_combo": "1",
    "socket:type2_combo:current": "125",
    "socket:type2_combo:output": "50kW",
    "socket:type2_combo:voltage": "500",
    "website": "https://www.mobie.pt/"
  }
},
{
  "type": "node",
  "id": 10056853550,
  "lat": 41.5604863,
  "lon": -8.4468053,
  "tags": {
    "access": "yes",
    "addr:country": "PT",
    "authentication:membership_card": "yes",
    "authentication:none": "no",
    "capacity": "2",
    "email": "mobilidade-eletrica@edp.pt",
    "fee": "yes",
    "maxstay": "unlimited",
    "motorcar": "yes",
    "name": "BRG-00071 - Burger King",
    "network": "Mobi.E",
    "opening_hours": "24/7",
    "operator": "EDP Comercial",
    "parking:fee": "no",
    "payment:app": "yes",
    "payment:cards": "no",
    "payment:cash": "no",
    "payment:membership_card": "yes",
    "phone": "+351 800 222 222",
    "planned:amenity": "charging_station",
    "ref": "BRG-00071",
    "socket:chademo": "1",
    "socket:chademo:current": "85",
    "socket:chademo:output": "30kW",
    "socket:chademo:voltage": "500",
    "socket:type2_combo": "1",
    "socket:type2_combo:current": "200",
    "socket:type2_combo:output": "90kW",
    "socket:type2_combo:voltage": "920",
    "website": "https://www.mobie.pt/"
  }
},
{
  "type": "node",
  "id": 10075901090,
  "lat": 40.5015468,
  "lon": -8.6118007,
  "tags": {
    "access": "yes",
    "addr:country": "PT",
    "authentication:membership_card": "yes",
    "authentication:none": "no",
    "capacity": "2",
    "fee": "yes",
    "maxstay": "unlimited",
    "motorcar": "yes",
    "name": "OBR-XXXXX",
    "network": "Mobi.E",
    "opening_hours": "24/7",
    "operator": "unknown",
    "parking:fee": "no",
    "payment:app": "yes",
    "payment:cards": "no",
    "payment:cash": "no",
    "payment:membership_card": "yes",
    "planned:amenity": "charging_station",
    "ref": "OBR-XXXXX",
    "socket:chademo": "1",
    "socket:chademo:current": "120",
    "socket:chademo:output": "50kW",
    "socket:chademo:voltage": "500",
    "socket:type2_cable": "1",
    "socket:type2_cable:current": "63",
    "socket:type2_cable:output": "43kW",
    "socket:type2_cable:voltage": "400",
    "socket:type2_combo": "1",
    "socket:type2_combo:current": "125",
    "socket:type2_combo:output": "50kW",
    "socket:type2_combo:voltage": "500",
    "website": "https://www.mobie.pt/"
  }
},
{
  "type": "node",
  "id": 10075901091,
  "lat": 40.4981720,
  "lon": -8.5623880,
  "tags": {
    "access": "yes",
    "addr:country": "PT",
    "authentication:membership_card": "yes",
    "authentication:none": "no",
    "capacity": "2",
    "fee": "yes",
    "maxstay": "unlimited",
    "motorcar": "yes",
    "name": "OBR-XXXXX",
    "network": "Mobi.E",
    "opening_hours": "24/7",
    "operator": "unknown",
    "parking:fee": "no",
    "payment:app": "yes",
    "payment:cards": "no",
    "payment:cash": "no",
    "payment:membership_card": "yes",
    "planned:amenity": "charging_station",
    "ref": "OBR-XXXXX",
    "socket:chademo": "1",
    "socket:chademo:current": "120",
    "socket:chademo:output": "50kW",
    "socket:chademo:voltage": "500",
    "socket:type2_cable": "1",
    "socket:type2_cable:current": "63",
    "socket:type2_cable:output": "43kW",
    "socket:type2_cable:voltage": "400",
    "socket:type2_combo": "1",
    "socket:type2_combo:current": "125",
    "socket:type2_combo:output": "50kW",
    "socket:type2_combo:voltage": "500",
    "website": "https://www.mobie.pt/"
  }
},
{
  "type": "node",
  "id": 10075901092,
  "lat": 40.5065146,
  "lon": -8.5381802,
  "tags": {
    "access": "yes",
    "addr:country": "PT",
    "authentication:membership_card": "yes",
    "authentication:none": "no",
    "capacity": "2",
    "fee": "yes",
    "maxstay": "unlimited",
    "motorcar": "yes",
    "name": "OBR-XXXXX",
    "network": "Mobi.E",
    "opening_hours": "24/7",
    "operator": "unknown",
    "parking:fee": "no",
    "payment:app": "yes",
    "payment:cards": "no",
    "payment:cash": "no",
    "payment:membership_card": "yes",
    "planned:amenity": "charging_station",
    "ref": "OBR-XXXXX",
    "socket:chademo": "1",
    "socket:chademo:current": "120",
    "socket:chademo:output": "50kW",
    "socket:chademo:voltage": "500",
    "socket:type2_cable": "1",
    "socket:type2_cable:current": "63",
    "socket:type2_cable:output": "43kW",
    "socket:type2_cable:voltage": "400",
    "socket:type2_combo": "1",
    "socket:type2_combo:current": "125",
    "socket:type2_combo:output": "50kW",
    "socket:type2_combo:voltage": "500",
    "website": "https://www.mobie.pt/"
  }
},
{
  "type": "node",
  "id": 10075901093,
  "lat": 40.5158431,
  "lon": -8.4944496,
  "tags": {
    "access": "yes",
    "addr:country": "PT",
    "authentication:membership_card": "yes",
    "authentication:none": "no",
    "capacity": "2",
    "fee": "yes",
    "maxstay": "unlimited",
    "motorcar": "yes",
    "name": "OBR-XXXXX",
    "network": "Mobi.E",
    "opening_hours": "24/7",
    "operator": "unknown",
    "parking:fee": "no",
    "payment:app": "yes",
    "payment:cards": "no",
    "payment:cash": "no",
    "payment:membership_card": "yes",
    "planned:amenity": "charging_station",
    "ref": "OBR-XXXXX",
    "socket:chademo": "1",
    "socket:chademo:current": "120",
    "socket:chademo:output": "50kW",
    "socket:chademo:voltage": "500",
    "socket:type2_cable": "1",
    "socket:type2_cable:current": "63",
    "socket:type2_cable:output": "43kW",
    "socket:type2_cable:voltage": "400",
    "socket:type2_combo": "1",
    "socket:type2_combo:current": "125",
    "socket:type2_combo:output": "50kW",
    "socket:type2_combo:voltage": "500",
    "website": "https://www.mobie.pt/"
  }
},
{
  "type": "node",
  "id": 10075901094,
  "lat": 40.5133920,
  "lon": -8.4911740,
  "tags": {
    "access": "yes",
    "addr:country": "PT",
    "authentication:membership_card": "yes",
    "authentication:none": "no",
    "capacity": "2",
    "fee": "yes",
    "maxstay": "unlimited",
    "motorcar": "yes",
    "name": "OBR-XXXXX",
    "network": "Mobi.E",
    "opening_hours": "24/7",
    "operator": "unknown",
    "parking:fee": "no",
    "payment:app": "yes",
    "payment:cards": "no",
    "payment:cash": "no",
    "payment:membership_card": "yes",
    "planned:amenity": "charging_station",
    "ref": "OBR-XXXXX",
    "socket:chademo": "1",
    "socket:chademo:current": "120",
    "socket:chademo:output": "50kW",
    "socket:chademo:voltage": "500",
    "socket:type2_cable": "1",
    "socket:type2_cable:current": "63",
    "socket:type2_cable:output": "43kW",
    "socket:type2_cable:voltage": "400",
    "socket:type2_combo": "1",
    "socket:type2_combo:current": "125",
    "socket:type2_combo:output": "50kW",
    "socket:type2_combo:voltage": "500",
    "website": "https://www.mobie.pt/"
  }
},
{
  "type": "node",
  "id": 10109795253,
  "lat": 41.5359988,
  "lon": -6.9600052,
  "tags": {
    "access": "yes",
    "addr:country": "PT",
    "authentication:membership_card": "yes",
    "authentication:none": "no",
    "capacity": "2",
    "email": "mobilidade-eletrica@edp.pt",
    "fee": "yes",
    "maxstay": "unlimited",
    "motorcar": "yes",
    "name": "MCD-00003",
    "network": "Mobi.E",
    "opening_hours": "24/7",
    "operator": "EDP Comercial",
    "parking:fee": "no",
    "payment:app": "yes",
    "payment:cards": "no",
    "payment:cash": "no",
    "payment:membership_card": "yes",
    "phone": "+351 800 222 222",
    "planned:amenity": "charging_station",
    "ref": "MCD-00003",
    "socket:chademo": "1",
    "socket:chademo:current": "120",
    "socket:chademo:output": "50kW",
    "socket:chademo:voltage": "500",
    "socket:type2_cable": "1",
    "socket:type2_cable:current": "63",
    "socket:type2_cable:output": "43kW",
    "socket:type2_cable:voltage": "400",
    "socket:type2_combo": "1",
    "socket:type2_combo:current": "125",
    "socket:type2_combo:output": "50kW",
    "socket:type2_combo:voltage": "500",
    "website": "https://www.mobie.pt/"
  }
},
{
  "type": "node",
  "id": 10109795254,
  "lat": 41.4875610,
  "lon": -7.1827760,
  "tags": {
    "access": "yes",
    "addr:country": "PT",
    "authentication:membership_card": "yes",
    "authentication:none": "no",
    "capacity": "2",
    "email": "mobilidade-eletrica@edp.pt",
    "fee": "yes",
    "maxstay": "unlimited",
    "motorcar": "yes",
    "name": "MDL-00006",
    "network": "Mobi.E",
    "opening_hours": "24/7",
    "operator": "EDP Comercial",
    "parking:fee": "no",
    "payment:app": "yes",
    "payment:cards": "no",
    "payment:cash": "no",
    "payment:membership_card": "yes",
    "phone": "+351 800 222 222",
    "planned:amenity": "charging_station",
    "ref": "MDL-00006",
    "socket:chademo": "1",
    "socket:chademo:current": "120",
    "socket:chademo:output": "50kW",
    "socket:chademo:voltage": "500",
    "socket:type2_cable": "1",
    "socket:type2_cable:current": "63",
    "socket:type2_cable:output": "43kW",
    "socket:type2_cable:voltage": "400",
    "socket:type2_combo": "1",
    "socket:type2_combo:current": "125",
    "socket:type2_combo:output": "50kW",
    "socket:type2_combo:voltage": "500",
    "website": "https://www.mobie.pt/"
  }
},
{
  "type": "node",
  "id": 10109795255,
  "lat": 41.3426133,
  "lon": -6.7119265,
  "tags": {
    "access": "yes",
    "addr:country": "PT",
    "authentication:membership_card": "yes",
    "authentication:none": "no",
    "capacity": "2",
    "email": "mobilidade-eletrica@edp.pt",
    "fee": "yes",
    "maxstay": "unlimited",
    "motorcar": "yes",
    "name": "MGD-00002",
    "network": "Mobi.E",
    "opening_hours": "24/7",
    "operator": "EDP Comercial",
    "parking:fee": "no",
    "payment:app": "yes",
    "payment:cards": "no",
    "payment:cash": "no",
    "payment:membership_card": "yes",
    "phone": "+351 800 222 222",
    "planned:amenity": "charging_station",
    "ref": "MGD-00002",
    "socket:chademo": "1",
    "socket:chademo:current": "120",
    "socket:chademo:output": "50kW",
    "socket:chademo:voltage": "500",
    "socket:type2_cable": "1",
    "socket:type2_cable:current": "63",
    "socket:type2_cable:output": "43kW",
    "socket:type2_cable:voltage": "400",
    "socket:type2_combo": "1",
    "socket:type2_combo:current": "125",
    "socket:type2_combo:output": "50kW",
    "socket:type2_combo:voltage": "500",
    "website": "https://www.mobie.pt/"
  }
},
{
  "type": "node",
  "id": 10109795259,
  "lat": 40.5354770,
  "lon": -8.6075250,
  "tags": {
    "access": "yes",
    "addr:country": "PT",
    "authentication:membership_card": "yes",
    "authentication:none": "no",
    "capacity": "2",
    "fee": "yes",
    "maxstay": "unlimited",
    "motorcar": "yes",
    "name": "OBR-XXXXX",
    "network": "Mobi.E",
    "opening_hours": "24/7",
    "operator": "unknown",
    "parking:fee": "no",
    "payment:app": "yes",
    "payment:cards": "no",
    "payment:cash": "no",
    "payment:membership_card": "yes",
    "planned:amenity": "charging_station",
    "ref": "OBR-XXXXX",
    "socket:chademo": "1",
    "socket:chademo:current": "120",
    "socket:chademo:output": "50kW",
    "socket:chademo:voltage": "500",
    "socket:type2_cable": "1",
    "socket:type2_cable:current": "63",
    "socket:type2_cable:output": "43kW",
    "socket:type2_cable:voltage": "400",
    "socket:type2_combo": "1",
    "socket:type2_combo:current": "125",
    "socket:type2_combo:output": "50kW",
    "socket:type2_combo:voltage": "500",
    "website": "https://www.mobie.pt/"
  }
},
{
  "type": "node",
  "id": 10109795260,
  "lat": 40.5001180,
  "lon": -8.5880570,
  "tags": {
    "access": "yes",
    "addr:country": "PT",
    "authentication:membership_card": "yes",
    "authentication:none": "no",
    "capacity": "2",
    "fee": "yes",
    "maxstay": "unlimited",
    "motorcar": "yes",
    "name": "OBR-XXXXX",
    "network": "Mobi.E",
    "opening_hours": "24/7",
    "operator": "unknown",
    "parking:fee": "no",
    "payment:app": "yes",
    "payment:cards": "no",
    "payment:cash": "no",
    "payment:membership_card": "yes",
    "planned:amenity": "charging_station",
    "ref": "OBR-XXXXX",
    "socket:chademo": "1",
    "socket:chademo:current": "120",
    "socket:chademo:output": "50kW",
    "socket:chademo:voltage": "500",
    "socket:type2_cable": "1",
    "socket:type2_cable:current": "63",
    "socket:type2_cable:output": "43kW",
    "socket:type2_cable:voltage": "400",
    "socket:type2_combo": "1",
    "socket:type2_combo:current": "125",
    "socket:type2_combo:output": "50kW",
    "socket:type2_combo:voltage": "500",
    "website": "https://www.mobie.pt/"
  }
},
{
  "type": "node",
  "id": 10109795261,
  "lat": 40.5425631,
  "lon": -8.5386559,
  "tags": {
    "access": "yes",
    "addr:country": "PT",
    "authentication:membership_card": "yes",
    "authentication:none": "no",
    "capacity": "2",
    "fee": "yes",
    "maxstay": "unlimited",
    "motorcar": "yes",
    "name": "OBR-XXXXX",
    "network": "Mobi.E",
    "opening_hours": "24/7",
    "operator": "unknown",
    "parking:fee": "no",
    "payment:app": "yes",
    "payment:cards": "no",
    "payment:cash": "no",
    "payment:membership_card": "yes",
    "planned:amenity": "charging_station",
    "ref": "OBR-XXXXX",
    "socket:chademo": "1",
    "socket:chademo:current": "120",
    "socket:chademo:output": "50kW",
    "socket:chademo:voltage": "500",
    "socket:type2_cable": "1",
    "socket:type2_cable:current": "63",
    "socket:type2_cable:output": "43kW",
    "socket:type2_cable:voltage": "400",
    "socket:type2_combo": "1",
    "socket:type2_combo:current": "125",
    "socket:type2_combo:output": "50kW",
    "socket:type2_combo:voltage": "500",
    "website": "https://www.mobie.pt/"
  }
},
{
  "type": "node",
  "id": 10109795262,
  "lat": 40.5555740,
  "lon": -8.5553180,
  "tags": {
    "access": "yes",
    "addr:country": "PT",
    "authentication:membership_card": "yes",
    "authentication:none": "no",
    "capacity": "2",
    "fee": "yes",
    "maxstay": "unlimited",
    "motorcar": "yes",
    "name": "OBR-XXXXX",
    "network": "Mobi.E",
    "opening_hours": "24/7",
    "operator": "unknown",
    "parking:fee": "no",
    "payment:app": "yes",
    "payment:cards": "no",
    "payment:cash": "no",
    "payment:membership_card": "yes",
    "planned:amenity": "charging_station",
    "ref": "OBR-XXXXX",
    "socket:chademo": "1",
    "socket:chademo:current": "120",
    "socket:chademo:output": "50kW",
    "socket:chademo:voltage": "500",
    "socket:type2_cable": "1",
    "socket:type2_cable:current": "63",
    "socket:type2_cable:output": "43kW",
    "socket:type2_cable:voltage": "400",
    "socket:type2_combo": "1",
    "socket:type2_combo:current": "125",
    "socket:type2_combo:output": "50kW",
    "socket:type2_combo:voltage": "500",
    "website": "https://www.mobie.pt/"
  }
},
{
  "type": "node",
  "id": 10109795263,
  "lat": 40.5075690,
  "lon": -8.4834060,
  "tags": {
    "access": "yes",
    "addr:country": "PT",
    "authentication:membership_card": "yes",
    "authentication:none": "no",
    "capacity": "2",
    "fee": "yes",
    "maxstay": "unlimited",
    "motorcar": "yes",
    "name": "OBR-XXXXX",
    "network": "Mobi.E",
    "opening_hours": "24/7",
    "operator": "unknown",
    "parking:fee": "no",
    "payment:app": "yes",
    "payment:cards": "no",
    "payment:cash": "no",
    "payment:membership_card": "yes",
    "planned:amenity": "charging_station",
    "ref": "OBR-XXXXX",
    "socket:chademo": "1",
    "socket:chademo:current": "120",
    "socket:chademo:output": "50kW",
    "socket:chademo:voltage": "500",
    "socket:type2_cable": "1",
    "socket:type2_cable:current": "63",
    "socket:type2_cable:output": "43kW",
    "socket:type2_cable:voltage": "400",
    "socket:type2_combo": "1",
    "socket:type2_combo:current": "125",
    "socket:type2_combo:output": "50kW",
    "socket:type2_combo:voltage": "500",
    "website": "https://www.mobie.pt/"
  }
},
{
  "type": "node",
  "id": 10109795264,
  "lat": 40.5427139,
  "lon": -8.5488211,
  "tags": {
    "access": "yes",
    "addr:country": "PT",
    "authentication:membership_card": "yes",
    "authentication:none": "no",
    "capacity": "2",
    "fee": "yes",
    "maxstay": "unlimited",
    "motorcar": "yes",
    "name": "OBR-XXXXX",
    "network": "Mobi.E",
    "opening_hours": "24/7",
    "operator": "unknown",
    "parking:fee": "no",
    "payment:app": "yes",
    "payment:cards": "no",
    "payment:cash": "no",
    "payment:membership_card": "yes",
    "planned:amenity": "charging_station",
    "ref": "OBR-XXXXX",
    "socket:chademo": "1",
    "socket:chademo:current": "120",
    "socket:chademo:output": "50kW",
    "socket:chademo:voltage": "500",
    "socket:type2_cable": "1",
    "socket:type2_cable:current": "63",
    "socket:type2_cable:output": "43kW",
    "socket:type2_cable:voltage": "400",
    "socket:type2_combo": "1",
    "socket:type2_combo:current": "125",
    "socket:type2_combo:output": "50kW",
    "socket:type2_combo:voltage": "500",
    "website": "https://www.mobie.pt/"
  }
},
{
  "type": "node",
  "id": 10109931965,
  "lat": 37.1161730,
  "lon": -8.1201260,
  "tags": {
    "access": "yes",
    "addr:country": "PT",
    "authentication:membership_card": "yes",
    "authentication:none": "no",
    "capacity": "6",
    "fee": "yes",
    "maxstay": "unlimited",
    "motorcar": "yes",
    "name": "LLE-00086",
    "network": "Mobi.E",
    "opening_hours": "24/7",
    "operator": "Powerdot",
    "parking:fee": "no",
    "payment:app": "yes",
    "payment:cards": "no",
    "payment:cash": "no",
    "payment:membership_card": "yes",
    "planned:amenity": "charging_station",
    "ref": "LLE-00086",
    "socket:chademo": "1",
    "socket:chademo:current": "125",
    "socket:chademo:output": "60kW",
    "socket:chademo:voltage": "500",
    "socket:type2_combo": "5",
    "socket:type2_combo:current": "300",
    "socket:type2_combo:output": "120kW",
    "socket:type2_combo:voltage": "920",
    "website": "https://www.mobie.pt/"
  }
},
{
  "type": "node",
  "id": 10109931966,
  "lat": 39.9382223,
  "lon": -8.6291844,
  "tags": {
    "access": "yes",
    "addr:country": "PT",
    "authentication:membership_card": "yes",
    "authentication:none": "no",
    "capacity": "3",
    "fee": "yes",
    "maxstay": "unlimited",
    "motorcar": "yes",
    "name": "PBL-00009 - Ouro Negro",
    "network": "Mobi.E",
    "opening_hours": "24/7",
    "operator": "Powerdot",
    "parking:fee": "no",
    "payment:app": "yes",
    "payment:cards": "no",
    "payment:cash": "no",
    "payment:membership_card": "yes",
    "planned:amenity": "charging_station",
    "ref": "PBL-00009",
    "socket:chademo": "1",
    "socket:chademo:current": "125",
    "socket:chademo:output": "60kW",
    "socket:chademo:voltage": "500",
    "socket:type2": "1",
    "socket:type2:current": "32",
    "socket:type2:output": "22kW",
    "socket:type2:voltage": "400",
    "socket:type2_combo": "1",
    "socket:type2_combo:current": "250",
    "socket:type2_combo:output": "120kW",
    "socket:type2_combo:voltage": "920",
    "website": "https://www.mobie.pt/"
  }
},
{
  "type": "node",
  "id": 10109931968,
  "lat": 41.1026347,
  "lon": -8.5885835,
  "tags": {
    "access": "yes",
    "addr:country": "PT",
    "authentication:membership_card": "yes",
    "authentication:none": "no",
    "capacity": "2",
    "email": "mobilidade-eletrica@edp.pt",
    "fee": "yes",
    "maxstay": "unlimited",
    "motorcar": "yes",
    "name": "VNG-00093 - Burger King",
    "network": "Mobi.E",
    "opening_hours": "24/7",
    "operator": "EDP Comercial",
    "parking:fee": "no",
    "payment:app": "yes",
    "payment:cards": "no",
    "payment:cash": "no",
    "payment:membership_card": "yes",
    "phone": "+351 800 222 222",
    "planned:amenity": "charging_station",
    "ref": "VNG-00093",
    "socket:chademo": "1",
    "socket:chademo:current": "120",
    "socket:chademo:output": "60kW",
    "socket:chademo:voltage": "500",
    "socket:type2_combo": "1",
    "socket:type2_combo:current": "125",
    "socket:type2_combo:output": "120kW",
    "socket:type2_combo:voltage": "950",
    "website": "https://www.mobie.pt/"
  }
},
{
  "type": "node",
  "id": 10110145671,
  "lat": 40.8421819,
  "lon": -8.3956691,
  "tags": {
    "access": "yes",
    "addr:country": "PT",
    "authentication:membership_card": "yes",
    "authentication:none": "no",
    "capacity": "1",
    "fee": "yes",
    "maxstay": "unlimited",
    "motorcar": "yes",
    "name": "VLC-00007 - Prio",
    "network": "Mobi.E",
    "opening_hours": "24/7",
    "operator": "Prio.E",
    "parking:fee": "no",
    "payment:app": "yes",
    "payment:cards": "no",
    "payment:cash": "no",
    "payment:membership_card": "yes",
    "planned:amenity": "charging_station",
    "ref": "VLC-00007",
    "socket:chademo": "1",
    "socket:chademo:current": "120",
    "socket:chademo:output": "50kW",
    "socket:chademo:voltage": "500",
    "socket:type2_combo": "1",
    "socket:type2_combo:current": "125",
    "socket:type2_combo:output": "50kW",
    "socket:type2_combo:voltage": "500",
    "website": "https://www.mobie.pt/"
  }
},
{
  "type": "node",
  "id": 10157924957,
  "lat": 38.5353315,
  "lon": -8.8652023,
  "tags": {
    "access": "yes",
    "addr:country": "PT",
    "authentication:membership_card": "yes",
    "authentication:none": "no",
    "capacity": "4",
    "fee": "yes",
    "maxstay": "unlimited",
    "motorcar": "yes",
    "name": "STB-00036/37 - Retail Park",
    "network": "Mobi.E",
    "opening_hours": "24/7",
    "operator": "Galp Power",
    "parking:fee": "no",
    "payment:app": "yes",
    "payment:cards": "no",
    "payment:cash": "no",
    "payment:membership_card": "yes",
    "planned:amenity": "charging_station",
    "ref": "STB-00036;STB-00037",
    "socket:type2_combo": "4",
    "socket:type2_combo:current": "200",
    "socket:type2_combo:output": "120kW",
    "socket:type2_combo:voltage": "950",
    "website": "https://www.mobie.pt/"
  }
},
{
  "type": "node",
  "id": 10157924958,
  "lat": 38.7022453,
  "lon": -8.9451427,
  "tags": {
    "access": "yes",
    "addr:country": "PT",
    "authentication:membership_card": "yes",
    "authentication:none": "no",
    "capacity": "4",
    "fee": "yes",
    "maxstay": "unlimited",
    "motorcar": "yes",
    "name": "MTJ-00029/30",
    "network": "Mobi.E",
    "opening_hours": "24/7",
    "operator": "Galp Power",
    "parking:fee": "no",
    "payment:app": "yes",
    "payment:cards": "no",
    "payment:cash": "no",
    "payment:membership_card": "yes",
    "planned:amenity": "charging_station",
    "ref": "MTJ-00029;MTJ-00030",
    "socket:type2_combo": "4",
    "socket:type2_combo:current": "200",
    "socket:type2_combo:output": "120kW",
    "socket:type2_combo:voltage": "950",
    "website": "https://www.mobie.pt/"
  }
},
{
  "type": "node",
  "id": 10215792647,
  "lat": 41.2922790,
  "lon": -7.7368590,
  "tags": {
    "access": "yes",
    "addr:country": "PT",
    "authentication:membership_card": "yes",
    "authentication:none": "no",
    "capacity": "2",
    "fee": "yes",
    "maxstay": "unlimited",
    "motorcar": "yes",
    "name": "VRL-00013 - KFC",
    "network": "Mobi.E",
    "opening_hours": "24/7",
    "operator": "EDP Comercial",
    "parking:fee": "no",
    "payment:app": "yes",
    "payment:cards": "no",
    "payment:cash": "no",
    "payment:membership_card": "yes",
    "planned:amenity": "charging_station",
    "ref": "VRL-00013",
    "socket:chademo": "1",
    "socket:chademo:current": "125",
    "socket:chademo:output": "60kW",
    "socket:chademo:voltage": "500",
    "socket:type2_combo": "1",
    "socket:type2_combo:current": "200",
    "socket:type2_combo:output": "120kW",
    "socket:type2_combo:voltage": "950",
    "website": "https://www.mobie.pt/"
  }
},
{
  "type": "node",
  "id": 10215848699,
  "lat": 41.3416441,
  "lon": -6.9624306,
  "tags": {
    "access": "yes",
    "addr:country": "PT",
    "authentication:membership_card": "yes",
    "authentication:none": "no",
    "capacity": "2",
    "fee": "yes",
    "maxstay": "unlimited",
    "motorcar": "yes",
    "name": "AFE-00002",
    "network": "Mobi.E",
    "opening_hours": "24/7",
    "operator": "EDP Comercial",
    "parking:fee": "no",
    "payment:app": "yes",
    "payment:cards": "no",
    "payment:cash": "no",
    "payment:membership_card": "yes",
    "planned:amenity": "charging_station",
    "ref": "AFE-00002",
    "socket:chademo": "1",
    "socket:chademo:current": "120",
    "socket:chademo:output": "50kW",
    "socket:chademo:voltage": "500",
    "socket:type2": "2",
    "socket:type2:current": "32",
    "socket:type2:output": "22kW",
    "socket:type2:voltage": "400",
    "socket:type2_cable": "1",
    "socket:type2_cable:current": "63",
    "socket:type2_cable:output": "43kW",
    "socket:type2_cable:voltage": "400",
    "socket:type2_combo": "1",
    "socket:type2_combo:current": "125",
    "socket:type2_combo:output": "50kW",
    "socket:type2_combo:voltage": "500",
    "website": "https://www.mobie.pt/"
  }
},
{
  "type": "node",
  "id": 10215848702,
  "lat": 41.3073924,
  "lon": -7.1536430,
  "tags": {
    "access": "yes",
    "addr:country": "PT",
    "authentication:membership_card": "yes",
    "authentication:none": "no",
    "capacity": "2",
    "fee": "yes",
    "maxstay": "unlimited",
    "motorcar": "yes",
    "name": "VFL-00002",
    "network": "Mobi.E",
    "opening_hours": "24/7",
    "operator": "EDP Comercial",
    "parking:fee": "no",
    "payment:app": "yes",
    "payment:cards": "no",
    "payment:cash": "no",
    "payment:membership_card": "yes",
    "planned:amenity": "charging_station",
    "ref": "VFL-00002",
    "socket:chademo": "1",
    "socket:chademo:current": "120",
    "socket:chademo:output": "50kW",
    "socket:chademo:voltage": "500",
    "socket:type2_cable": "1",
    "socket:type2_cable:current": "63",
    "socket:type2_cable:output": "43kW",
    "socket:type2_cable:voltage": "400",
    "socket:type2_combo": "1",
    "socket:type2_combo:current": "125",
    "socket:type2_combo:output": "50kW",
    "socket:type2_combo:voltage": "500",
    "website": "https://www.mobie.pt/"
  }
},
{
  "type": "node",
  "id": 10215848703,
  "lat": 41.5895300,
  "lon": -6.5278670,
  "tags": {
    "access": "yes",
    "addr:country": "PT",
    "authentication:membership_card": "yes",
    "authentication:none": "no",
    "capacity": "2",
    "fee": "yes",
    "maxstay": "unlimited",
    "motorcar": "yes",
    "name": "VMS-00002",
    "network": "Mobi.E",
    "opening_hours": "24/7",
    "operator": "EDP Comercial",
    "parking:fee": "no",
    "payment:app": "yes",
    "payment:cards": "no",
    "payment:cash": "no",
    "payment:membership_card": "yes",
    "planned:amenity": "charging_station",
    "ref": "VMS-00002",
    "socket:chademo": "1",
    "socket:chademo:current": "120",
    "socket:chademo:output": "50kW",
    "socket:chademo:voltage": "500",
    "socket:type2_cable": "1",
    "socket:type2_cable:current": "63",
    "socket:type2_cable:output": "43kW",
    "socket:type2_cable:voltage": "400",
    "socket:type2_combo": "1",
    "socket:type2_combo:current": "125",
    "socket:type2_combo:output": "50kW",
    "socket:type2_combo:voltage": "500",
    "website": "https://www.mobie.pt/"
  }
},
{
  "type": "node",
  "id": 10217456273,
  "lat": 38.7263286,
  "lon": -9.1485234,
  "tags": {
    "access": "private",
    "addr:country": "PT",
    "authentication:membership_card": "yes",
    "authentication:none": "no",
    "capacity": "2",
    "fee": "yes",
    "maxstay": "unlimited",
    "motorcar": "yes",
    "name": "LSB-00542",
    "network": "Mobi.E",
    "opening_hours": "24/7",
    "operator": "EDP Comercial",
    "parking:fee": "yes",
    "payment:app": "yes",
    "payment:cards": "no",
    "payment:cash": "no",
    "payment:membership_card": "yes",
    "planned:amenity": "charging_station",
    "ref": "LSB-00542",
    "socket:type2": "2",
    "socket:type2:current": "32",
    "socket:type2:output": "22kW",
    "socket:type2:voltage": "400",
    "website": "https://www.mobie.pt/"
  }
},
{
  "type": "node",
  "id": 10218086015,
  "lat": 38.7656653,
  "lon": -9.1874747,
  "tags": {
    "access": "yes",
    "addr:country": "PT",
    "authentication:membership_card": "yes",
    "authentication:none": "no",
    "capacity": "4",
    "fee": "yes",
    "maxstay": "unlimited",
    "motorcar": "yes",
    "name": "LSB-00512/513",
    "network": "Mobi.E",
    "opening_hours": "24/7",
    "operator": "Powerdot",
    "parking:fee": "no",
    "payment:app": "yes",
    "payment:cards": "no",
    "payment:cash": "no",
    "payment:membership_card": "yes",
    "planned:amenity": "charging_station",
    "ref": "LSB-00512;LSB-00513",
    "socket:type2": "4",
    "socket:type2:current": "32",
    "socket:type2:output": "22kW",
    "socket:type2:voltage": "400",
    "website": "https://www.mobie.pt/"
  }
},
{
  "type": "node",
  "id": 10229505394,
  "lat": 41.0932090,
  "lon": -7.1403021,
  "tags": {
    "access": "customers",
    "addr:country": "PT",
    "authentication:membership_card": "yes",
    "authentication:none": "no",
    "capacity": "2",
    "fee": "yes",
    "maxstay": "unlimited",
    "motorcar": "yes",
    "name": "VLF-00003 - Pousada da Juventude",
    "network": "Mobi.E",
    "opening_hours": "24/7",
    "operator": "E-Plug",
    "parking:fee": "no",
    "payment:app": "yes",
    "payment:cards": "no",
    "payment:cash": "no",
    "payment:membership_card": "yes",
    "planned:amenity": "charging_station",
    "ref": "VLF-00003",
    "socket:type2": "2",
    "socket:type2:current": "32",
    "socket:type2:output": "22kW",
    "socket:type2:voltage": "400",
    "website": "https://www.mobie.pt/"
  }
},
{
  "type": "node",
  "id": 10229505399,
  "lat": 40.1528256,
  "lon": -8.8601044,
  "tags": {
    "access": "yes",
    "addr:country": "PT",
    "authentication:membership_card": "yes",
    "authentication:none": "no",
    "capacity": "2",
    "fee": "yes",
    "maxstay": "unlimited",
    "motorcar": "yes",
    "name": "FIG-00016",
    "network": "Mobi.E",
    "opening_hours": "24/7",
    "operator": "EV Power",
    "parking:fee": "no",
    "payment:app": "yes",
    "payment:cards": "no",
    "payment:cash": "no",
    "payment:membership_card": "yes",
    "planned:amenity": "charging_station",
    "ref": "FIG-00016",
    "socket:type2": "2",
    "socket:type2:current": "32",
    "socket:type2:output": "22kW",
    "socket:type2:voltage": "400",
    "website": "https://www.mobie.pt/"
  }
},
{
  "type": "node",
  "id": 10229505400,
  "lat": 39.4576200,
  "lon": -8.1953680,
  "tags": {
    "access": "yes",
    "addr:country": "PT",
    "authentication:membership_card": "yes",
    "authentication:none": "no",
    "capacity": "2",
    "fee": "yes",
    "maxstay": "unlimited",
    "motorcar": "yes",
    "name": "ABT-00007 - Pousada da Juventude",
    "network": "Mobi.E",
    "opening_hours": "24/7",
    "operator": "E-Plug",
    "parking:fee": "no",
    "payment:app": "yes",
    "payment:cards": "no",
    "payment:cash": "no",
    "payment:membership_card": "yes",
    "planned:amenity": "charging_station",
    "ref": "ABT-00007",
    "socket:type2": "2",
    "socket:type2:current": "32",
    "socket:type2:output": "22kW",
    "socket:type2:voltage": "400",
    "website": "https://www.mobie.pt/"
  }
},
{
  "type": "node",
  "id": 10246674405,
  "lat": 37.0771010,
  "lon": -8.1023710,
  "tags": {
    "access": "yes",
    "addr:country": "PT",
    "authentication:membership_card": "yes",
    "authentication:none": "no",
    "capacity": "2",
    "fee": "yes",
    "maxstay": "unlimited",
    "motorcar": "yes",
    "name": "LLE-00115",
    "network": "Mobi.E",
    "opening_hours": "24/7",
    "operator": "Galp Power",
    "parking:fee": "no",
    "payment:app": "yes",
    "payment:cards": "no",
    "payment:cash": "no",
    "payment:membership_card": "yes",
    "planned:amenity": "charging_station",
    "ref": "LLE-00115",
    "socket:chademo": "1",
    "socket:chademo:current": "120",
    "socket:chademo:output": "60kW",
    "socket:chademo:voltage": "500",
    "socket:type2_combo": "1",
    "socket:type2_combo:current": "250",
    "socket:type2_combo:output": "100kW",
    "socket:type2_combo:voltage": "950",
    "website": "https://www.mobie.pt/"
  }
},
{
  "type": "node",
  "id": 10269351078,
  "lat": 39.9223531,
  "lon": -8.6291818,
  "tags": {
    "access": "yes",
    "authentication:membership_card": "yes",
    "authentication:none": "no",
    "capacity": "2",
    "fee": "yes",
    "maxstay": "unlimited",
    "motorcar": "yes",
    "name": "PBL-00011 - Repsol",
    "network": "Mobi.E",
    "opening_hours": "24/7",
    "operator": "Repsol",
    "parking:fee": "no",
    "payment:app": "yes",
    "payment:cards": "no",
    "payment:cash": "no",
    "payment:membership_card": "yes",
    "planned:amenity": "charging_station",
    "ref": "PBL-00011",
    "socket:chademo": "1",
    "socket:chademo:current": "125",
    "socket:chademo:output": "50kW",
    "socket:chademo:voltage": "500",
    "socket:type2_cable": "1",
    "socket:type2_cable:current": "32",
    "socket:type2_cable:output": "22kW",
    "socket:type2_cable:voltage": "400",
    "socket:type2_combo": "1",
    "socket:type2_combo:current": "150",
    "socket:type2_combo:output": "60kW",
    "socket:type2_combo:voltage": "920",
    "website": "https://www.mobie.pt/"
  }
},
{
  "type": "node",
  "id": 10269351079,
  "lat": 39.0240667,
  "lon": -8.9749222,
  "tags": {
    "access": "yes",
    "authentication:membership_card": "yes",
    "authentication:none": "no",
    "capacity": "2",
    "fee": "yes",
    "maxstay": "unlimited",
    "motorcar": "yes",
    "name": "ALQ-00007 - Repsol",
    "network": "Mobi.E",
    "opening_hours": "24/7",
    "operator": "Repsol",
    "parking:fee": "no",
    "payment:app": "yes",
    "payment:cards": "no",
    "payment:cash": "no",
    "payment:membership_card": "yes",
    "planned:amenity": "charging_station",
    "ref": "ALQ-00007",
    "socket:chademo": "1",
    "socket:chademo:current": "125",
    "socket:chademo:output": "50kW",
    "socket:chademo:voltage": "500",
    "socket:type2_cable": "1",
    "socket:type2_cable:current": "32",
    "socket:type2_cable:output": "22kW",
    "socket:type2_cable:voltage": "400",
    "socket:type2_combo": "1",
    "socket:type2_combo:current": "150",
    "socket:type2_combo:output": "60kW",
    "socket:type2_combo:voltage": "920",
    "website": "https://www.mobie.pt/"
  }
},
{
  "type": "node",
  "id": 10269351080,
  "lat": 39.1445912,
  "lon": -9.0228321,
  "tags": {
    "access": "yes",
    "addr:country": "PT",
    "authentication:membership_card": "yes",
    "authentication:none": "no",
    "capacity": "2",
    "fee": "yes",
    "maxstay": "unlimited",
    "motorcar": "yes",
    "name": "ALQ-00008 - Intermarché",
    "network": "Mobi.E",
    "opening_hours": "24/7",
    "operator": "Powerdot",
    "parking:fee": "no",
    "payment:app": "yes",
    "payment:cards": "no",
    "payment:cash": "no",
    "payment:membership_card": "yes",
    "planned:amenity": "charging_station",
    "ref": "ALQ-00008",
    "socket:chademo": "1",
    "socket:chademo:current": "125",
    "socket:chademo:output": "60kW",
    "socket:chademo:voltage": "500",
    "socket:type2": "1",
    "socket:type2:current": "32",
    "socket:type2:output": "22kW",
    "socket:type2:voltage": "400",
    "socket:type2_combo": "1",
    "socket:type2_combo:current": "250",
    "socket:type2_combo:output": "100kW",
    "socket:type2_combo:voltage": "920",
    "website": "https://www.mobie.pt/"
  }
},
{
  "type": "node",
  "id": 10282402310,
  "lat": 40.6514640,
  "lon": -8.6085765,
  "tags": {
    "access": "yes",
    "authentication:membership_card": "yes",
    "authentication:none": "no",
    "capacity": "2",
    "fee": "yes",
    "maxstay": "unlimited",
    "motorcar": "yes",
    "name": "AVR-00041 - Repsol",
    "network": "Mobi.E",
    "opening_hours": "24/7",
    "operator": "Repsol",
    "parking:fee": "no",
    "payment:app": "yes",
    "payment:cards": "no",
    "payment:cash": "no",
    "payment:membership_card": "yes",
    "planned:amenity": "charging_station",
    "ref": "AVR-00041",
    "socket:chademo": "1",
    "socket:chademo:current": "125",
    "socket:chademo:output": "50kW",
    "socket:chademo:voltage": "500",
    "socket:type2_cable": "1",
    "socket:type2_cable:current": "32",
    "socket:type2_cable:output": "22kW",
    "socket:type2_cable:voltage": "400",
    "socket:type2_combo": "1",
    "socket:type2_combo:current": "150",
    "socket:type2_combo:output": "60kW",
    "socket:type2_combo:voltage": "920",
    "website": "https://www.mobie.pt/"
  }
},
{
  "type": "node",
  "id": 10282402312,
  "lat": 38.7390080,
  "lon": -9.2024515,
  "tags": {
    "access": "yes",
    "authentication:membership_card": "yes",
    "authentication:none": "no",
    "capacity": "2",
    "fee": "yes",
    "maxstay": "unlimited",
    "motorcar": "yes",
    "name": "LSB-00553 - Repsol",
    "network": "Mobi.E",
    "opening_hours": "24/7",
    "operator": "Repsol",
    "parking:fee": "no",
    "payment:app": "yes",
    "payment:cards": "no",
    "payment:cash": "no",
    "payment:membership_card": "yes",
    "planned:amenity": "charging_station",
    "ref": "LSB-00553",
    "socket:chademo": "1",
    "socket:chademo:current": "125",
    "socket:chademo:output": "50kW",
    "socket:chademo:voltage": "500",
    "socket:type2_cable": "1",
    "socket:type2_cable:current": "32",
    "socket:type2_cable:output": "22kW",
    "socket:type2_cable:voltage": "400",
    "socket:type2_combo": "1",
    "socket:type2_combo:current": "150",
    "socket:type2_combo:output": "60kW",
    "socket:type2_combo:voltage": "920",
    "website": "https://www.mobie.pt/"
  }
},
{
  "type": "node",
  "id": 10297231606,
  "lat": 37.1033340,
  "lon": -8.2335384,
  "tags": {
    "access": "yes",
    "addr:country": "PT",
    "authentication:membership_card": "yes",
    "authentication:none": "no",
    "capacity": "2",
    "fee": "yes",
    "maxstay": "unlimited",
    "motorcar": "yes",
    "name": "ABF-00041 - HPP",
    "network": "Mobi.E",
    "opening_hours": "24/7",
    "operator": "Mobiletric",
    "parking:fee": "no",
    "payment:app": "yes",
    "payment:cards": "no",
    "payment:cash": "no",
    "payment:membership_card": "yes",
    "planned:amenity": "charging_station",
    "ref": "ABF-00041",
    "socket:type2": "2",
    "socket:type2:current": "16",
    "socket:type2:output": "11kW",
    "socket:type2:voltage": "400",
    "website": "https://www.mobie.pt/"
  }
},
{
  "type": "node",
  "id": 10297249045,
  "lat": 39.3752430,
  "lon": -9.1392230,
  "tags": {
    "access": "yes",
    "addr:country": "PT",
    "authentication:membership_card": "yes",
    "authentication:none": "no",
    "brand": "Ionity",
    "brand:wikidata": "Q42717773",
    "capacity": "4",
    "fee": "yes",
    "maxstay": "unlimited",
    "motorcar": "yes",
    "name": "OBD-XXXXX/XX/XX/XX - Ionity",
    "network": "Mobi.E",
    "opening_hours": "24/7",
    "operator": "Ionity",
    "parking:fee": "no",
    "payment:app": "yes",
    "payment:cards": "no",
    "payment:cash": "no",
    "payment:membership_card": "yes",
    "planned:amenity": "charging_station",
    "ref": "OBD-XXXXX;OBD-XXXXX;OBD-XXXXX;OBD-XXXXX",
    "socket:type2_combo": "4",
    "socket:type2_combo:current": "500",
    "socket:type2_combo:output": "350kW",
    "socket:type2_combo:voltage": "920",
    "website": "https://www.mobie.pt"
  }
},
{
  "type": "node",
  "id": 10297334788,
  "lat": 38.7508515,
  "lon": -9.3047011,
  "tags": {
    "access": "yes",
    "authentication:membership_card": "yes",
    "authentication:none": "no",
    "capacity": "2",
    "fee": "yes",
    "maxstay": "unlimited",
    "motorcar": "yes",
    "name": "OER-XXXXX - BP",
    "network": "Mobi.E",
    "opening_hours": "24/7",
    "operator": "EDP Comercial",
    "parking:fee": "no",
    "payment:app": "yes",
    "payment:cards": "no",
    "payment:cash": "no",
    "payment:membership_card": "yes",
    "planned:amenity": "charging_station",
    "ref": "OER-XXXXX",
    "socket:chademo": "1",
    "socket:chademo:current": "125",
    "socket:chademo:output": "50kW",
    "socket:chademo:voltage": "500",
    "socket:type2_cable": "1",
    "socket:type2_cable:current": "32",
    "socket:type2_cable:output": "22kW",
    "socket:type2_cable:voltage": "400",
    "socket:type2_combo": "1",
    "socket:type2_combo:current": "125",
    "socket:type2_combo:output": "50kW",
    "socket:type2_combo:voltage": "500",
    "website": "https://www.mobie.pt/"
  }
},
{
  "type": "node",
  "id": 10300355543,
  "lat": 39.4254350,
  "lon": -9.1616500,
  "tags": {
    "access": "yes",
    "addr:country": "PT",
    "authentication:membership_card": "yes",
    "authentication:none": "no",
    "capacity": "2",
    "fee": "yes",
    "maxstay": "unlimited",
    "motorcar": "yes",
    "name": "CLD-00021 - Via-Atlântica",
    "network": "Mobi.E",
    "opening_hours": "24/7",
    "operator": "Powerdot",
    "parking:fee": "no",
    "payment:app": "yes",
    "payment:cards": "no",
    "payment:cash": "no",
    "payment:membership_card": "yes",
    "planned:amenity": "charging_station",
    "ref": "CLD-00021",
    "socket:chademo": "1",
    "socket:chademo:current": "120",
    "socket:chademo:output": "60kW",
    "socket:chademo:voltage": "500",
    "socket:type2_combo": "1",
    "socket:type2_combo:current": "190",
    "socket:type2_combo:output": "180kW",
    "socket:type2_combo:voltage": "950",
    "website": "https://www.mobie.pt/"
  }
},
{
  "type": "node",
  "id": 10553244015,
  "lat": 38.5543549,
  "lon": -7.9150787,
  "tags": {
    "access": "yes",
    "addr:country": "PT",
    "authentication:membership_card": "yes",
    "authentication:none": "no",
    "capacity": "2",
    "fee": "yes",
    "maxstay": "unlimited",
    "motorcar": "yes",
    "name": "EVR-00027 - Burger King",
    "network": "Mobi.E",
    "opening_hours": "24/7",
    "operator": "EDP Comercial",
    "parking:fee": "no",
    "payment:app": "yes",
    "payment:cards": "no",
    "payment:cash": "no",
    "payment:membership_card": "yes",
    "planned:amenity": "charging_station",
    "ref": "EVR-00027",
    "socket:chademo": "1",
    "socket:chademo:current": "120",
    "socket:chademo:output": "60kW",
    "socket:chademo:voltage": "500",
    "socket:type2_combo": "1",
    "socket:type2_combo:current": "200",
    "socket:type2_combo:output": "120kW",
    "socket:type2_combo:voltage": "950",
    "website": "https://www.mobie.pt/"
  }
},
{
  "type": "node",
  "id": 10571690793,
  "lat": 40.5414730,
  "lon": -7.2607680,
  "tags": {
    "access": "yes",
    "authentication:membership_card": "yes",
    "authentication:none": "no",
    "capacity": "2",
    "fee": "yes",
    "maxstay": "unlimited",
    "motorcar": "yes",
    "name": "GRD-00019 - Repsol",
    "network": "Mobi.E",
    "opening_hours": "24/7",
    "operator": "Repsol",
    "parking:fee": "no",
    "payment:app": "yes",
    "payment:cards": "no",
    "payment:cash": "no",
    "payment:membership_card": "yes",
    "planned:amenity": "charging_station",
    "ref": "GRD-00019",
    "socket:chademo": "1",
    "socket:chademo:current": "125",
    "socket:chademo:output": "50kW",
    "socket:chademo:voltage": "500",
    "socket:type2_cable": "1",
    "socket:type2_cable:current": "32",
    "socket:type2_cable:output": "22kW",
    "socket:type2_cable:voltage": "400",
    "socket:type2_combo": "1",
    "socket:type2_combo:current": "150",
    "socket:type2_combo:output": "60kW",
    "socket:type2_combo:voltage": "920",
    "website": "https://www.mobie.pt/"
  }
},
{
  "type": "node",
  "id": 10571690794,
  "lat": 38.7136870,
  "lon": -9.3856746,
  "tags": {
    "access": "yes",
    "addr:country": "PT",
    "authentication:membership_card": "yes",
    "authentication:none": "no",
    "capacity": "2",
    "email": "mobilidade-eletrica@edp.pt",
    "fee": "yes",
    "maxstay": "unlimited",
    "motorcar": "yes",
    "name": "CSC-00120 - McDonald's",
    "network": "Mobi.E",
    "opening_hours": "24/7",
    "operator": "EDP Comercial",
    "parking:fee": "no",
    "payment:app": "yes",
    "payment:cards": "no",
    "payment:cash": "no",
    "payment:membership_card": "yes",
    "phone": "+351 800 222 222",
    "planned:amenity": "charging_station",
    "ref": "CSC-00120",
    "socket:chademo": "1",
    "socket:chademo:current": "125",
    "socket:chademo:output": "30kW",
    "socket:chademo:voltage": "500",
    "socket:type2": "1",
    "socket:type2:current": "32",
    "socket:type2:output": "22kW",
    "socket:type2:voltage": "400",
    "socket:type2_combo": "1",
    "socket:type2_combo:current": "200",
    "socket:type2_combo:output": "60kW",
    "socket:type2_combo:voltage": "950",
    "website": "https://www.mobie.pt"
  }
},
{
  "type": "node",
  "id": 10571690795,
  "lat": 41.0480330,
  "lon": -8.6280740,
  "tags": {
    "access": "yes",
    "authentication:membership_card": "yes",
    "authentication:none": "no",
    "capacity": "2",
    "fee": "yes",
    "maxstay": "unlimited",
    "motorcar": "yes",
    "name": "VNG-00101 - Repsol",
    "network": "Mobi.E",
    "opening_hours": "24/7",
    "operator": "Repsol",
    "parking:fee": "no",
    "payment:app": "yes",
    "payment:cards": "no",
    "payment:cash": "no",
    "payment:membership_card": "yes",
    "planned:amenity": "charging_station",
    "ref": "VNG-00101",
    "socket:chademo": "1",
    "socket:chademo:current": "125",
    "socket:chademo:output": "50kW",
    "socket:chademo:voltage": "500",
    "socket:type2_cable": "1",
    "socket:type2_cable:current": "32",
    "socket:type2_cable:output": "22kW",
    "socket:type2_cable:voltage": "400",
    "socket:type2_combo": "1",
    "socket:type2_combo:current": "150",
    "socket:type2_combo:output": "60kW",
    "socket:type2_combo:voltage": "920",
    "website": "https://www.mobie.pt/"
  }
},
{
  "type": "node",
  "id": 10572522105,
  "lat": 40.2274010,
  "lon": -8.4462290,
  "tags": {
    "access": "yes",
    "authentication:membership_card": "yes",
    "authentication:none": "no",
    "capacity": "2",
    "fee": "yes",
    "maxstay": "unlimited",
    "motorcar": "yes",
    "name": "CBR-00072 - Repsol",
    "network": "Mobi.E",
    "opening_hours": "24/7",
    "operator": "Repsol",
    "parking:fee": "no",
    "payment:app": "yes",
    "payment:cards": "no",
    "payment:cash": "no",
    "payment:membership_card": "yes",
    "planned:amenity": "charging_station",
    "ref": "CBR-00072",
    "socket:chademo": "1",
    "socket:chademo:current": "125",
    "socket:chademo:output": "50kW",
    "socket:chademo:voltage": "500",
    "socket:type2_cable": "1",
    "socket:type2_cable:current": "32",
    "socket:type2_cable:output": "22kW",
    "socket:type2_cable:voltage": "400",
    "socket:type2_combo": "1",
    "socket:type2_combo:current": "150",
    "socket:type2_combo:output": "60kW",
    "socket:type2_combo:voltage": "920",
    "website": "https://www.mobie.pt/"
  }
},
{
  "type": "node",
  "id": 10572522106,
  "lat": 40.6106460,
  "lon": -6.8304460,
  "tags": {
    "access": "yes",
    "authentication:membership_card": "yes",
    "authentication:none": "no",
    "capacity": "2",
    "fee": "yes",
    "maxstay": "unlimited",
    "motorcar": "yes",
    "name": "GRD-00018 - Repsol",
    "network": "Mobi.E",
    "opening_hours": "24/7",
    "operator": "Repsol",
    "parking:fee": "no",
    "payment:app": "yes",
    "payment:cards": "no",
    "payment:cash": "no",
    "payment:membership_card": "yes",
    "planned:amenity": "charging_station",
    "ref": "GRD-00018",
    "socket:chademo": "1",
    "socket:chademo:current": "125",
    "socket:chademo:output": "50kW",
    "socket:chademo:voltage": "500",
    "socket:type2_cable": "1",
    "socket:type2_cable:current": "32",
    "socket:type2_cable:output": "22kW",
    "socket:type2_cable:voltage": "400",
    "socket:type2_combo": "1",
    "socket:type2_combo:current": "150",
    "socket:type2_combo:output": "60kW",
    "socket:type2_combo:voltage": "920",
    "website": "https://www.mobie.pt/"
  }
},
{
  "type": "node",
  "id": 10589884560,
  "lat": 40.1899484,
  "lon": -7.4879584,
  "tags": {
    "access": "yes",
    "addr:country": "PT",
    "authentication:membership_card": "yes",
    "authentication:none": "no",
    "capacity": "2",
    "fee": "yes",
    "maxstay": "unlimited",
    "motorcar": "yes",
    "name": "FND-00011",
    "network": "Mobi.E",
    "opening_hours": "24/7",
    "operator": "Cepsa",
    "parking:fee": "no",
    "payment:app": "yes",
    "payment:cards": "no",
    "payment:cash": "no",
    "payment:membership_card": "yes",
    "planned:amenity": "charging_station",
    "ref": "FND-00011",
    "socket:type2_combo": "1",
    "socket:type2_combo:current": "250",
    "socket:type2_combo:output": "100kW",
    "socket:type2_combo:voltage": "950",
    "website": "https://www.mobie.pt/"
  }
},
{
  "type": "node",
  "id": 10589884561,
  "lat": 40.1908633,
  "lon": -7.4862203,
  "tags": {
    "access": "yes",
    "addr:country": "PT",
    "authentication:membership_card": "yes",
    "authentication:none": "no",
    "capacity": "2",
    "fee": "yes",
    "maxstay": "unlimited",
    "motorcar": "yes",
    "name": "FND-00012",
    "network": "Mobi.E",
    "opening_hours": "24/7",
    "operator": "Cepsa",
    "parking:fee": "no",
    "payment:app": "yes",
    "payment:cards": "no",
    "payment:cash": "no",
    "payment:membership_card": "yes",
    "planned:amenity": "charging_station",
    "ref": "FND-00012",
    "socket:type2_combo": "1",
    "socket:type2_combo:current": "250",
    "socket:type2_combo:output": "100kW",
    "socket:type2_combo:voltage": "950",
    "website": "https://www.mobie.pt/"
  }
},
{
  "type": "node",
  "id": 10589884562,
  "lat": 39.4159468,
  "lon": -7.4561369,
  "tags": {
    "access": "yes",
    "addr:country": "PT",
    "authentication:membership_card": "yes",
    "authentication:none": "no",
    "capacity": "2",
    "email": "suporte@evpower.pt",
    "fee": "yes",
    "maxstay": "unlimited",
    "motorcar": "yes",
    "name": "CVD-00003",
    "network": "Mobi.E",
    "opening_hours": "24/7",
    "operator": "EV Power",
    "parking:fee": "no",
    "payment:app": "yes",
    "payment:cards": "no",
    "payment:cash": "no",
    "payment:membership_card": "yes",
    "planned:amenity": "charging_station",
    "ref": "CVD-00003",
    "socket:type2": "2",
    "socket:type2:current": "32",
    "socket:type2:output": "22kW",
    "socket:type2:voltage": "400",
    "website": "https://www.mobie.pt"
  }
},
{
  "type": "node",
  "id": 10589884563,
  "lat": 41.4483971,
  "lon": -8.3427349,
  "tags": {
    "access": "yes",
    "addr:country": "PT",
    "authentication:membership_card": "yes",
    "authentication:none": "no",
    "capacity": "2",
    "fee": "yes",
    "maxstay": "unlimited",
    "motorcar": "yes",
    "name": "GMR-00095",
    "network": "Mobi.E",
    "opening_hours": "24/7",
    "operator": "EDP Comercial",
    "parking:fee": "no",
    "payment:app": "yes",
    "payment:cards": "no",
    "payment:cash": "no",
    "payment:membership_card": "yes",
    "planned:amenity": "charging_station",
    "ref": "GMR-00095",
    "socket:chademo": "1",
    "socket:chademo:current": "120",
    "socket:chademo:output": "50kW",
    "socket:chademo:voltage": "500",
    "socket:type2_cable": "1",
    "socket:type2_cable:current": "32",
    "socket:type2_cable:output": "22kW",
    "socket:type2_cable:voltage": "400",
    "socket:type2_combo": "1",
    "socket:type2_combo:current": "125",
    "socket:type2_combo:output": "50kW",
    "socket:type2_combo:voltage": "500",
    "website": "https://www.mobie.pt/"
  }
},
{
  "type": "node",
  "id": 10589884564,
  "lat": 41.4483539,
  "lon": -8.3427148,
  "tags": {
    "access": "yes",
    "addr:country": "PT",
    "authentication:membership_card": "yes",
    "authentication:none": "no",
    "capacity": "4",
    "fee": "yes",
    "maxstay": "unlimited",
    "motorcar": "yes",
    "name": "GMR-00093/94",
    "network": "Mobi.E",
    "opening_hours": "24/7",
    "operator": "EDP Comercial",
    "parking:fee": "no",
    "payment:app": "yes",
    "payment:cards": "no",
    "payment:cash": "no",
    "payment:membership_card": "yes",
    "planned:amenity": "charging_station",
    "ref": "GMR-00093;GMR-00094",
    "socket:type2": "4",
    "socket:type2:current": "32",
    "socket:type2:output": "7.4kW",
    "socket:type2:voltage": "230",
    "website": "https://www.mobie.pt/"
  }
},
{
  "type": "node",
  "id": 10589884565,
  "lat": 41.4483045,
  "lon": -8.3426661,
  "tags": {
    "access": "yes",
    "addr:country": "PT",
    "authentication:membership_card": "yes",
    "authentication:none": "no",
    "capacity": "2",
    "fee": "yes",
    "maxstay": "unlimited",
    "motorcar": "yes",
    "name": "GMR-00092",
    "network": "Mobi.E",
    "opening_hours": "24/7",
    "operator": "EDP Comercial",
    "parking:fee": "no",
    "payment:app": "yes",
    "payment:cards": "no",
    "payment:cash": "no",
    "payment:membership_card": "yes",
    "planned:amenity": "charging_station",
    "ref": "GMR-00092",
    "socket:type2": "2",
    "socket:type2:current": "32",
    "socket:type2:output": "22kW",
    "socket:type2:voltage": "400",
    "website": "https://www.mobie.pt/"
  }
},
{
  "type": "node",
  "id": 10604939077,
  "lat": 38.5764001,
  "lon": -7.9152397,
  "tags": {
    "access": "yes",
    "addr:country": "PT",
    "authentication:membership_card": "yes",
    "authentication:none": "no",
    "capacity": "2",
    "fee": "yes",
    "maxstay": "unlimited",
    "motorcar": "yes",
    "name": "EVR-XXXXX",
    "network": "Mobi.E",
    "opening_hours": "24/7",
    "operator": "unknown",
    "parking:fee": "no",
    "payment:app": "yes",
    "payment:cards": "no",
    "payment:cash": "no",
    "payment:membership_card": "yes",
    "planned:amenity": "charging_station",
    "ref": "EVR-XXXXX",
    "socket:chademo": "1",
    "socket:chademo:current": "125",
    "socket:chademo:output": "50kW",
    "socket:chademo:voltage": "500",
    "socket:type2_combo": "1",
    "socket:type2_combo:current": "200",
    "socket:type2_combo:output": "180kW",
    "socket:type2_combo:voltage": "950",
    "website": "https://www.mobie.pt/"
  }
},
{
  "type": "node",
  "id": 10605111553,
  "lat": 38.8017699,
  "lon": -9.3769223,
  "tags": {
    "access": "yes",
    "addr:country": "PT",
    "authentication:membership_card": "yes",
    "authentication:none": "no",
    "capacity": "2",
    "fee": "yes",
    "maxstay": "unlimited",
    "motorcar": "yes",
    "name": "SNT-XXXXX",
    "network": "Mobi.E",
    "opening_hours": "24/7",
    "operator": "unknown",
    "parking:fee": "no",
    "payment:app": "yes",
    "payment:cards": "no",
    "payment:cash": "no",
    "payment:membership_card": "yes",
    "planned:amenity": "charging_station",
    "ref": "SNT-XXXXX",
    "socket:chademo": "1",
    "socket:chademo:current": "125",
    "socket:chademo:output": "50kW",
    "socket:chademo:voltage": "500",
    "socket:type2_combo": "1",
    "socket:type2_combo:current": "200",
    "socket:type2_combo:output": "160kW",
    "socket:type2_combo:voltage": "950",
    "website": "https://www.mobie.pt/"
  }
},
{
  "type": "node",
  "id": 10605111554,
  "lat": 41.6430121,
  "lon": -8.7710275,
  "tags": {
    "access": "yes",
    "addr:country": "PT",
    "authentication:membership_card": "yes",
    "authentication:none": "no",
    "capacity": "2",
    "fee": "yes",
    "maxstay": "unlimited",
    "motorcar": "yes",
    "name": "VCT-XXXXX",
    "network": "Mobi.E",
    "opening_hours": "24/7",
    "operator": "unknown",
    "parking:fee": "no",
    "payment:app": "yes",
    "payment:cards": "no",
    "payment:cash": "no",
    "payment:membership_card": "yes",
    "planned:amenity": "charging_station",
    "ref": "VCT-XXXXX",
    "socket:chademo": "1",
    "socket:chademo:current": "125",
    "socket:chademo:output": "50kW",
    "socket:chademo:voltage": "500",
    "socket:type2_combo": "1",
    "socket:type2_combo:current": "200",
    "socket:type2_combo:output": "160kW",
    "socket:type2_combo:voltage": "950",
    "website": "https://www.mobie.pt/"
  }
},
{
  "type": "node",
  "id": 10605859723,
  "lat": 40.2527821,
  "lon": -8.4248880,
  "tags": {
    "access": "yes",
    "addr:country": "PT",
    "authentication:membership_card": "yes",
    "authentication:none": "no",
    "capacity": "2",
    "fee": "yes",
    "maxstay": "unlimited",
    "motorcar": "yes",
    "name": "CBR-00076 - Pingo Doce",
    "network": "Mobi.E",
    "opening_hours": "24/7",
    "operator": "Atlante",
    "parking:fee": "no",
    "payment:app": "yes",
    "payment:cards": "no",
    "payment:cash": "no",
    "payment:membership_card": "yes",
    "planned:amenity": "charging_station",
    "ref": "CBR-00076",
    "socket:chademo": "1",
    "socket:chademo:current": "120",
    "socket:chademo:output": "50kW",
    "socket:chademo:voltage": "500",
    "socket:type2_cable": "1",
    "socket:type2_cable:current": "32",
    "socket:type2_cable:output": "22kW",
    "socket:type2_cable:voltage": "400",
    "socket:type2_combo": "1",
    "socket:type2_combo:current": "125",
    "socket:type2_combo:output": "50kW",
    "socket:type2_combo:voltage": "500",
    "website": "https://www.mobie.pt/"
  }
},
{
  "type": "node",
  "id": 10605859724,
  "lat": 39.3402321,
  "lon": -8.9303453,
  "tags": {
    "access": "yes",
    "addr:country": "PT",
    "authentication:membership_card": "yes",
    "authentication:none": "no",
    "capacity": "2",
    "fee": "yes",
    "maxstay": "unlimited",
    "motorcar": "yes",
    "name": "RMR-00006 - Pingo Doce",
    "network": "Mobi.E",
    "opening_hours": "24/7",
    "operator": "Atlante",
    "parking:fee": "no",
    "payment:app": "yes",
    "payment:cards": "no",
    "payment:cash": "no",
    "payment:membership_card": "yes",
    "planned:amenity": "charging_station",
    "ref": "RMR-00006",
    "socket:chademo": "1",
    "socket:chademo:current": "120",
    "socket:chademo:output": "50kW",
    "socket:chademo:voltage": "500",
    "socket:type2_cable": "1",
    "socket:type2_cable:current": "16",
    "socket:type2_cable:output": "11kW",
    "socket:type2_cable:voltage": "400",
    "socket:type2_combo": "1",
    "socket:type2_combo:current": "125",
    "socket:type2_combo:output": "50kW",
    "socket:type2_combo:voltage": "500",
    "website": "https://www.mobie.pt/"
  }
},
{
  "type": "node",
  "id": 10605859725,
  "lat": 39.0267980,
  "lon": -8.9802200,
  "tags": {
    "access": "yes",
    "addr:country": "PT",
    "authentication:membership_card": "yes",
    "authentication:none": "no",
    "capacity": "2",
    "fee": "yes",
    "maxstay": "unlimited",
    "motorcar": "yes",
    "name": "ALQ-00009 - Pingo Doce",
    "network": "Mobi.E",
    "opening_hours": "24/7",
    "operator": "Atlante",
    "parking:fee": "no",
    "payment:app": "yes",
    "payment:cards": "no",
    "payment:cash": "no",
    "payment:membership_card": "yes",
    "planned:amenity": "charging_station",
    "ref": "ALQ-00009",
    "socket:chademo": "1",
    "socket:chademo:current": "120",
    "socket:chademo:output": "50kW",
    "socket:chademo:voltage": "500",
    "socket:type2_cable": "1",
    "socket:type2_cable:current": "16",
    "socket:type2_cable:output": "11kW",
    "socket:type2_cable:voltage": "400",
    "socket:type2_combo": "1",
    "socket:type2_combo:current": "125",
    "socket:type2_combo:output": "50kW",
    "socket:type2_combo:voltage": "500",
    "website": "https://www.mobie.pt/"
  }
},
{
  "type": "node",
  "id": 10605859727,
  "lat": 40.6528545,
  "lon": -7.9138992,
  "tags": {
    "access": "yes",
    "addr:country": "PT",
    "authentication:membership_card": "yes",
    "authentication:none": "no",
    "capacity": "2",
    "fee": "yes",
    "maxstay": "unlimited",
    "motorcar": "yes",
    "name": "VIS-00047 - Pingo Doce",
    "network": "Mobi.E",
    "opening_hours": "09:00-21:30",
    "operator": "Atlante",
    "parking:fee": "no",
    "payment:app": "yes",
    "payment:cards": "no",
    "payment:cash": "no",
    "payment:membership_card": "yes",
    "planned:amenity": "charging_station",
    "ref": "VIS-00047",
    "socket:chademo": "1",
    "socket:chademo:current": "120",
    "socket:chademo:output": "50kW",
    "socket:chademo:voltage": "500",
    "socket:type2_cable": "1",
    "socket:type2_cable:current": "16",
    "socket:type2_cable:output": "11kW",
    "socket:type2_cable:voltage": "400",
    "socket:type2_combo": "1",
    "socket:type2_combo:current": "125",
    "socket:type2_combo:output": "50kW",
    "socket:type2_combo:voltage": "500",
    "website": "https://www.mobie.pt/"
  }
},
{
  "type": "node",
  "id": 10635089647,
  "lat": 39.4857684,
  "lon": -8.1589875,
  "tags": {
    "access": "yes",
    "addr:country": "PT",
    "authentication:membership_card": "yes",
    "authentication:none": "no",
    "capacity": "2",
    "fee": "yes",
    "maxstay": "unlimited",
    "motorcar": "yes",
    "name": "ABT-00016",
    "network": "Mobi.E",
    "opening_hours": "24/7",
    "operator": "Cepsa",
    "parking:fee": "no",
    "payment:app": "yes",
    "payment:cards": "no",
    "payment:cash": "no",
    "payment:membership_card": "yes",
    "planned:amenity": "charging_station",
    "ref": "ABT-00016",
    "socket:type2_combo": "1",
    "socket:type2_combo:current": "250",
    "socket:type2_combo:output": "100kW",
    "socket:type2_combo:voltage": "950",
    "website": "https://www.mobie.pt/"
  }
},
{
  "type": "node",
  "id": 10635089648,
  "lat": 39.4852668,
  "lon": -8.1550671,
  "tags": {
    "access": "yes",
    "addr:country": "PT",
    "authentication:membership_card": "yes",
    "authentication:none": "no",
    "capacity": "2",
    "fee": "yes",
    "maxstay": "unlimited",
    "motorcar": "yes",
    "name": "ABT-00015",
    "network": "Mobi.E",
    "opening_hours": "24/7",
    "operator": "Cepsa",
    "parking:fee": "no",
    "payment:app": "yes",
    "payment:cards": "no",
    "payment:cash": "no",
    "payment:membership_card": "yes",
    "planned:amenity": "charging_station",
    "ref": "ABT-00015",
    "socket:type2_combo": "1",
    "socket:type2_combo:current": "250",
    "socket:type2_combo:output": "100kW",
    "socket:type2_combo:voltage": "950",
    "website": "https://www.mobie.pt/"
  }
},
{
  "type": "node",
  "id": 10648560879,
  "lat": 41.1082275,
  "lon": -8.5327221,
  "tags": {
    "access": "yes",
    "addr:country": "PT",
    "authentication:membership_card": "yes",
    "authentication:none": "no",
    "capacity": "2",
    "fee": "yes",
    "maxstay": "unlimited",
    "motorcar": "yes",
    "name": "GDM-00020 - Q8",
    "network": "Mobi.E",
    "opening_hours": "24/7",
    "operator": "Powerdot",
    "parking:fee": "no",
    "payment:app": "yes",
    "payment:cards": "no",
    "payment:cash": "no",
    "payment:membership_card": "yes",
    "planned:amenity": "charging_station",
    "ref": "GDM-00020",
    "socket:chademo": "1",
    "socket:chademo:current": "120",
    "socket:chademo:output": "60kW",
    "socket:chademo:voltage": "500",
    "socket:type2": "1",
    "socket:type2:current": "32",
    "socket:type2:output": "22kW",
    "socket:type2:voltage": "400",
    "socket:type2_combo": "1",
    "socket:type2_combo:current": "250",
    "socket:type2_combo:output": "100kW",
    "socket:type2_combo:voltage": "920",
    "website": "https://www.mobie.pt/"
  }
},
{
  "type": "node",
  "id": 10648560880,
  "lat": 41.0580910,
  "lon": -8.5672410,
  "tags": {
    "access": "yes",
    "addr:country": "PT",
    "authentication:membership_card": "yes",
    "authentication:none": "no",
    "capacity": "4",
    "fee": "yes",
    "maxstay": "unlimited",
    "motorcar": "yes",
    "name": "VNG-00102 - Roady",
    "network": "Mobi.E",
    "opening_hours": "24/7",
    "operator": "Powerdot",
    "parking:fee": "no",
    "payment:app": "yes",
    "payment:cards": "no",
    "payment:cash": "no",
    "payment:membership_card": "yes",
    "planned:amenity": "charging_station",
    "ref": "VNG-00102",
    "socket:chademo": "1",
    "socket:chademo:current": "125",
    "socket:chademo:output": "60kW",
    "socket:chademo:voltage": "500",
    "socket:type2_combo": "3",
    "socket:type2_combo:current": "200",
    "socket:type2_combo:output": "80kW",
    "socket:type2_combo:voltage": "500",
    "website": "https://www.mobie.pt"
  }
},
{
  "type": "node",
  "id": 10648560882,
  "lat": 39.4743427,
  "lon": -8.1928868,
  "tags": {
    "access": "yes",
    "addr:country": "PT",
    "authentication:membership_card": "yes",
    "authentication:none": "no",
    "capacity": "4",
    "fee": "yes",
    "maxstay": "unlimited",
    "motorcar": "yes",
    "name": "ABT-00014 - Roady",
    "network": "Mobi.E",
    "opening_hours": "24/7",
    "operator": "Powerdot",
    "parking:fee": "no",
    "payment:app": "yes",
    "payment:cards": "no",
    "payment:cash": "no",
    "payment:membership_card": "yes",
    "planned:amenity": "charging_station",
    "ref": "ABT-00014",
    "socket:chademo": "1",
    "socket:chademo:current": "125",
    "socket:chademo:output": "60kW",
    "socket:chademo:voltage": "500",
    "socket:type2_combo": "3",
    "socket:type2_combo:current": "200",
    "socket:type2_combo:output": "80kW",
    "socket:type2_combo:voltage": "500",
    "website": "https://www.mobie.pt"
  }
},
{
  "type": "node",
  "id": 10648560883,
  "lat": 38.8514757,
  "lon": -9.0762009,
  "tags": {
    "access": "yes",
    "addr:country": "PT",
    "authentication:membership_card": "yes",
    "authentication:none": "no",
    "capacity": "4",
    "fee": "yes",
    "maxstay": "unlimited",
    "motorcar": "yes",
    "name": "LRS-00090 - Roady",
    "network": "Mobi.E",
    "opening_hours": "24/7",
    "operator": "Powerdot",
    "parking:fee": "no",
    "payment:app": "yes",
    "payment:cards": "no",
    "payment:cash": "no",
    "payment:membership_card": "yes",
    "planned:amenity": "charging_station",
    "ref": "LRS-00090",
    "socket:chademo": "1",
    "socket:chademo:current": "125",
    "socket:chademo:output": "60kW",
    "socket:chademo:voltage": "500",
    "socket:type2_combo": "3",
    "socket:type2_combo:current": "200",
    "socket:type2_combo:output": "80kW",
    "socket:type2_combo:voltage": "500",
    "website": "https://www.mobie.pt"
  }
},
{
  "type": "node",
  "id": 10648560884,
  "lat": 41.4271531,
  "lon": -8.2989642,
  "tags": {
    "access": "yes",
    "addr:country": "PT",
    "authentication:membership_card": "yes",
    "authentication:none": "no",
    "capacity": "2",
    "fee": "yes",
    "maxstay": "unlimited",
    "motorcar": "yes",
    "name": "GMR-00063",
    "network": "Mobi.E",
    "opening_hours": "24/7",
    "operator": "Hexagonal Ocean",
    "parking:fee": "no",
    "payment:app": "yes",
    "payment:cards": "no",
    "payment:cash": "no",
    "payment:membership_card": "yes",
    "planned:amenity": "charging_station",
    "ref": "GMR-00063",
    "socket:type2": "2",
    "socket:type2:current": "12",
    "socket:type2:output": "8.3kW",
    "socket:type2:voltage": "400",
    "website": "https://www.mobie.pt/"
  }
},
{
  "type": "node",
  "id": 10648560885,
  "lat": 41.4573746,
  "lon": -8.2875244,
  "tags": {
    "access": "yes",
    "addr:country": "PT",
    "authentication:membership_card": "yes",
    "authentication:none": "no",
    "capacity": "2",
    "fee": "yes",
    "maxstay": "unlimited",
    "motorcar": "yes",
    "name": "GMR-00062",
    "network": "Mobi.E",
    "opening_hours": "24/7",
    "operator": "Hexagonal Ocean",
    "parking:fee": "no",
    "payment:app": "yes",
    "payment:cards": "no",
    "payment:cash": "no",
    "payment:membership_card": "yes",
    "planned:amenity": "charging_station",
    "ref": "GMR-00062",
    "socket:type2": "2",
    "socket:type2:current": "12",
    "socket:type2:output": "8.3kW",
    "socket:type2:voltage": "400",
    "website": "https://www.mobie.pt/"
  }
},
{
  "type": "node",
  "id": 10648560886,
  "lat": 41.4442730,
  "lon": -8.3073776,
  "tags": {
    "access": "yes",
    "addr:country": "PT",
    "authentication:membership_card": "yes",
    "authentication:none": "no",
    "capacity": "2",
    "fee": "yes",
    "maxstay": "unlimited",
    "motorcar": "yes",
    "name": "GMR-00061",
    "network": "Mobi.E",
    "opening_hours": "24/7",
    "operator": "Hexagonal Ocean",
    "parking:fee": "no",
    "payment:app": "yes",
    "payment:cards": "no",
    "payment:cash": "no",
    "payment:membership_card": "yes",
    "planned:amenity": "charging_station",
    "ref": "GMR-00061",
    "socket:type2": "2",
    "socket:type2:current": "12",
    "socket:type2:output": "8.3kW",
    "socket:type2:voltage": "400",
    "website": "https://www.mobie.pt/"
  }
},
{
  "type": "node",
  "id": 10675989049,
  "lat": 37.1129760,
  "lon": -8.6765410,
  "tags": {
    "access": "yes",
    "addr:country": "PT",
    "authentication:membership_card": "yes",
    "authentication:none": "no",
    "capacity": "2",
    "fee": "yes",
    "maxstay": "unlimited",
    "motorcar": "yes",
    "name": "LGS-00023 - Pingo Doce",
    "network": "Mobi.E",
    "opening_hours": "24/7",
    "operator": "Atlante",
    "parking:fee": "no",
    "payment:app": "yes",
    "payment:cards": "no",
    "payment:cash": "no",
    "payment:membership_card": "yes",
    "planned:amenity": "charging_station",
    "ref": "LGS-00023",
    "socket:chademo": "1",
    "socket:chademo:current": "125",
    "socket:chademo:output": "50kW",
    "socket:chademo:voltage": "500",
    "socket:type2_combo": "1",
    "socket:type2_combo:current": "200",
    "socket:type2_combo:output": "80kW",
    "socket:type2_combo:voltage": "500",
    "website": "https://www.mobie.pt/"
  }
},
{
  "type": "node",
  "id": 10675989050,
  "lat": 39.6114360,
  "lon": -8.3955840,
  "tags": {
    "access": "yes",
    "addr:country": "PT",
    "authentication:membership_card": "yes",
    "authentication:none": "no",
    "capacity": "2",
    "fee": "yes",
    "maxstay": "unlimited",
    "motorcar": "yes",
    "name": "TMR-00016 - Lidl",
    "network": "Mobi.E",
    "opening_hours": "24/7",
    "operator": "Atlante",
    "parking:fee": "no",
    "payment:app": "yes",
    "payment:cards": "no",
    "payment:cash": "no",
    "payment:membership_card": "yes",
    "planned:amenity": "charging_station",
    "ref": "TMR-00016",
    "socket:chademo": "1",
    "socket:chademo:current": "120",
    "socket:chademo:output": "50kW",
    "socket:chademo:voltage": "500",
    "socket:type2_cable": "1",
    "socket:type2_cable:current": "16",
    "socket:type2_cable:output": "11kW",
    "socket:type2_cable:voltage": "400",
    "socket:type2_combo": "1",
    "socket:type2_combo:current": "125",
    "socket:type2_combo:output": "50kW",
    "socket:type2_combo:voltage": "500",
    "website": "https://www.mobie.pt/"
  }
},
{
  "type": "node",
  "id": 10675989052,
  "lat": 38.7831046,
  "lon": -9.3366176,
  "tags": {
    "access": "yes",
    "addr:country": "PT",
    "authentication:membership_card": "yes",
    "authentication:none": "no",
    "capacity": "2",
    "fee": "yes",
    "maxstay": "unlimited",
    "motorcar": "yes",
    "name": "SNT-00102 - Lidl",
    "network": "Mobi.E",
    "opening_hours": "24/7",
    "operator": "Atlante",
    "parking:fee": "no",
    "payment:app": "yes",
    "payment:cards": "no",
    "payment:cash": "no",
    "payment:membership_card": "yes",
    "planned:amenity": "charging_station",
    "ref": "SNT-00102",
    "socket:chademo": "1",
    "socket:chademo:current": "120",
    "socket:chademo:output": "50kW",
    "socket:chademo:voltage": "500",
    "socket:type2_cable": "1",
    "socket:type2_cable:current": "32",
    "socket:type2_cable:output": "22kW",
    "socket:type2_cable:voltage": "400",
    "socket:type2_combo": "1",
    "socket:type2_combo:current": "125",
    "socket:type2_combo:output": "50kW",
    "socket:type2_combo:voltage": "500",
    "website": "https://www.mobie.pt/"
  }
},
{
  "type": "node",
  "id": 10675989053,
  "lat": 40.8870878,
  "lon": -8.6158438,
  "tags": {
    "access": "yes",
    "addr:country": "PT",
    "authentication:membership_card": "yes",
    "authentication:none": "no",
    "capacity": "2",
    "fee": "yes",
    "maxstay": "unlimited",
    "motorcar": "yes",
    "name": "OVR-00014 - Lidl",
    "network": "Mobi.E",
    "opening_hours": "24/7",
    "operator": "Atlante",
    "parking:fee": "no",
    "payment:app": "yes",
    "payment:cards": "no",
    "payment:cash": "no",
    "payment:membership_card": "yes",
    "planned:amenity": "charging_station",
    "ref": "OVR-00014",
    "socket:chademo": "1",
    "socket:chademo:current": "120",
    "socket:chademo:output": "50kW",
    "socket:chademo:voltage": "500",
    "socket:type2_cable": "1",
    "socket:type2_cable:current": "32",
    "socket:type2_cable:output": "22kW",
    "socket:type2_cable:voltage": "400",
    "socket:type2_combo": "1",
    "socket:type2_combo:current": "125",
    "socket:type2_combo:output": "50kW",
    "socket:type2_combo:voltage": "500",
    "website": "https://www.mobie.pt/"
  }
},
{
  "type": "node",
  "id": 10681530966,
  "lat": 41.2648587,
  "lon": -8.6149818,
  "tags": {
    "access": "yes",
    "authentication:membership_card": "yes",
    "authentication:none": "no",
    "capacity": "2",
    "fee": "yes",
    "maxstay": "unlimited",
    "motorcar": "yes",
    "name": "MAI-00030/31 - Pingo Doce",
    "network": "Mobi.E",
    "opening_hours": "08:00-21:30",
    "operator": "Atlante",
    "parking:fee": "no",
    "payment:app": "yes",
    "payment:cards": "no",
    "payment:cash": "no",
    "payment:membership_card": "yes",
    "planned:amenity": "charging_station",
    "ref": "MAI-00030;MAI-00031",
    "socket:chademo": "1",
    "socket:chademo:current": "125",
    "socket:chademo:output": "50kW",
    "socket:chademo:voltage": "500",
    "socket:type2_combo": "1",
    "socket:type2_combo:current": "150",
    "socket:type2_combo:output": "60kW",
    "socket:type2_combo:voltage": "920",
    "website": "https://www.mobie.pt/"
  }
},
{
  "type": "node",
  "id": 10681530967,
  "lat": 41.3662390,
  "lon": -8.4057960,
  "tags": {
    "access": "yes",
    "authentication:membership_card": "yes",
    "authentication:none": "no",
    "capacity": "4",
    "fee": "yes",
    "maxstay": "unlimited",
    "motorcar": "yes",
    "name": "STS-00016/17 - Pingo Doce",
    "network": "Mobi.E",
    "opening_hours": "24/7",
    "operator": "Atlante",
    "parking:fee": "no",
    "payment:app": "yes",
    "payment:cards": "no",
    "payment:cash": "no",
    "payment:membership_card": "yes",
    "planned:amenity": "charging_station",
    "ref": "STS-00016;STS-00017",
    "socket:chademo": "2",
    "socket:chademo:current": "125",
    "socket:chademo:output": "50kW",
    "socket:chademo:voltage": "500",
    "socket:type2_cable": "2",
    "socket:type2_cable:current": "32",
    "socket:type2_cable:output": "22kW",
    "socket:type2_cable:voltage": "400",
    "socket:type2_combo": "2",
    "socket:type2_combo:current": "150",
    "socket:type2_combo:output": "60kW",
    "socket:type2_combo:voltage": "920",
    "website": "https://www.mobie.pt/"
  }
},
{
  "type": "node",
  "id": 10712064749,
  "lat": 38.7618661,
  "lon": -9.2805010,
  "tags": {
    "access": "yes",
    "addr:country": "PT",
    "authentication:membership_card": "yes",
    "authentication:none": "no",
    "capacity": "2",
    "email": "apoio.cliente@kmlowcost.com",
    "fee": "yes",
    "maxstay": "unlimited",
    "motorcar": "yes",
    "name": "SNT-00098 - Lidl",
    "network": "Mobi.E",
    "opening_hours": "24/7",
    "operator": "Atlante",
    "parking:fee": "no",
    "payment:app": "yes",
    "payment:cards": "no",
    "payment:cash": "no",
    "payment:membership_card": "yes",
    "phone": "+351 800 296 929",
    "planned:amenity": "charging_station",
    "ref": "SNT-00098",
    "socket:chademo": "1",
    "socket:chademo:current": "120",
    "socket:chademo:output": "50kW",
    "socket:chademo:voltage": "500",
    "socket:type2_cable": "1",
    "socket:type2_cable:current": "32",
    "socket:type2_cable:output": "22kW",
    "socket:type2_cable:voltage": "400",
    "socket:type2_combo": "1",
    "socket:type2_combo:current": "125",
    "socket:type2_combo:output": "50kW",
    "socket:type2_combo:voltage": "500",
    "website": "https://www.mobie.pt"
  }
},
{
  "type": "node",
  "id": 10712064750,
  "lat": 38.8145420,
  "lon": -9.2150190,
  "tags": {
    "access": "yes",
    "addr:country": "PT",
    "authentication:membership_card": "yes",
    "authentication:none": "no",
    "capacity": "2",
    "fee": "yes",
    "maxstay": "unlimited",
    "motorcar": "yes",
    "name": "ODV-00015 - Lidl",
    "network": "Mobi.E",
    "opening_hours": "24/7",
    "operator": "Atlante",
    "parking:fee": "no",
    "payment:app": "yes",
    "payment:cards": "no",
    "payment:cash": "no",
    "payment:membership_card": "yes",
    "planned:amenity": "charging_station",
    "ref": "ODV-00015",
    "socket:chademo": "1",
    "socket:chademo:current": "120",
    "socket:chademo:output": "50kW",
    "socket:chademo:voltage": "500",
    "socket:type2_cable": "1",
    "socket:type2_cable:current": "32",
    "socket:type2_cable:output": "22kW",
    "socket:type2_cable:voltage": "400",
    "socket:type2_combo": "1",
    "socket:type2_combo:current": "125",
    "socket:type2_combo:output": "50kW",
    "socket:type2_combo:voltage": "500",
    "website": "https://www.mobie.pt/"
  }
},
{
  "type": "node",
  "id": 10722216479,
  "lat": 40.1893520,
  "lon": -8.4015440,
  "tags": {
    "access": "yes",
    "addr:country": "PT",
    "authentication:membership_card": "yes",
    "authentication:none": "no",
    "capacity": "2",
    "fee": "yes",
    "maxstay": "unlimited",
    "motorcar": "yes",
    "name": "CBR-00077 - Pingo Doce",
    "network": "Mobi.E",
    "opening_hours": "24/7",
    "operator": "Atlante",
    "parking:fee": "no",
    "payment:app": "yes",
    "payment:cards": "no",
    "payment:cash": "no",
    "payment:membership_card": "yes",
    "planned:amenity": "charging_station",
    "ref": "CBR-00077",
    "socket:chademo": "1",
    "socket:chademo:current": "120",
    "socket:chademo:output": "50kW",
    "socket:chademo:voltage": "500",
    "socket:type2_cable": "1",
    "socket:type2_cable:current": "16",
    "socket:type2_cable:output": "11kW",
    "socket:type2_cable:voltage": "400",
    "socket:type2_combo": "1",
    "socket:type2_combo:current": "125",
    "socket:type2_combo:output": "50kW",
    "socket:type2_combo:voltage": "500",
    "website": "https://www.mobie.pt/"
  }
},
{
  "type": "node",
  "id": 10722216480,
  "lat": 38.5738054,
  "lon": -7.8992840,
  "tags": {
    "access": "yes",
    "addr:country": "PT",
    "authentication:membership_card": "yes",
    "authentication:none": "no",
    "capacity": "2",
    "fee": "yes",
    "maxstay": "unlimited",
    "motorcar": "yes",
    "name": "EVR-00028 - Pingo Doce",
    "network": "Mobi.E",
    "opening_hours": "24/7",
    "operator": "Atlante",
    "parking:fee": "no",
    "payment:app": "yes",
    "payment:cards": "no",
    "payment:cash": "no",
    "payment:membership_card": "yes",
    "planned:amenity": "charging_station",
    "ref": "EVR-00028",
    "socket:chademo": "1",
    "socket:chademo:current": "120",
    "socket:chademo:output": "50kW",
    "socket:chademo:voltage": "500",
    "socket:type2_cable": "1",
    "socket:type2_cable:current": "16",
    "socket:type2_cable:output": "11kW",
    "socket:type2_cable:voltage": "400",
    "socket:type2_combo": "1",
    "socket:type2_combo:current": "125",
    "socket:type2_combo:output": "50kW",
    "socket:type2_combo:voltage": "500",
    "website": "https://www.mobie.pt/"
  }
},
{
  "type": "node",
  "id": 10722216481,
  "lat": 38.6461502,
  "lon": -8.2021731,
  "tags": {
    "access": "yes",
    "addr:country": "PT",
    "authentication:membership_card": "yes",
    "authentication:none": "no",
    "capacity": "2",
    "fee": "yes",
    "maxstay": "unlimited",
    "motorcar": "yes",
    "name": "MMN-00008 - Pingo Doce",
    "network": "Mobi.E",
    "opening_hours": "24/7",
    "operator": "Atlante",
    "parking:fee": "no",
    "payment:app": "yes",
    "payment:cards": "no",
    "payment:cash": "no",
    "payment:membership_card": "yes",
    "planned:amenity": "charging_station",
    "ref": "MMN-00008",
    "socket:chademo": "1",
    "socket:chademo:current": "120",
    "socket:chademo:output": "50kW",
    "socket:chademo:voltage": "500",
    "socket:type2_cable": "1",
    "socket:type2_cable:current": "16",
    "socket:type2_cable:output": "11kW",
    "socket:type2_cable:voltage": "400",
    "socket:type2_combo": "1",
    "socket:type2_combo:current": "125",
    "socket:type2_combo:output": "50kW",
    "socket:type2_combo:voltage": "500",
    "website": "https://www.mobie.pt/"
  }
},
{
  "type": "node",
  "id": 10722216485,
  "lat": 37.5118587,
  "lon": -8.0652652,
  "tags": {
    "access": "yes",
    "authentication:membership_card": "yes",
    "authentication:none": "no",
    "capacity": "2",
    "fee": "yes",
    "maxstay": "unlimited",
    "motorcar": "yes",
    "name": "ADV-00006 - Pingo Doce",
    "network": "Mobi.E",
    "opening_hours": "24/7",
    "operator": "Atlante",
    "parking:fee": "no",
    "payment:app": "yes",
    "payment:cards": "no",
    "payment:cash": "no",
    "payment:membership_card": "yes",
    "planned:amenity": "charging_station",
    "ref": "ADV-00006",
    "socket:chademo": "1",
    "socket:chademo:current": "125",
    "socket:chademo:output": "50kW",
    "socket:chademo:voltage": "500",
    "socket:type2_cable": "1",
    "socket:type2_cable:current": "32",
    "socket:type2_cable:output": "22kW",
    "socket:type2_cable:voltage": "400",
    "socket:type2_combo": "1",
    "socket:type2_combo:current": "150",
    "socket:type2_combo:output": "60kW",
    "socket:type2_combo:voltage": "920",
    "website": "https://www.mobie.pt/"
  }
},
{
  "type": "node",
  "id": 10733588731,
  "lat": 40.8932032,
  "lon": -8.4932079,
  "tags": {
    "access": "yes",
    "addr:country": "PT",
    "authentication:membership_card": "yes",
    "authentication:none": "no",
    "capacity": "2",
    "fee": "yes",
    "maxstay": "unlimited",
    "motorcar": "yes",
    "name": "SJM-XXXXX - Aldi",
    "network": "Mobi.E",
    "opening_hours": "24/7",
    "operator": "Atlante",
    "parking:fee": "no",
    "payment:app": "yes",
    "payment:cards": "no",
    "payment:cash": "no",
    "payment:membership_card": "yes",
    "planned:amenity": "charging_station",
    "ref": "SJM-XXXXX",
    "socket:type2": "2",
    "socket:type2:current": "32",
    "socket:type2:output": "22kW",
    "socket:type2:voltage": "400",
    "website": "https://www.mobie.pt/"
  }
},
{
  "type": "node",
  "id": 10743112551,
  "lat": 39.3584609,
  "lon": -9.3629737,
  "tags": {
    "access": "yes",
    "addr:country": "PT",
    "authentication:membership_card": "yes",
    "authentication:none": "no",
    "capacity": "4",
    "fee": "yes",
    "maxstay": "unlimited",
    "motorcar": "yes",
    "name": "PNI-00009 - Soleil",
    "network": "Mobi.E",
    "opening_hours": "24/7",
    "operator": "Powerdot",
    "parking:fee": "no",
    "payment:app": "yes",
    "payment:cards": "no",
    "payment:cash": "no",
    "payment:membership_card": "yes",
    "planned:amenity": "charging_station",
    "ref": "PNI-00009",
    "socket:chademo": "1",
    "socket:chademo:current": "125",
    "socket:chademo:output": "60kW",
    "socket:chademo:voltage": "500",
    "socket:type2": "1",
    "socket:type2:current": "32",
    "socket:type2:output": "22kW",
    "socket:type2:voltage": "400",
    "socket:type2_combo": "3",
    "socket:type2_combo:current": "200",
    "socket:type2_combo:output": "80kW",
    "socket:type2_combo:voltage": "500",
    "website": "https://www.mobie.pt"
  }
},
{
  "type": "node",
  "id": 10743112552,
  "lat": 41.1790640,
  "lon": -8.6243170,
  "tags": {
    "access": "yes",
    "addr:country": "PT",
    "authentication:membership_card": "yes",
    "authentication:none": "no",
    "capacity": "4",
    "fee": "yes",
    "maxstay": "unlimited",
    "motorcar": "yes",
    "name": "PRT-00181 - Star Inn",
    "network": "Mobi.E",
    "opening_hours": "24/7",
    "operator": "Powerdot",
    "parking:fee": "yes",
    "payment:app": "yes",
    "payment:cards": "no",
    "payment:cash": "no",
    "payment:membership_card": "yes",
    "planned:amenity": "charging_station",
    "ref": "PRT-00181",
    "socket:chademo": "1",
    "socket:chademo:current": "125",
    "socket:chademo:output": "60kW",
    "socket:chademo:voltage": "500",
    "socket:type2": "1",
    "socket:type2:current": "32",
    "socket:type2:output": "22kW",
    "socket:type2:voltage": "400",
    "socket:type2_combo": "3",
    "socket:type2_combo:current": "200",
    "socket:type2_combo:output": "80kW",
    "socket:type2_combo:voltage": "500",
    "website": "https://www.mobie.pt"
  }
},
{
  "type": "node",
  "id": 10743112553,
  "lat": 41.4108221,
  "lon": -8.5074379,
  "tags": {
    "access": "yes",
    "addr:country": "PT",
    "authentication:membership_card": "yes",
    "authentication:none": "no",
    "capacity": "2",
    "fee": "yes",
    "maxstay": "unlimited",
    "motorcar": "yes",
    "name": "VNF-00028",
    "network": "Mobi.E",
    "opening_hours": "24/7",
    "operator": "Atlante",
    "parking:fee": "no",
    "payment:app": "yes",
    "payment:cards": "no",
    "payment:cash": "no",
    "payment:membership_card": "yes",
    "planned:amenity": "charging_station",
    "ref": "VNF-00028",
    "socket:chademo": "1",
    "socket:chademo:current": "125",
    "socket:chademo:output": "50kW",
    "socket:chademo:voltage": "500",
    "socket:type2_combo": "1",
    "socket:type2_combo:current": "200",
    "socket:type2_combo:output": "120kW",
    "socket:type2_combo:voltage": "950",
    "website": "https://www.mobie.pt/"
  }
},
{
  "type": "node",
  "id": 10743112554,
  "lat": 41.4042576,
  "lon": -8.5169428,
  "tags": {
    "access": "yes",
    "addr:country": "PT",
    "authentication:membership_card": "yes",
    "authentication:none": "no",
    "capacity": "2",
    "fee": "yes",
    "maxstay": "unlimited",
    "motorcar": "yes",
    "name": "VNF-00027",
    "network": "Mobi.E",
    "opening_hours": "24/7",
    "operator": "Atlante",
    "parking:fee": "no",
    "payment:app": "yes",
    "payment:cards": "no",
    "payment:cash": "no",
    "payment:membership_card": "yes",
    "planned:amenity": "charging_station",
    "ref": "VNF-00027",
    "socket:chademo": "1",
    "socket:chademo:current": "125",
    "socket:chademo:output": "50kW",
    "socket:chademo:voltage": "500",
    "socket:type2_combo": "1",
    "socket:type2_combo:current": "200",
    "socket:type2_combo:output": "120kW",
    "socket:type2_combo:voltage": "950",
    "website": "https://www.mobie.pt/"
  }
},
{
  "type": "node",
  "id": 10759985337,
  "lat": 37.1272907,
  "lon": -8.2881902,
  "tags": {
    "access": "yes",
    "addr:country": "PT",
    "authentication:membership_card": "yes",
    "authentication:none": "no",
    "capacity": "4",
    "fee": "yes",
    "maxstay": "unlimited",
    "motorcar": "yes",
    "name": "ABF-00057 - Decathlon",
    "network": "Mobi.E",
    "opening_hours": "24/7",
    "operator": "Powerdot",
    "parking:fee": "no",
    "payment:app": "yes",
    "payment:cards": "no",
    "payment:cash": "no",
    "payment:membership_card": "yes",
    "planned:amenity": "charging_station",
    "ref": "ABF-00057",
    "socket:chademo": "1",
    "socket:chademo:current": "125",
    "socket:chademo:output": "60kW",
    "socket:chademo:voltage": "500",
    "socket:type2": "1",
    "socket:type2:current": "32",
    "socket:type2:output": "22kW",
    "socket:type2:voltage": "400",
    "socket:type2_combo": "3",
    "socket:type2_combo:current": "200",
    "socket:type2_combo:output": "80kW",
    "socket:type2_combo:voltage": "500",
    "website": "https://www.mobie.pt"
  }
},
{
  "type": "node",
  "id": 10759985339,
  "lat": 41.4325482,
  "lon": -8.4159156,
  "tags": {
    "access": "yes",
    "addr:country": "PT",
    "authentication:membership_card": "yes",
    "authentication:none": "no",
    "capacity": "2",
    "fee": "yes",
    "maxstay": "unlimited",
    "motorcar": "yes",
    "name": "VNF-XXXXX - Aldi",
    "network": "Mobi.E",
    "opening_hours": "24/7",
    "operator": "Atlante",
    "parking:fee": "no",
    "payment:app": "yes",
    "payment:cards": "no",
    "payment:cash": "no",
    "payment:membership_card": "yes",
    "planned:amenity": "charging_station",
    "ref": "VNF-XXXXX",
    "socket:type2": "2",
    "socket:type2:current": "32",
    "socket:type2:output": "22kW",
    "socket:type2:voltage": "400",
    "website": "https://www.mobie.pt/"
  }
},
{
  "type": "node",
  "id": 10760048723,
  "lat": 39.6240236,
  "lon": -8.6627212,
  "tags": {
    "access": "yes",
    "addr:country": "PT",
    "authentication:membership_card": "yes",
    "authentication:none": "no",
    "capacity": "2",
    "fee": "yes",
    "maxstay": "unlimited",
    "motorcar": "yes",
    "name": "ORM-00008 - Pingo Doce",
    "network": "Mobi.E",
    "opening_hours": "24/7",
    "operator": "Atlante",
    "parking:fee": "no",
    "payment:app": "yes",
    "payment:cards": "no",
    "payment:cash": "no",
    "payment:membership_card": "yes",
    "planned:amenity": "charging_station",
    "ref": "ORM-00008",
    "socket:chademo": "1",
    "socket:chademo:current": "120",
    "socket:chademo:output": "50kW",
    "socket:chademo:voltage": "500",
    "socket:type2_cable": "1",
    "socket:type2_cable:current": "32",
    "socket:type2_cable:output": "22kW",
    "socket:type2_cable:voltage": "400",
    "socket:type2_combo": "1",
    "socket:type2_combo:current": "125",
    "socket:type2_combo:output": "50kW",
    "socket:type2_combo:voltage": "500",
    "website": "https://www.mobie.pt/"
  }
},
{
  "type": "node",
  "id": 10760048724,
  "lat": 41.1505500,
  "lon": -8.5161530,
  "tags": {
    "access": "yes",
    "addr:country": "PT",
    "authentication:membership_card": "yes",
    "authentication:none": "no",
    "capacity": "2",
    "fee": "yes",
    "maxstay": "unlimited",
    "motorcar": "yes",
    "name": "GDM-00032 - Pingo Doce",
    "network": "Mobi.E",
    "opening_hours": "24/7",
    "operator": "Atlante",
    "parking:fee": "no",
    "payment:app": "yes",
    "payment:cards": "no",
    "payment:cash": "no",
    "payment:membership_card": "yes",
    "planned:amenity": "charging_station",
    "ref": "GDM-00032",
    "socket:chademo": "1",
    "socket:chademo:current": "120",
    "socket:chademo:output": "50kW",
    "socket:chademo:voltage": "500",
    "socket:type2_cable": "1",
    "socket:type2_cable:current": "32",
    "socket:type2_cable:output": "22kW",
    "socket:type2_cable:voltage": "400",
    "socket:type2_combo": "1",
    "socket:type2_combo:current": "125",
    "socket:type2_combo:output": "50kW",
    "socket:type2_combo:voltage": "500",
    "website": "https://www.mobie.pt/"
  }
},
{
  "type": "node",
  "id": 10760048725,
  "lat": 37.1348285,
  "lon": -8.5372842,
  "tags": {
    "access": "yes",
    "addr:country": "PT",
    "authentication:membership_card": "yes",
    "authentication:none": "no",
    "capacity": "2",
    "fee": "yes",
    "maxstay": "unlimited",
    "motorcar": "yes",
    "name": "PTM-00036 - Pingo Doce",
    "network": "Mobi.E",
    "opening_hours": "08:00-21:30",
    "operator": "Atlante",
    "parking:fee": "no",
    "payment:app": "yes",
    "payment:cards": "no",
    "payment:cash": "no",
    "payment:membership_card": "yes",
    "planned:amenity": "charging_station",
    "ref": "PTM-00036",
    "socket:chademo": "1",
    "socket:chademo:current": "120",
    "socket:chademo:output": "60kW",
    "socket:chademo:voltage": "500",
    "socket:type2_combo": "1",
    "socket:type2_combo:current": "200",
    "socket:type2_combo:output": "100kW",
    "socket:type2_combo:voltage": "950",
    "website": "https://www.mobie.pt/"
  }
},
{
  "type": "node",
  "id": 10777898543,
  "lat": 37.0924230,
  "lon": -8.0935380,
  "tags": {
    "access": "yes",
    "addr:country": "PT",
    "authentication:membership_card": "yes",
    "authentication:none": "no",
    "capacity": "2",
    "fee": "yes",
    "maxstay": "unlimited",
    "motorcar": "yes",
    "name": "LLE-00136",
    "network": "Mobi.E",
    "opening_hours": "24/7",
    "operator": "Galp Power",
    "parking:fee": "no",
    "payment:app": "yes",
    "payment:cards": "no",
    "payment:cash": "no",
    "payment:membership_card": "yes",
    "planned:amenity": "charging_station",
    "ref": "LLE-00136",
    "socket:chademo": "1",
    "socket:chademo:current": "120",
    "socket:chademo:output": "60kW",
    "socket:chademo:voltage": "500",
    "socket:type2_combo": "1",
    "socket:type2_combo:current": "250",
    "socket:type2_combo:output": "100kW",
    "socket:type2_combo:voltage": "950",
    "website": "https://www.mobie.pt/"
  }
},
{
  "type": "node",
  "id": 10777898544,
  "lat": 37.0865570,
  "lon": -8.1108310,
  "tags": {
    "access": "yes",
    "addr:country": "PT",
    "authentication:membership_card": "yes",
    "authentication:none": "no",
    "capacity": "2",
    "fee": "yes",
    "maxstay": "unlimited",
    "motorcar": "yes",
    "name": "LLE-00137",
    "network": "Mobi.E",
    "opening_hours": "24/7",
    "operator": "Galp Power",
    "parking:fee": "no",
    "payment:app": "yes",
    "payment:cards": "no",
    "payment:cash": "no",
    "payment:membership_card": "yes",
    "planned:amenity": "charging_station",
    "ref": "LLE-00137",
    "socket:chademo": "1",
    "socket:chademo:current": "120",
    "socket:chademo:output": "60kW",
    "socket:chademo:voltage": "500",
    "socket:type2_combo": "1",
    "socket:type2_combo:current": "250",
    "socket:type2_combo:output": "100kW",
    "socket:type2_combo:voltage": "950",
    "website": "https://www.mobie.pt/"
  }
},
{
  "type": "node",
  "id": 10777898545,
  "lat": 37.0791250,
  "lon": -8.1226890,
  "tags": {
    "access": "yes",
    "addr:country": "PT",
    "authentication:membership_card": "yes",
    "authentication:none": "no",
    "capacity": "2",
    "fee": "yes",
    "maxstay": "unlimited",
    "motorcar": "yes",
    "name": "LLE-00135",
    "network": "Mobi.E",
    "opening_hours": "24/7",
    "operator": "Galp Power",
    "parking:fee": "no",
    "payment:app": "yes",
    "payment:cards": "no",
    "payment:cash": "no",
    "payment:membership_card": "yes",
    "planned:amenity": "charging_station",
    "ref": "LLE-00135",
    "socket:chademo": "1",
    "socket:chademo:current": "120",
    "socket:chademo:output": "60kW",
    "socket:chademo:voltage": "500",
    "socket:type2_combo": "1",
    "socket:type2_combo:current": "250",
    "socket:type2_combo:output": "100kW",
    "socket:type2_combo:voltage": "950",
    "website": "https://www.mobie.pt/"
  }
},
{
  "type": "node",
  "id": 10777898546,
  "lat": 37.1063650,
  "lon": -8.1415620,
  "tags": {
    "access": "yes",
    "addr:country": "PT",
    "authentication:membership_card": "yes",
    "authentication:none": "no",
    "capacity": "2",
    "fee": "yes",
    "maxstay": "unlimited",
    "motorcar": "yes",
    "name": "LLE-00138",
    "network": "Mobi.E",
    "opening_hours": "24/7",
    "operator": "Galp Power",
    "parking:fee": "no",
    "payment:app": "yes",
    "payment:cards": "no",
    "payment:cash": "no",
    "payment:membership_card": "yes",
    "planned:amenity": "charging_station",
    "ref": "LLE-00138",
    "socket:chademo": "1",
    "socket:chademo:current": "120",
    "socket:chademo:output": "60kW",
    "socket:chademo:voltage": "500",
    "socket:type2_combo": "1",
    "socket:type2_combo:current": "250",
    "socket:type2_combo:output": "100kW",
    "socket:type2_combo:voltage": "950",
    "website": "https://www.mobie.pt/"
  }
},
{
  "type": "node",
  "id": 10792431592,
  "lat": 40.9857744,
  "lon": -8.5900139,
  "tags": {
    "access": "yes",
    "addr:country": "PT",
    "authentication:membership_card": "yes",
    "authentication:none": "no",
    "capacity": "2",
    "fee": "yes",
    "maxstay": "unlimited",
    "motorcar": "yes",
    "name": "VFR-00051 - Pingo Doce",
    "network": "Mobi.E",
    "opening_hours": "24/7",
    "operator": "Atlante",
    "parking:fee": "no",
    "payment:app": "yes",
    "payment:cards": "no",
    "payment:cash": "no",
    "payment:membership_card": "yes",
    "planned:amenity": "charging_station",
    "ref": "VFR-00051",
    "socket:chademo": "1",
    "socket:chademo:current": "120",
    "socket:chademo:output": "50kW",
    "socket:chademo:voltage": "500",
    "socket:type2_cable": "1",
    "socket:type2_cable:current": "32",
    "socket:type2_cable:output": "22kW",
    "socket:type2_cable:voltage": "400",
    "socket:type2_combo": "1",
    "socket:type2_combo:current": "125",
    "socket:type2_combo:output": "50kW",
    "socket:type2_combo:voltage": "500",
    "website": "https://www.mobie.pt/"
  }
},
{
  "type": "node",
  "id": 10792431593,
  "lat": 40.2040472,
  "lon": -8.4035316,
  "tags": {
    "access": "yes",
    "addr:country": "PT",
    "authentication:membership_card": "yes",
    "authentication:none": "no",
    "capacity": "2",
    "email": "mobilidade-eletrica@edp.pt",
    "fee": "yes",
    "maxstay": "unlimited",
    "motorcar": "yes",
    "name": "CBR-00078 - McDonald's",
    "network": "Mobi.E",
    "opening_hours": "24/7",
    "operator": "EDP Comercial",
    "parking:fee": "no",
    "payment:app": "yes",
    "payment:cards": "no",
    "payment:cash": "no",
    "payment:membership_card": "yes",
    "phone": "+351 800 222 222",
    "planned:amenity": "charging_station",
    "ref": "CBR-00078",
    "socket:chademo": "1",
    "socket:chademo:current": "85",
    "socket:chademo:output": "30kW",
    "socket:chademo:voltage": "500",
    "socket:type2_combo": "1",
    "socket:type2_combo:current": "200",
    "socket:type2_combo:output": "60kW",
    "socket:type2_combo:voltage": "920",
    "website": "https://www.mobie.pt/"
  }
},
{
  "type": "node",
  "id": 10792431594,
  "lat": 41.5563170,
  "lon": -8.3947030,
  "tags": {
    "access": "yes",
    "addr:country": "PT",
    "authentication:membership_card": "yes",
    "authentication:none": "no",
    "capacity": "4",
    "fee": "yes",
    "maxstay": "unlimited",
    "motorcar": "yes",
    "name": "BRG-00078 - Hotel Meliã",
    "network": "Mobi.E",
    "opening_hours": "24/7",
    "operator": "Powerdot",
    "parking:fee": "no",
    "payment:app": "yes",
    "payment:cards": "no",
    "payment:cash": "no",
    "payment:membership_card": "yes",
    "planned:amenity": "charging_station",
    "ref": "BRG-00078",
    "socket:chademo": "1",
    "socket:chademo:current": "125",
    "socket:chademo:output": "60kW",
    "socket:chademo:voltage": "500",
    "socket:type2": "1",
    "socket:type2:current": "32",
    "socket:type2:output": "22kW",
    "socket:type2:voltage": "400",
    "socket:type2_combo": "3",
    "socket:type2_combo:current": "200",
    "socket:type2_combo:output": "80kW",
    "socket:type2_combo:voltage": "500",
    "website": "https://www.mobie.pt"
  }
},
{
  "type": "node",
  "id": 10792431595,
  "lat": 39.8260460,
  "lon": -7.4984150,
  "tags": {
    "access": "yes",
    "addr:country": "PT",
    "authentication:membership_card": "yes",
    "authentication:none": "no",
    "capacity": "4",
    "fee": "yes",
    "maxstay": "unlimited",
    "motorcar": "yes",
    "name": "CTB-00027 - Hotel Colina do Castelo",
    "network": "Mobi.E",
    "opening_hours": "24/7",
    "operator": "Powerdot",
    "parking:fee": "no",
    "payment:app": "yes",
    "payment:cards": "no",
    "payment:cash": "no",
    "payment:membership_card": "yes",
    "planned:amenity": "charging_station",
    "ref": "CTB-00027",
    "socket:chademo": "1",
    "socket:chademo:current": "125",
    "socket:chademo:output": "60kW",
    "socket:chademo:voltage": "500",
    "socket:type2": "1",
    "socket:type2:current": "32",
    "socket:type2:output": "22kW",
    "socket:type2:voltage": "400",
    "socket:type2_combo": "3",
    "socket:type2_combo:current": "200",
    "socket:type2_combo:output": "80kW",
    "socket:type2_combo:voltage": "500",
    "website": "https://www.mobie.pt"
  }
},
{
  "type": "node",
  "id": 10792431596,
  "lat": 38.8835439,
  "lon": -7.0493630,
  "tags": {
    "access": "yes",
    "authentication:membership_card": "yes",
    "authentication:none": "no",
    "capacity": "2",
    "fee": "yes",
    "maxstay": "unlimited",
    "motorcar": "yes",
    "name": "ELV-00006 - Galp",
    "network": "Mobi.E",
    "opening_hours": "24/7",
    "operator": "Galp Geste",
    "parking:fee": "no",
    "payment:app": "yes",
    "payment:cards": "no",
    "payment:cash": "no",
    "payment:membership_card": "yes",
    "planned:amenity": "charging_station",
    "ref": "ELV-00006",
    "socket:chademo": "1",
    "socket:chademo:current": "125",
    "socket:chademo:output": "50kW",
    "socket:chademo:voltage": "500",
    "socket:type2_cable": "1",
    "socket:type2_cable:current": "32",
    "socket:type2_cable:output": "22kW",
    "socket:type2_cable:voltage": "400",
    "socket:type2_combo": "1",
    "socket:type2_combo:current": "150",
    "socket:type2_combo:output": "60kW",
    "socket:type2_combo:voltage": "920",
    "website": "https://www.mobie.pt/"
  }
},
{
  "type": "node",
  "id": 10792431597,
  "lat": 38.8831110,
  "lon": -7.0506140,
  "tags": {
    "access": "yes",
    "authentication:membership_card": "yes",
    "authentication:none": "no",
    "capacity": "2",
    "fee": "yes",
    "maxstay": "unlimited",
    "motorcar": "yes",
    "name": "ELV-00005 - Galp",
    "network": "Mobi.E",
    "opening_hours": "24/7",
    "operator": "Galp Geste",
    "parking:fee": "no",
    "payment:app": "yes",
    "payment:cards": "no",
    "payment:cash": "no",
    "payment:membership_card": "yes",
    "planned:amenity": "charging_station",
    "ref": "ELV-00005",
    "socket:chademo": "1",
    "socket:chademo:current": "125",
    "socket:chademo:output": "50kW",
    "socket:chademo:voltage": "500",
    "socket:type2_cable": "1",
    "socket:type2_cable:current": "32",
    "socket:type2_cable:output": "22kW",
    "socket:type2_cable:voltage": "400",
    "socket:type2_combo": "1",
    "socket:type2_combo:current": "150",
    "socket:type2_combo:output": "60kW",
    "socket:type2_combo:voltage": "920",
    "website": "https://www.mobie.pt/"
  }
},
{
  "type": "node",
  "id": 10792431598,
  "lat": 38.6413207,
  "lon": -9.2366330,
  "tags": {
    "access": "yes",
    "addr:country": "PT",
    "authentication:membership_card": "yes",
    "authentication:none": "no",
    "capacity": "2",
    "fee": "yes",
    "maxstay": "unlimited",
    "motorcar": "yes",
    "name": "ALM-00058",
    "network": "Mobi.E",
    "opening_hours": "24/7",
    "operator": "Powerdot",
    "parking:fee": "no",
    "payment:app": "yes",
    "payment:cards": "no",
    "payment:cash": "no",
    "payment:membership_card": "yes",
    "planned:amenity": "charging_station",
    "ref": "ALM-00058",
    "socket:chademo": "1",
    "socket:chademo:current": "125",
    "socket:chademo:output": "60kW",
    "socket:chademo:voltage": "500",
    "socket:type2_cable": "1",
    "socket:type2_cable:current": "32",
    "socket:type2_cable:output": "22kW",
    "socket:type2_cable:voltage": "400",
    "socket:type2_combo": "1",
    "socket:type2_combo:current": "250",
    "socket:type2_combo:output": "100kW",
    "socket:type2_combo:voltage": "950",
    "website": "https://www.mobie.pt/"
  }
},
{
  "type": "node",
  "id": 10809116534,
  "lat": 37.0372142,
  "lon": -7.8325830,
  "tags": {
    "access": "yes",
    "authentication:membership_card": "yes",
    "authentication:none": "no",
    "capacity": "4",
    "fee": "yes",
    "maxstay": "unlimited",
    "motorcar": "yes",
    "name": "OLH-00005/6 - Pingo Doce",
    "network": "Mobi.E",
    "opening_hours": "24/7",
    "operator": "Atlante",
    "parking:fee": "no",
    "payment:app": "yes",
    "payment:cards": "no",
    "payment:cash": "no",
    "payment:membership_card": "yes",
    "planned:amenity": "charging_station",
    "ref": "OLH-00005;OLH-00006",
    "socket:chademo": "2",
    "socket:chademo:current": "125",
    "socket:chademo:output": "50kW",
    "socket:chademo:voltage": "500",
    "socket:type2_cable": "2",
    "socket:type2_cable:current": "32",
    "socket:type2_cable:output": "22kW",
    "socket:type2_cable:voltage": "400",
    "socket:type2_combo": "2",
    "socket:type2_combo:current": "150",
    "socket:type2_combo:output": "60kW",
    "socket:type2_combo:voltage": "920",
    "website": "https://www.mobie.pt/"
  }
},
{
  "type": "node",
  "id": 10809116536,
  "lat": 41.1733662,
  "lon": -8.5546456,
  "tags": {
    "access": "yes",
    "addr:country": "PT",
    "authentication:membership_card": "yes",
    "authentication:none": "no",
    "capacity": "2",
    "fee": "yes",
    "maxstay": "unlimited",
    "motorcar": "yes",
    "name": "GDM-00031 - Galp",
    "network": "Mobi.E",
    "opening_hours": "24/7",
    "operator": "Galp Geste",
    "parking:fee": "no",
    "payment:app": "yes",
    "payment:cards": "no",
    "payment:cash": "no",
    "payment:membership_card": "yes",
    "planned:amenity": "charging_station",
    "ref": "GDM-00031",
    "socket:type2_combo": "2",
    "socket:type2_combo:current": "200",
    "socket:type2_combo:output": "120kW",
    "socket:type2_combo:voltage": "950",
    "website": "https://www.mobie.pt/"
  }
},
{
  "type": "node",
  "id": 10809116537,
  "lat": 38.6527080,
  "lon": -9.0601470,
  "tags": {
    "access": "yes",
    "addr:country": "PT",
    "authentication:membership_card": "yes",
    "authentication:none": "no",
    "capacity": "2",
    "fee": "yes",
    "maxstay": "unlimited",
    "motorcar": "yes",
    "name": "BRR-00029",
    "network": "Mobi.E",
    "opening_hours": "24/7",
    "operator": "Wowplug",
    "parking:fee": "no",
    "payment:app": "yes",
    "payment:cards": "no",
    "payment:cash": "no",
    "payment:membership_card": "yes",
    "planned:amenity": "charging_station",
    "ref": "BRR-00029",
    "socket:type2": "2",
    "socket:type2:current": "32",
    "socket:type2:output": "22kW",
    "socket:type2:voltage": "400",
    "website": "https://www.mobie.pt/"
  }
},
{
  "type": "node",
  "id": 10809116538,
  "lat": 38.0202012,
  "lon": -7.8493100,
  "tags": {
    "access": "yes",
    "addr:country": "PT",
    "authentication:membership_card": "yes",
    "authentication:none": "no",
    "capacity": "1",
    "fee": "yes",
    "maxstay": "unlimited",
    "motorcar": "yes",
    "name": "BJA-00017 - Prio",
    "network": "Mobi.E",
    "opening_hours": "24/7",
    "operator": "Prio.E",
    "parking:fee": "no",
    "payment:app": "yes",
    "payment:cards": "no",
    "payment:cash": "no",
    "payment:membership_card": "yes",
    "planned:amenity": "charging_station",
    "ref": "BJA-00017",
    "socket:chademo": "1",
    "socket:chademo:current": "120",
    "socket:chademo:output": "50kW",
    "socket:chademo:voltage": "500",
    "socket:type2_combo": "1",
    "socket:type2_combo:current": "125",
    "socket:type2_combo:output": "50kW",
    "socket:type2_combo:voltage": "500",
    "website": "https://www.mobie.pt/"
  }
},
{
  "type": "node",
  "id": 10809116539,
  "lat": 41.3666850,
  "lon": -8.2009030,
  "tags": {
    "access": "yes",
    "addr:country": "PT",
    "authentication:membership_card": "yes",
    "authentication:none": "no",
    "capacity": "2",
    "fee": "yes",
    "maxstay": "unlimited",
    "motorcar": "yes",
    "name": "FLG-00010 - Galp",
    "network": "Mobi.E",
    "opening_hours": "24/7",
    "operator": "Galp Geste",
    "parking:fee": "no",
    "payment:app": "yes",
    "payment:cards": "no",
    "payment:cash": "no",
    "payment:membership_card": "yes",
    "planned:amenity": "charging_station",
    "ref": "FLG-00010",
    "socket:type2_combo": "2",
    "socket:type2_combo:current": "200",
    "socket:type2_combo:output": "120kW",
    "socket:type2_combo:voltage": "950",
    "website": "https://www.mobie.pt/"
  }
}

  ]
}
