{
"type": "FeatureCollection",
"features": [
{
  "type": "Feature",
  "id": "node/8206970203",
  "properties": {
    "access": "yes",
    "addr:city": "Vila do Bispo",
    "addr:country": "PT",
    "authentication:membership_card": "yes",
    "authentication:none": "no",
    "capacity": "2",
    "email": "apoio.cliente@kmlowcost.com",
    "fee": "yes",
    "motorcar": "yes",
    "name": "VBP-00003",
    "network": "Mobi.E",
    "opening_hours": "24/7",
    "operator": "KLC",
    "parking:fee": "no",
    "phone": "+351 800 296 929",
    "planned:amenity": "charging_station",
    "ref": "VBP-00003",
    "socket:chademo": "1",
    "socket:chademo:current": "120",
    "socket:chademo:output": "50kW",
    "socket:chademo:voltage": "500",
    "socket:type2_cable": "1",
    "socket:type2_cable:current": "63",
    "socket:type2_cable:output": "43kW",
    "socket:type2_cable:voltage": "400",
    "socket:type2_combo": "1",
    "socket:type2_combo:current": "125",
    "socket:type2_combo:output": "50kW",
    "socket:type2_combo:voltage": "500",
    "website": "https://www.mobie.pt",
    "id": "node/8206970203"
  },
  "geometry": {
    "type": "Point",
    "coordinates": [
      -8.9136216,
      37.0796129
    ]
  }
},
{
  "type": "Feature",
  "id": "node/8222783912",
  "properties": {
    "access": "yes",
    "addr:city": "Sintra",
    "addr:country": "PT",
    "addr:street": "IC 19",
    "authentication:membership_card": "yes",
    "authentication:none": "no",
    "capacity": "2",
    "email": "apoio.cliente@kmlowcost.com",
    "fee": "yes",
    "motorcar": "yes",
    "name": "SNT-00009",
    "network": "Mobi.E",
    "opening_hours": "24/7",
    "operator": "KLC",
    "parking:fee": "no",
    "phone": "+351 800 296 929",
    "planned:amenity": "charging_station",
    "ref": "SNT-00009",
    "socket:chademo": "1",
    "socket:chademo:current": "120",
    "socket:chademo:output": "50kW",
    "socket:chademo:voltage": "500",
    "socket:type2_cable": "1",
    "socket:type2_cable:current": "63",
    "socket:type2_cable:output": "43kW",
    "socket:type2_cable:voltage": "400",
    "socket:type2_combo": "1",
    "socket:type2_combo:current": "125",
    "socket:type2_combo:output": "50kW",
    "socket:type2_combo:voltage": "500",
    "website": "https://www.mobie.pt",
    "id": "node/8222783912"
  },
  "geometry": {
    "type": "Point",
    "coordinates": [
      -9.2968915,
      38.761878
    ]
  }
},
{
  "type": "Feature",
  "id": "node/8222805988",
  "properties": {
    "access": "yes",
    "addr:city": "Porto Salvo",
    "addr:country": "PT",
    "addr:street": "Avenida Doutor Mário Soares",
    "authentication:membership_card": "yes",
    "authentication:none": "no",
    "capacity": "2",
    "fee": "yes",
    "motorcar": "yes",
    "name": "OER-XXXXX",
    "network": "Mobi.E",
    "opening_hours": "24/7",
    "operator": "unknown",
    "parking:fee": "no",
    "planned:amenity": "charging_station",
    "ref": "OER-XXXXX",
    "socket:chademo": "1",
    "socket:chademo:current": "120",
    "socket:chademo:output": "50kW",
    "socket:chademo:voltage": "500",
    "socket:type2_cable": "1",
    "socket:type2_cable:current": "63",
    "socket:type2_cable:output": "43kW",
    "socket:type2_cable:voltage": "400",
    "socket:type2_combo": "1",
    "socket:type2_combo:current": "125",
    "socket:type2_combo:output": "50kW",
    "socket:type2_combo:voltage": "500",
    "website": "https://www.mobie.pt",
    "id": "node/8222805988"
  },
  "geometry": {
    "type": "Point",
    "coordinates": [
      -9.3067253,
      38.7419128
    ]
  }
},
{
  "type": "Feature",
  "id": "node/8223094755",
  "properties": {
    "access": "yes",
    "addr:city": "Oeiras",
    "addr:country": "PT",
    "addr:street": "Rua Engenheiro Álvaro Roquette",
    "authentication:membership_card": "yes",
    "authentication:none": "no",
    "capacity": "2",
    "email": "mobilidade.electricacrc@galp.com",
    "fee": "yes",
    "motorcar": "yes",
    "name": "OER-00010",
    "network": "Mobi.E",
    "opening_hours": "24/7",
    "operator": "Galp Geste",
    "parking:fee": "no",
    "phone": "+351 800 249 249",
    "planned:amenity": "charging_station",
    "ref": "OER-00010",
    "socket:chademo": "1",
    "socket:chademo:current": "120",
    "socket:chademo:output": "50kW",
    "socket:chademo:voltage": "500",
    "socket:type2_cable": "1",
    "socket:type2_cable:current": "63",
    "socket:type2_cable:output": "43kW",
    "socket:type2_cable:voltage": "400",
    "socket:type2_combo": "1",
    "socket:type2_combo:current": "125",
    "socket:type2_combo:output": "50kW",
    "socket:type2_combo:voltage": "500",
    "website": "https://www.mobie.pt",
    "id": "node/8223094755"
  },
  "geometry": {
    "type": "Point",
    "coordinates": [
      -9.3063124,
      38.699737
    ]
  }
},
{
  "type": "Feature",
  "id": "node/8225238548",
  "properties": {
    "access": "yes",
    "addr:country": "PT",
    "authentication:membership_card": "yes",
    "authentication:none": "no",
    "capacity": "10",
    "fee": "yes",
    "motorcar": "yes",
    "name": "VIS-XXXXX",
    "network": "Mobi.E",
    "opening_hours": "24/7",
    "operator": "unknown",
    "parking:fee": "no",
    "planned:amenity": "charging_station",
    "ref": "VIS-XXXXX",
    "socket:type2": "2",
    "socket:type2:current": "32",
    "socket:type2:output": "22kW",
    "socket:type2:voltage": "400",
    "website": "https://www.mobie.pt",
    "id": "node/8225238548"
  },
  "geometry": {
    "type": "Point",
    "coordinates": [
      -7.9090079,
      40.6566953
    ]
  }
},
{
  "type": "Feature",
  "id": "node/8225238549",
  "properties": {
    "access": "yes",
    "addr:city": "Viseu",
    "addr:country": "PT",
    "addr:street": "Rua 5 de Outubro",
    "authentication:membership_card": "yes",
    "authentication:none": "no",
    "capacity": "1",
    "fee": "yes",
    "motorcar": "yes",
    "name": "VIS-XXXXX",
    "network": "Mobi.E",
    "opening_hours": "24/7",
    "operator": "unknown",
    "parking:fee": "no",
    "planned:amenity": "charging_station",
    "ref": "VIS-XXXXX",
    "socket:chademo": "1",
    "socket:chademo:current": "120",
    "socket:chademo:output": "50kW",
    "socket:chademo:voltage": "500",
    "socket:type2_combo": "1",
    "socket:type2_combo:current": "350",
    "socket:type2_combo:output": "160kW",
    "socket:type2_combo:voltage": "920",
    "website": "https://www.mobie.pt",
    "id": "node/8225238549"
  },
  "geometry": {
    "type": "Point",
    "coordinates": [
      -7.9089415,
      40.6567162
    ]
  }
},
{
  "type": "Feature",
  "id": "node/8225238550",
  "properties": {
    "access": "yes",
    "addr:city": "Viseu",
    "addr:country": "PT",
    "addr:street": "Rua 5 de Outubro",
    "authentication:membership_card": "yes",
    "authentication:none": "no",
    "capacity": "3",
    "fee": "yes",
    "motorcar": "yes",
    "name": "VIS-XXXXX",
    "network": "Mobi.E",
    "opening_hours": "24/7",
    "operator": "unknown",
    "parking:fee": "no",
    "planned:amenity": "charging_station",
    "ref": "VIS-XXXXX",
    "socket:chademo": "3",
    "socket:chademo:current": "120",
    "socket:chademo:output": "50kW",
    "socket:chademo:voltage": "500",
    "socket:type2_combo": "3",
    "socket:type2_combo:current": "125",
    "socket:type2_combo:output": "50kW",
    "socket:type2_combo:voltage": "500",
    "website": "https://www.mobie.pt",
    "id": "node/8225238550"
  },
  "geometry": {
    "type": "Point",
    "coordinates": [
      -7.9089861,
      40.6567096
    ]
  }
},
{
  "type": "Feature",
  "id": "node/8228846822",
  "properties": {
    "access": "yes",
    "addr:city": "Porto",
    "addr:country": "PT",
    "addr:street": "Rua de José Gomes Ferreira",
    "authentication:membership_card": "yes",
    "authentication:none": "no",
    "capacity": "2",
    "email": "apoio.cliente@kmlowcost.com",
    "fee": "yes",
    "motorcar": "yes",
    "name": "PRT-00134",
    "network": "Mobi.E",
    "opening_hours": "24/7",
    "operator": "KLC",
    "parking:fee": "no",
    "phone": "+351 800 296 929",
    "planned:amenity": "charging_station",
    "ref": "PRT-00134",
    "socket:chademo": "1",
    "socket:chademo:current": "120",
    "socket:chademo:output": "50kW",
    "socket:chademo:voltage": "500",
    "socket:type2_cable": "1",
    "socket:type2_cable:current": "63",
    "socket:type2_cable:output": "43kW",
    "socket:type2_cable:voltage": "400",
    "socket:type2_combo": "1",
    "socket:type2_combo:current": "125",
    "socket:type2_combo:output": "50kW",
    "socket:type2_combo:voltage": "500",
    "website": "https://www.mobie.pt",
    "id": "node/8228846822"
  },
  "geometry": {
    "type": "Point",
    "coordinates": [
      -8.66736,
      41.1628707
    ]
  }
},
{
  "type": "Feature",
  "id": "node/8229011333",
  "properties": {
    "access": "yes",
    "addr:city": "Maia",
    "addr:country": "PT",
    "authentication:membership_card": "yes",
    "authentication:none": "no",
    "capacity": "2",
    "email": "mobilidade.electricacrc@galp.com",
    "fee": "yes",
    "motorcar": "yes",
    "name": "MAI-00002",
    "network": "Mobi.E",
    "opening_hours": "24/7",
    "operator": "Galp Geste",
    "parking:fee": "no",
    "phone": "+351 800 249 249",
    "planned:amenity": "charging_station",
    "ref": "MAI-00002",
    "socket:chademo": "1",
    "socket:chademo:current": "120",
    "socket:chademo:output": "50kW",
    "socket:chademo:voltage": "500",
    "socket:type2_cable": "1",
    "socket:type2_cable:current": "63",
    "socket:type2_cable:output": "43kW",
    "socket:type2_cable:voltage": "400",
    "socket:type2_combo": "1",
    "socket:type2_combo:current": "125",
    "socket:type2_combo:output": "50kW",
    "socket:type2_combo:voltage": "500",
    "website": "https://www.mobie.pt",
    "id": "node/8229011333"
  },
  "geometry": {
    "type": "Point",
    "coordinates": [
      -8.5660878,
      41.2002051
    ]
  }
},
{
  "type": "Feature",
  "id": "node/8229011334",
  "properties": {
    "access": "yes",
    "addr:city": "Maia",
    "addr:country": "PT",
    "authentication:membership_card": "yes",
    "authentication:none": "no",
    "capacity": "2",
    "email": "mobilidade.electricacrc@galp.com",
    "fee": "yes",
    "motorcar": "yes",
    "name": "MAI-00003",
    "network": "Mobi.E",
    "opening_hours": "24/7",
    "operator": "Galp Geste",
    "parking:fee": "no",
    "phone": "+351 800 249 249",
    "planned:amenity": "charging_station",
    "ref": "MAI-00003",
    "socket:chademo": "1",
    "socket:chademo:current": "120",
    "socket:chademo:output": "50kW",
    "socket:chademo:voltage": "500",
    "socket:type2_cable": "1",
    "socket:type2_cable:current": "63",
    "socket:type2_cable:output": "43kW",
    "socket:type2_cable:voltage": "400",
    "socket:type2_combo": "1",
    "socket:type2_combo:current": "125",
    "socket:type2_combo:output": "50kW",
    "socket:type2_combo:voltage": "500",
    "website": "https://www.mobie.pt",
    "id": "node/8229011334"
  },
  "geometry": {
    "type": "Point",
    "coordinates": [
      -8.5683543,
      41.2006107
    ]
  }
},
{
  "type": "Feature",
  "id": "node/8231863153",
  "properties": {
    "access": "yes",
    "addr:city": "Trofa",
    "addr:country": "PT",
    "authentication:membership_card": "yes",
    "authentication:none": "no",
    "capacity": "2",
    "email": "mobilidade.electricacrc@galp.com",
    "fee": "yes",
    "motorcar": "yes",
    "name": "TRF-00003",
    "network": "Mobi.E",
    "opening_hours": "24/7",
    "operator": "Galp Geste",
    "parking:fee": "no",
    "phone": "+351 800 249 249",
    "planned:amenity": "charging_station",
    "ref": "TRF-00003",
    "socket:chademo": "1",
    "socket:chademo:current": "120",
    "socket:chademo:output": "50kW",
    "socket:chademo:voltage": "500",
    "socket:type2_cable": "1",
    "socket:type2_cable:current": "63",
    "socket:type2_cable:output": "43kW",
    "socket:type2_cable:voltage": "400",
    "socket:type2_combo": "1",
    "socket:type2_combo:current": "125",
    "socket:type2_combo:output": "50kW",
    "socket:type2_combo:voltage": "500",
    "website": "https://www.mobie.pt",
    "id": "node/8231863153"
  },
  "geometry": {
    "type": "Point",
    "coordinates": [
      -8.563242,
      41.263464
    ]
  }
},
{
  "type": "Feature",
  "id": "node/8255599299",
  "properties": {
    "access": "yes",
    "addr:country": "PT",
    "authentication:membership_card": "yes",
    "authentication:none": "no",
    "capacity": "2",
    "email": "apoio.cliente@kmlowcost.com",
    "fee": "yes",
    "motorcar": "yes",
    "name": "VIS-00051",
    "network": "Mobi.E",
    "opening_hours": "24/7",
    "operator": "KLC",
    "parking:fee": "no",
    "phone": "+351 800 296 929",
    "planned:amenity": "charging_station",
    "ref": "VIS-00051",
    "socket:type2": "2",
    "socket:type2:current": "16",
    "socket:type2:output": "3.7kW",
    "socket:type2:voltage": "230",
    "website": "https://www.mobie.pt",
    "id": "node/8255599299"
  },
  "geometry": {
    "type": "Point",
    "coordinates": [
      -7.9213357,
      40.6964896
    ]
  }
},
{
  "type": "Feature",
  "id": "node/8255607684",
  "properties": {
    "access": "yes",
    "addr:country": "PT",
    "authentication:membership_card": "yes",
    "authentication:none": "no",
    "capacity": "2",
    "email": "ajuda@powerdot.pt",
    "fee": "yes",
    "motorcar": "yes",
    "name": "VIS-00054",
    "network": "Mobi.E",
    "opening_hours": "24/7",
    "operator": "Powerdot",
    "parking:fee": "no",
    "phone": "+351 800 180 292",
    "planned:amenity": "charging_station",
    "ref": "VIS-00054",
    "socket:type2": "2",
    "socket:type2:current": "16",
    "socket:type2:output": "3.7kW",
    "socket:type2:voltage": "230",
    "website": "https://www.mobie.pt",
    "id": "node/8255607684"
  },
  "geometry": {
    "type": "Point",
    "coordinates": [
      -7.9164796,
      40.6618915
    ]
  }
},
{
  "type": "Feature",
  "id": "node/8269928582",
  "properties": {
    "access": "yes",
    "addr:country": "PT",
    "authentication:membership_card": "yes",
    "authentication:none": "no",
    "capacity": "2",
    "fee": "yes",
    "motorcar": "yes",
    "name": "SBA-00002",
    "network": "Mobi.E",
    "opening_hours": "24/7",
    "operator": "unknown",
    "parking:fee": "no",
    "planned:amenity": "charging_station",
    "ref": "SBA-00002",
    "socket:type2": "2",
    "socket:type2:current": "32",
    "socket:type2:output": "22kW",
    "socket:type2:voltage": "400",
    "website": "https://www.mobie.pt",
    "id": "node/8269928582"
  },
  "geometry": {
    "type": "Point",
    "coordinates": [
      -7.8904815,
      37.1522576
    ]
  }
},
{
  "type": "Feature",
  "id": "node/8270210999",
  "properties": {
    "access": "yes",
    "addr:country": "PT",
    "authentication:membership_card": "yes",
    "authentication:none": "no",
    "capacity": "2",
    "email": "mobilidade-eletrica@edp.pt",
    "fee": "yes",
    "motorcar": "yes",
    "name": "LGA-XXXXX",
    "network": "Mobi.E",
    "opening_hours": "24/7",
    "operator": "EDP Comercial",
    "parking:fee": "no",
    "phone": "+351 800 222 222",
    "planned:amenity": "charging_station",
    "ref": "LGA-XXXXX",
    "socket:type2": "2",
    "socket:type2:current": "32",
    "socket:type2:output": "22kW",
    "socket:type2:voltage": "400",
    "website": "https://www.mobie.pt",
    "id": "node/8270210999"
  },
  "geometry": {
    "type": "Point",
    "coordinates": [
      -8.5209777,
      37.1246886
    ]
  }
},
{
  "type": "Feature",
  "id": "node/8270219110",
  "properties": {
    "access": "yes",
    "addr:country": "PT",
    "authentication:membership_card": "yes",
    "authentication:none": "no",
    "capacity": "2",
    "fee": "yes",
    "motorcar": "yes",
    "name": "AJZ-00002",
    "network": "Mobi.E",
    "opening_hours": "24/7",
    "operator": "unknown",
    "parking:fee": "no",
    "planned:amenity": "charging_station",
    "ref": "AJZ-00002",
    "socket:type2": "2",
    "socket:type2:current": "32",
    "socket:type2:output": "22kW",
    "socket:type2:voltage": "400",
    "website": "https://www.mobie.pt",
    "id": "node/8270219110"
  },
  "geometry": {
    "type": "Point",
    "coordinates": [
      -8.8029577,
      37.3165989
    ]
  }
},
{
  "type": "Feature",
  "id": "node/8270238816",
  "properties": {
    "access": "yes",
    "addr:country": "PT",
    "authentication:membership_card": "yes",
    "authentication:none": "no",
    "capacity": "2",
    "fee": "yes",
    "motorcar": "yes",
    "name": "MCQ-00002",
    "network": "Mobi.E",
    "opening_hours": "24/7",
    "operator": "unknown",
    "parking:fee": "no",
    "planned:amenity": "charging_station",
    "ref": "MCQ-00002",
    "socket:type2": "2",
    "socket:type2:current": "32",
    "socket:type2:output": "22kW",
    "socket:type2:voltage": "400",
    "website": "https://www.mobie.pt",
    "id": "node/8270238816"
  },
  "geometry": {
    "type": "Point",
    "coordinates": [
      -8.5556178,
      37.316152
    ]
  }
},
{
  "type": "Feature",
  "id": "node/8270263220",
  "properties": {
    "access": "yes",
    "addr:country": "PT",
    "authentication:membership_card": "yes",
    "authentication:none": "no",
    "capacity": "2",
    "email": "ajuda@powerdot.pt",
    "fee": "yes",
    "motorcar": "yes",
    "name": "VBP-00002",
    "network": "Mobi.E",
    "opening_hours": "24/7",
    "operator": "Powerdot",
    "parking:fee": "no",
    "phone": "+351 800 180 292",
    "planned:amenity": "charging_station",
    "ref": "VBP-00002",
    "socket:type2": "2",
    "socket:type2:current": "32",
    "socket:type2:output": "22kW",
    "socket:type2:voltage": "400",
    "website": "https://www.mobie.pt",
    "id": "node/8270263220"
  },
  "geometry": {
    "type": "Point",
    "coordinates": [
      -8.9124294,
      37.0817677
    ]
  }
},
{
  "type": "Feature",
  "id": "node/8273804468",
  "properties": {
    "access": "yes",
    "addr:country": "PT",
    "authentication:membership_card": "yes",
    "authentication:none": "no",
    "capacity": "2",
    "email": "ajuda@powerdot.pt",
    "fee": "yes",
    "motorcar": "yes",
    "name": "SNS-00002",
    "network": "Mobi.E",
    "opening_hours": "24/7",
    "operator": "Powerdot",
    "parking:fee": "no",
    "phone": "+351 800 180 292",
    "planned:amenity": "charging_station",
    "ref": "SNS-00002",
    "socket:type2": "2",
    "socket:type2:current": "32",
    "socket:type2:output": "22kW",
    "socket:type2:voltage": "400",
    "website": "https://www.mobie.pt",
    "id": "node/8273804468"
  },
  "geometry": {
    "type": "Point",
    "coordinates": [
      -8.8659785,
      37.9554932
    ]
  }
},
{
  "type": "Feature",
  "id": "node/8289565051",
  "properties": {
    "access": "yes",
    "addr:country": "PT",
    "authentication:membership_card": "yes",
    "authentication:none": "no",
    "capacity": "2",
    "email": "suporte@evpower.pt",
    "fee": "yes",
    "motorcar": "yes",
    "name": "ARV-00004",
    "network": "Mobi.E",
    "opening_hours": "24/7",
    "operator": "EV Power",
    "parking:fee": "no",
    "phone": "+351 800 254 565",
    "planned:amenity": "charging_station",
    "ref": "ARV-00004",
    "socket:type2": "2",
    "socket:type2:current": "32",
    "socket:type2:output": "22kW",
    "socket:type2:voltage": "400",
    "website": "https://www.mobie.pt",
    "id": "node/8289565051"
  },
  "geometry": {
    "type": "Point",
    "coordinates": [
      -9.084945,
      38.9981436
    ]
  }
},
{
  "type": "Feature",
  "id": "node/8289952652",
  "properties": {
    "access": "yes",
    "addr:city": "Portalegre",
    "addr:country": "PT",
    "authentication:membership_card": "yes",
    "authentication:none": "no",
    "capacity": "2",
    "email": "apoio.cliente@kmlowcost.com",
    "fee": "yes",
    "motorcar": "yes",
    "name": "PTG-00011 - LIDL",
    "network": "Mobi.E",
    "opening_hours": "24/7",
    "operator": "KLC",
    "parking:fee": "no",
    "phone": "+351 800 296 929",
    "planned:amenity": "charging_station",
    "ref": "PTG-00011",
    "socket:chademo": "1",
    "socket:chademo:current": "120",
    "socket:chademo:output": "50kW",
    "socket:chademo:voltage": "500",
    "socket:type2_cable": "1",
    "socket:type2_cable:current": "63",
    "socket:type2_cable:output": "43kW",
    "socket:type2_cable:voltage": "400",
    "socket:type2_combo": "1",
    "socket:type2_combo:current": "125",
    "socket:type2_combo:output": "50kW",
    "socket:type2_combo:voltage": "500",
    "website": "https://www.mobie.pt",
    "id": "node/8289952652"
  },
  "geometry": {
    "type": "Point",
    "coordinates": [
      -7.4309555,
      39.2803478
    ]
  }
},
{
  "type": "Feature",
  "id": "node/8309457209",
  "properties": {
    "access": "yes",
    "addr:country": "PT",
    "authentication:membership_card": "yes",
    "authentication:none": "no",
    "capacity": "2",
    "email": "ajuda@powerdot.pt",
    "fee": "yes",
    "motorcar": "yes",
    "name": "GDM-00001",
    "network": "Mobi.E",
    "opening_hours": "24/7",
    "operator": "Powerdot",
    "parking:fee": "no",
    "phone": "+351 800 180 292",
    "planned:amenity": "charging_station",
    "ref": "GDM-00001",
    "socket:type2": "2",
    "socket:type2:current": "32",
    "socket:type2:output": "22kW",
    "socket:type2:voltage": "400",
    "website": "https://www.mobie.pt",
    "id": "node/8309457209"
  },
  "geometry": {
    "type": "Point",
    "coordinates": [
      -8.5291383,
      41.139559
    ]
  }
},
{
  "type": "Feature",
  "id": "node/8309468833",
  "properties": {
    "access": "yes",
    "addr:country": "PT",
    "authentication:membership_card": "yes",
    "authentication:none": "no",
    "capacity": "2",
    "email": "mobilidade.electricacrc@galp.com",
    "fee": "yes",
    "motorcar": "yes",
    "name": "ALD-00001",
    "network": "Mobi.E",
    "opening_hours": "24/7",
    "operator": "Galp Power",
    "parking:fee": "no",
    "phone": "+351 800 249 249",
    "planned:amenity": "charging_station",
    "ref": "ALD-00001",
    "socket:type2": "2",
    "socket:type2:current": "32",
    "socket:type2:output": "22kW",
    "socket:type2:voltage": "400",
    "website": "https://www.mobie.pt",
    "id": "node/8309468833"
  },
  "geometry": {
    "type": "Point",
    "coordinates": [
      -6.9055939,
      40.725407
    ]
  }
},
{
  "type": "Feature",
  "id": "node/8309482986",
  "properties": {
    "access": "yes",
    "addr:country": "PT",
    "authentication:membership_card": "yes",
    "authentication:none": "no",
    "capacity": "2",
    "email": "apoio.cliente@kmlowcost.com",
    "fee": "yes",
    "motorcar": "yes",
    "name": "PVZ-00001",
    "network": "Mobi.E",
    "opening_hours": "24/7",
    "operator": "KLC",
    "parking:fee": "no",
    "phone": "+351 800 296 929",
    "planned:amenity": "charging_station",
    "ref": "PVZ-00001",
    "socket:type2": "2",
    "socket:type2:current": "32",
    "socket:type2:output": "22kW",
    "socket:type2:voltage": "400",
    "website": "https://www.mobie.pt",
    "id": "node/8309482986"
  },
  "geometry": {
    "type": "Point",
    "coordinates": [
      -8.7598895,
      41.3791472
    ]
  }
},
{
  "type": "Feature",
  "id": "node/8313044421",
  "properties": {
    "access": "yes",
    "addr:country": "PT",
    "authentication:membership_card": "yes",
    "authentication:none": "no",
    "capacity": "2",
    "fee": "yes",
    "motorcar": "yes",
    "name": "GMR-XXXXX",
    "network": "Mobi.E",
    "opening_hours": "24/7",
    "operator": "unknown",
    "parking:fee": "no",
    "planned:amenity": "charging_station",
    "ref": "GMR-XXXXX",
    "socket:type2": "2",
    "socket:type2:current": "32",
    "socket:type2:output": "22kW",
    "socket:type2:voltage": "400",
    "website": "https://www.mobie.pt",
    "id": "node/8313044421"
  },
  "geometry": {
    "type": "Point",
    "coordinates": [
      -8.3311303,
      41.4651923
    ]
  }
},
{
  "type": "Feature",
  "id": "node/8313052209",
  "properties": {
    "access": "yes",
    "addr:country": "PT",
    "authentication:membership_card": "yes",
    "authentication:none": "no",
    "capacity": "2",
    "email": "mobilidade-eletrica@edp.pt",
    "fee": "yes",
    "motorcar": "yes",
    "name": "EPS-00001",
    "network": "Mobi.E",
    "opening_hours": "24/7",
    "operator": "EDP Comercial",
    "parking:fee": "no",
    "phone": "+351 800 222 222",
    "planned:amenity": "charging_station",
    "ref": "EPS-00001",
    "socket:type2": "2",
    "socket:type2:current": "32",
    "socket:type2:output": "22kW",
    "socket:type2:voltage": "400",
    "website": "https://www.mobie.pt",
    "id": "node/8313052209"
  },
  "geometry": {
    "type": "Point",
    "coordinates": [
      -8.7805572,
      41.5309637
    ]
  }
},
{
  "type": "Feature",
  "id": "node/8362651066",
  "properties": {
    "access": "yes",
    "addr:country": "PT",
    "authentication:membership_card": "yes",
    "authentication:none": "no",
    "capacity": "2",
    "email": "suporte@evpower.pt",
    "fee": "yes",
    "motorcar": "yes",
    "name": "LLE-00050",
    "network": "Mobi.E",
    "opening_hours": "24/7",
    "operator": "EV Power",
    "parking:fee": "no",
    "phone": "+351 800 254 565",
    "planned:amenity": "charging_station",
    "ref": "LLE-00050",
    "socket:type2": "2",
    "socket:type2:current": "32",
    "socket:type2:output": "22kW",
    "socket:type2:voltage": "400",
    "website": "https://www.mobie.pt",
    "id": "node/8362651066"
  },
  "geometry": {
    "type": "Point",
    "coordinates": [
      -8.1204917,
      37.082414
    ]
  }
},
{
  "type": "Feature",
  "id": "node/8385348937",
  "properties": {
    "access": "yes",
    "addr:city": "Vila Nova de Gaia",
    "addr:country": "PT",
    "addr:street": "Via 8",
    "authentication:membership_card": "yes",
    "authentication:none": "no",
    "capacity": "2",
    "email": "mobilidade.electricacrc@galp.com",
    "fee": "yes",
    "motorcar": "yes",
    "name": "VNG-00064 - Galp",
    "network": "Mobi.E",
    "opening_hours": "24/7",
    "operator": "Galp Geste",
    "parking:fee": "no",
    "phone": "+351 800 249 249",
    "planned:amenity": "charging_station",
    "ref": "VNG-00064",
    "socket:chademo": "1",
    "socket:chademo:current": "120",
    "socket:chademo:output": "50kW",
    "socket:chademo:voltage": "500",
    "socket:type2_cable": "1",
    "socket:type2_cable:current": "63",
    "socket:type2_cable:output": "43kW",
    "socket:type2_cable:voltage": "400",
    "socket:type2_combo": "1",
    "socket:type2_combo:current": "125",
    "socket:type2_combo:output": "50kW",
    "socket:type2_combo:voltage": "500",
    "website": "https://www.mobie.pt",
    "id": "node/8385348937"
  },
  "geometry": {
    "type": "Point",
    "coordinates": [
      -8.6341676,
      41.1402564
    ]
  }
},
{
  "type": "Feature",
  "id": "node/8385464352",
  "properties": {
    "access": "yes",
    "addr:city": "Oeiras",
    "addr:country": "PT",
    "authentication:membership_card": "yes",
    "authentication:none": "no",
    "capacity": "1",
    "email": "suporte@mobiletric.com",
    "fee": "yes",
    "motorcar": "yes",
    "name": "OER-XXXXX - Quinta do Marquês",
    "network": "Mobi.E",
    "opening_hours": "24/7",
    "operator": "Mobiletric",
    "parking:fee": "no",
    "phone": "+351 800 210 204",
    "planned:amenity": "charging_station",
    "ref": "OER-XXXXX",
    "socket:chademo": "1",
    "socket:chademo:current": "120",
    "socket:chademo:output": "50kW",
    "socket:chademo:voltage": "500",
    "socket:type2_combo": "1",
    "socket:type2_combo:current": "350",
    "socket:type2_combo:output": "160kW",
    "socket:type2_combo:voltage": "920",
    "website": "https://www.mobie.pt",
    "id": "node/8385464352"
  },
  "geometry": {
    "type": "Point",
    "coordinates": [
      -9.3294793,
      38.6959231
    ]
  }
},
{
  "type": "Feature",
  "id": "node/8385467612",
  "properties": {
    "access": "yes",
    "addr:city": "Cascais",
    "addr:country": "PT",
    "addr:street": "Rua Doutor Manuel de Arriaga",
    "authentication:membership_card": "yes",
    "authentication:none": "no",
    "capacity": "2",
    "fee": "yes",
    "motorcar": "yes",
    "name": "CSC-XXXXX",
    "network": "Mobi.E",
    "opening_hours": "24/7",
    "operator": "unknown",
    "parking:fee": "no",
    "planned:amenity": "charging_station",
    "ref": "CSC-XXXXX",
    "socket:chademo": "1",
    "socket:chademo:current": "120",
    "socket:chademo:output": "50kW",
    "socket:chademo:voltage": "500",
    "socket:type2_cable": "1",
    "socket:type2_cable:current": "63",
    "socket:type2_cable:output": "43kW",
    "socket:type2_cable:voltage": "400",
    "socket:type2_combo": "1",
    "socket:type2_combo:current": "125",
    "socket:type2_combo:output": "50kW",
    "socket:type2_combo:voltage": "500",
    "website": "https://www.mobie.pt",
    "id": "node/8385467612"
  },
  "geometry": {
    "type": "Point",
    "coordinates": [
      -9.337707,
      38.6879353
    ]
  }
},
{
  "type": "Feature",
  "id": "node/8385485018",
  "properties": {
    "access": "yes",
    "addr:city": "Oeiras",
    "addr:country": "PT",
    "authentication:membership_card": "yes",
    "authentication:none": "no",
    "capacity": "1",
    "email": "mobilidade.electricacrc@galp.com",
    "fee": "yes",
    "motorcar": "yes",
    "name": "OER-00083 - Jardim de Oeiras",
    "network": "Mobi.E",
    "opening_hours": "24/7",
    "operator": "Galp Power",
    "parking:fee": "no",
    "phone": "+351 800 249 249",
    "planned:amenity": "charging_station",
    "ref": "OER-00083",
    "socket:chademo": "1",
    "socket:chademo:current": "120",
    "socket:chademo:output": "50kW",
    "socket:chademo:voltage": "500",
    "socket:type2_combo": "1",
    "socket:type2_combo:current": "350",
    "socket:type2_combo:output": "160kW",
    "socket:type2_combo:voltage": "920",
    "website": "https://www.mobie.pt",
    "id": "node/8385485018"
  },
  "geometry": {
    "type": "Point",
    "coordinates": [
      -9.3136972,
      38.6851685
    ]
  }
},
{
  "type": "Feature",
  "id": "node/8387626477",
  "properties": {
    "access": "yes",
    "addr:country": "PT",
    "authentication:membership_card": "yes",
    "authentication:none": "no",
    "capacity": "2",
    "email": "mobilidade-eletrica@edp.pt",
    "fee": "yes",
    "motorcar": "yes",
    "name": "VND-00002",
    "network": "Mobi.E",
    "opening_hours": "24/7",
    "operator": "EDP Comercial",
    "parking:fee": "no",
    "phone": "+351 800 222 222",
    "planned:amenity": "charging_station",
    "ref": "VND-00002",
    "socket:chademo": "1",
    "socket:chademo:current": "120",
    "socket:chademo:output": "50kW",
    "socket:chademo:voltage": "500",
    "socket:type2_cable": "1",
    "socket:type2_cable:current": "63",
    "socket:type2_cable:output": "43kW",
    "socket:type2_cable:voltage": "400",
    "socket:type2_combo": "1",
    "socket:type2_combo:current": "125",
    "socket:type2_combo:output": "50kW",
    "socket:type2_combo:voltage": "500",
    "website": "https://www.mobie.pt",
    "id": "node/8387626477"
  },
  "geometry": {
    "type": "Point",
    "coordinates": [
      -8.5804993,
      38.6202633
    ]
  }
},
{
  "type": "Feature",
  "id": "node/8387626478",
  "properties": {
    "access": "yes",
    "addr:country": "PT",
    "authentication:membership_card": "yes",
    "authentication:none": "no",
    "capacity": "2",
    "email": "mobilidade-eletrica@edp.pt",
    "fee": "yes",
    "motorcar": "yes",
    "name": "VND-XXXXX",
    "network": "Mobi.E",
    "opening_hours": "24/7",
    "operator": "EDP Comercial",
    "parking:fee": "no",
    "phone": "+351 800 222 222",
    "planned:amenity": "charging_station",
    "ref": "VND-XXXXX",
    "socket:chademo": "1",
    "socket:chademo:current": "120",
    "socket:chademo:output": "50kW",
    "socket:chademo:voltage": "500",
    "socket:type2_cable": "1",
    "socket:type2_cable:current": "63",
    "socket:type2_cable:output": "43kW",
    "socket:type2_cable:voltage": "400",
    "socket:type2_combo": "1",
    "socket:type2_combo:current": "125",
    "socket:type2_combo:output": "50kW",
    "socket:type2_combo:voltage": "500",
    "website": "https://www.mobie.pt",
    "id": "node/8387626478"
  },
  "geometry": {
    "type": "Point",
    "coordinates": [
      -8.57797,
      38.6228304
    ]
  }
},
{
  "type": "Feature",
  "id": "node/8400118013",
  "properties": {
    "access": "yes",
    "addr:country": "PT",
    "authentication:membership_card": "yes",
    "authentication:none": "no",
    "capacity": "2",
    "email": "mobilidade-eletrica@edp.pt",
    "fee": "yes",
    "motorcar": "yes",
    "name": "BRR-XXXXX",
    "network": "Mobi.E",
    "opening_hours": "24/7",
    "operator": "EDP Comercial",
    "parking:fee": "no",
    "phone": "+351 800 222 222",
    "planned:amenity": "charging_station",
    "ref": "BRR-XXXXX",
    "socket:type2": "2",
    "socket:type2:current": "32",
    "socket:type2:output": "22kW",
    "socket:type2:voltage": "400",
    "website": "https://www.mobie.pt",
    "id": "node/8400118013"
  },
  "geometry": {
    "type": "Point",
    "coordinates": [
      -9.0784688,
      38.6608281
    ]
  }
},
{
  "type": "Feature",
  "id": "node/8400148852",
  "properties": {
    "access": "yes",
    "addr:country": "PT",
    "authentication:membership_card": "yes",
    "authentication:none": "no",
    "capacity": "2",
    "email": "mobilidade-eletrica@edp.pt",
    "fee": "yes",
    "motorcar": "yes",
    "name": "VLC-00001",
    "network": "Mobi.E",
    "opening_hours": "24/7",
    "operator": "EDP Comercial",
    "parking:fee": "no",
    "phone": "+351 800 222 222",
    "planned:amenity": "charging_station",
    "ref": "VLC-00001",
    "socket:type2": "2",
    "socket:type2:current": "32",
    "socket:type2:output": "22kW",
    "socket:type2:voltage": "400",
    "website": "https://www.mobie.pt",
    "id": "node/8400148852"
  },
  "geometry": {
    "type": "Point",
    "coordinates": [
      -8.3958426,
      40.8428273
    ]
  }
},
{
  "type": "Feature",
  "id": "node/8436137429",
  "properties": {
    "access": "yes",
    "addr:country": "PT",
    "authentication:membership_card": "yes",
    "authentication:none": "no",
    "capacity": "6",
    "email": "geral@eplug.pt",
    "fee": "yes",
    "motorcar": "yes",
    "name": "AMD-00037/38/39",
    "network": "Mobi.E",
    "opening_hours": "24/7",
    "operator": "E-Plug",
    "parking:fee": "no",
    "phone": "+351 211 648 577",
    "planned:amenity": "charging_station",
    "ref": "AMD-00037;AMD-00038;AMD-00039",
    "socket:type2": "6",
    "socket:type2:current": "32",
    "socket:type2:output": "7.4kW",
    "socket:type2:voltage": "230",
    "website": "https://www.mobie.pt",
    "id": "node/8436137429"
  },
  "geometry": {
    "type": "Point",
    "coordinates": [
      -9.219954,
      38.7769387
    ]
  }
},
{
  "type": "Feature",
  "id": "node/8461807809",
  "properties": {
    "access": "yes",
    "addr:city": "Rio Tinto",
    "addr:country": "PT",
    "addr:street": "Avenida Infante Dom Henrique",
    "authentication:membership_card": "yes",
    "authentication:none": "no",
    "capacity": "2",
    "email": "apoio.cliente@kmlowcost.com",
    "fee": "yes",
    "motorcar": "yes",
    "name": "GDM-00002",
    "network": "Mobi.E",
    "opening_hours": "24/7",
    "operator": "KLC",
    "parking:fee": "no",
    "phone": "+351 800 296 929",
    "planned:amenity": "charging_station",
    "ref": "GDM-00002",
    "socket:chademo": "1",
    "socket:chademo:current": "120",
    "socket:chademo:output": "50kW",
    "socket:chademo:voltage": "500",
    "socket:type2_cable": "1",
    "socket:type2_cable:current": "63",
    "socket:type2_cable:output": "43kW",
    "socket:type2_cable:voltage": "400",
    "socket:type2_combo": "1",
    "socket:type2_combo:current": "125",
    "socket:type2_combo:output": "50kW",
    "socket:type2_combo:voltage": "500",
    "website": "https://www.mobie.pt",
    "id": "node/8461807809"
  },
  "geometry": {
    "type": "Point",
    "coordinates": [
      -8.5474786,
      41.1710851
    ]
  }
},
{
  "type": "Feature",
  "id": "node/8480196147",
  "properties": {
    "access": "yes",
    "addr:country": "PT",
    "authentication:membership_card": "yes",
    "authentication:none": "no",
    "capacity": "4",
    "email": "suporte@evpower.pt",
    "fee": "yes",
    "motorcar": "yes",
    "name": "VNF-00005/6",
    "network": "Mobi.E",
    "opening_hours": "24/7",
    "operator": "EV Power",
    "parking:fee": "no",
    "phone": "+351 800 254 565",
    "planned:amenity": "charging_station",
    "ref": "VNF-00005;VNF-00006",
    "socket:type2": "4",
    "socket:type2:current": "32",
    "socket:type2:output": "22kW",
    "socket:type2:voltage": "400",
    "website": "https://www.mobie.pt",
    "id": "node/8480196147"
  },
  "geometry": {
    "type": "Point",
    "coordinates": [
      -8.519373,
      41.41044
    ]
  }
},
{
  "type": "Feature",
  "id": "node/8693944208",
  "properties": {
    "access": "yes",
    "addr:city": "Póvoa de Varzim",
    "addr:country": "PT",
    "addr:street": "Avenida do Mar",
    "authentication:membership_card": "yes",
    "authentication:none": "no",
    "capacity": "2",
    "email": "mobilidade.electricacrc@galp.com",
    "fee": "yes",
    "motorcar": "yes",
    "name": "PVZ-XXXXX",
    "network": "Mobi.E",
    "opening_hours": "24/7",
    "operator": "Galp Power",
    "parking:fee": "no",
    "phone": "+351 800 249 249",
    "planned:amenity": "charging_station",
    "ref": "PVZ-XXXXX",
    "socket:chademo": "1",
    "socket:chademo:current": "120",
    "socket:chademo:output": "50kW",
    "socket:chademo:voltage": "500",
    "socket:type2_cable": "1",
    "socket:type2_cable:current": "63",
    "socket:type2_cable:output": "43kW",
    "socket:type2_cable:voltage": "400",
    "socket:type2_combo": "1",
    "socket:type2_combo:current": "125",
    "socket:type2_combo:output": "50kW",
    "socket:type2_combo:voltage": "500",
    "website": "https://www.mobie.pt",
    "id": "node/8693944208"
  },
  "geometry": {
    "type": "Point",
    "coordinates": [
      -8.763498,
      41.389052
    ]
  }
},
{
  "type": "Feature",
  "id": "node/8757685136",
  "properties": {
    "access": "yes",
    "addr:city": "Porto",
    "addr:country": "PT",
    "authentication:membership_card": "yes",
    "authentication:none": "no",
    "capacity": "2",
    "email": "apoio.cliente@kmlowcost.com",
    "fee": "yes",
    "motorcar": "yes",
    "name": "PRT-00091 - Lidl",
    "network": "Mobi.E",
    "opening_hours": "24/7",
    "operator": "KLC",
    "parking:fee": "no",
    "phone": "+351 800 296 929",
    "planned:amenity": "charging_station",
    "ref": "PRT-00091",
    "socket:chademo": "1",
    "socket:chademo:current": "120",
    "socket:chademo:output": "50kW",
    "socket:chademo:voltage": "500",
    "socket:type2_cable": "1",
    "socket:type2_cable:current": "63",
    "socket:type2_cable:output": "43kW",
    "socket:type2_cable:voltage": "400",
    "socket:type2_combo": "1",
    "socket:type2_combo:current": "125",
    "socket:type2_combo:output": "50kW",
    "socket:type2_combo:voltage": "500",
    "website": "https://www.mobie.pt",
    "id": "node/8757685136"
  },
  "geometry": {
    "type": "Point",
    "coordinates": [
      -8.5815229,
      41.1801335
    ]
  }
},
{
  "type": "Feature",
  "id": "node/8757747706",
  "properties": {
    "access": "yes",
    "addr:country": "PT",
    "authentication:membership_card": "yes",
    "authentication:none": "no",
    "capacity": "2",
    "email": "segma@segma.pt",
    "fee": "yes",
    "motorcar": "yes",
    "name": "PVC-00002",
    "network": "Mobi.E",
    "opening_hours": "24/7",
    "operator": "SEGMA",
    "parking:fee": "no",
    "planned:amenity": "charging_station",
    "ref": "PVC-00002",
    "socket:type2": "2",
    "socket:type2:current": "32",
    "socket:type2:output": "22kW",
    "socket:type2:voltage": "400",
    "website": "https://www.mobie.pt",
    "id": "node/8757747706"
  },
  "geometry": {
    "type": "Point",
    "coordinates": [
      -25.3144647,
      37.7732298
    ]
  }
},
{
  "type": "Feature",
  "id": "node/8757747707",
  "properties": {
    "access": "yes",
    "addr:city": "Monção",
    "addr:country": "PT",
    "authentication:membership_card": "yes",
    "authentication:none": "no",
    "capacity": "2",
    "email": "apoio.cliente@kmlowcost.com",
    "fee": "yes",
    "motorcar": "yes",
    "name": "MNC-00002 - Lidl",
    "network": "Mobi.E",
    "opening_hours": "24/7",
    "operator": "KLC",
    "parking:fee": "no",
    "phone": "+351 800 296 929",
    "planned:amenity": "charging_station",
    "ref": "MNC-00002",
    "socket:chademo": "1",
    "socket:chademo:current": "120",
    "socket:chademo:output": "50kW",
    "socket:chademo:voltage": "500",
    "socket:type2_cable": "1",
    "socket:type2_cable:current": "63",
    "socket:type2_cable:output": "43kW",
    "socket:type2_cable:voltage": "400",
    "socket:type2_combo": "1",
    "socket:type2_combo:current": "125",
    "socket:type2_combo:output": "50kW",
    "socket:type2_combo:voltage": "500",
    "website": "https://www.mobie.pt",
    "id": "node/8757747707"
  },
  "geometry": {
    "type": "Point",
    "coordinates": [
      -8.4953068,
      42.0672859
    ]
  }
},
{
  "type": "Feature",
  "id": "node/8781140429",
  "properties": {
    "access": "yes",
    "addr:city": "Sines",
    "addr:country": "PT",
    "authentication:membership_card": "yes",
    "authentication:none": "no",
    "capacity": "2",
    "email": "apoio.cliente@kmlowcost.com",
    "fee": "yes",
    "motorcar": "yes",
    "name": "SNS-00007 - Lidl",
    "network": "Mobi.E",
    "opening_hours": "24/7",
    "operator": "KLC",
    "parking:fee": "no",
    "phone": "+351 800 296 929",
    "planned:amenity": "charging_station",
    "ref": "SNS-00007",
    "socket:chademo": "1",
    "socket:chademo:current": "120",
    "socket:chademo:output": "50kW",
    "socket:chademo:voltage": "500",
    "socket:type2_cable": "1",
    "socket:type2_cable:current": "63",
    "socket:type2_cable:output": "43kW",
    "socket:type2_cable:voltage": "400",
    "socket:type2_combo": "1",
    "socket:type2_combo:current": "125",
    "socket:type2_combo:output": "50kW",
    "socket:type2_combo:voltage": "500",
    "website": "https://www.mobie.pt",
    "id": "node/8781140429"
  },
  "geometry": {
    "type": "Point",
    "coordinates": [
      -8.8551499,
      37.9589671
    ]
  }
},
{
  "type": "Feature",
  "id": "node/8781193942",
  "properties": {
    "access": "yes",
    "addr:city": "Barcelos",
    "addr:country": "PT",
    "authentication:membership_card": "yes",
    "authentication:none": "no",
    "capacity": "2",
    "email": "apoio.cliente@kmlowcost.com",
    "fee": "yes",
    "motorcar": "yes",
    "name": "BCL-00012 - Lidl",
    "network": "Mobi.E",
    "opening_hours": "24/7",
    "operator": "KLC",
    "parking:fee": "no",
    "phone": "+351 800 296 929",
    "planned:amenity": "charging_station",
    "ref": "BCL-00012",
    "socket:chademo": "1",
    "socket:chademo:current": "120",
    "socket:chademo:output": "50kW",
    "socket:chademo:voltage": "500",
    "socket:type2_cable": "1",
    "socket:type2_cable:current": "63",
    "socket:type2_cable:output": "43kW",
    "socket:type2_cable:voltage": "400",
    "socket:type2_combo": "1",
    "socket:type2_combo:current": "125",
    "socket:type2_combo:output": "50kW",
    "socket:type2_combo:voltage": "500",
    "website": "https://www.mobie.pt",
    "id": "node/8781193942"
  },
  "geometry": {
    "type": "Point",
    "coordinates": [
      -8.6266842,
      41.5322509
    ]
  }
},
{
  "type": "Feature",
  "id": "node/8830368191",
  "properties": {
    "access": "yes",
    "addr:country": "PT",
    "authentication:membership_card": "yes",
    "authentication:none": "no",
    "capacity": "2",
    "email": "apoio.cliente@kmlowcost.com",
    "fee": "yes",
    "motorcar": "yes",
    "name": "VFR-00009 - Pingo Doce",
    "network": "Mobi.E",
    "opening_hours": "24/7",
    "operator": "KLC",
    "parking:fee": "no",
    "phone": "+351 800 296 929",
    "planned:amenity": "charging_station",
    "ref": "VFR-00009",
    "socket:type2": "2",
    "socket:type2:current": "32",
    "socket:type2:output": "22kW",
    "socket:type2:voltage": "400",
    "website": "https://www.mobie.pt",
    "id": "node/8830368191"
  },
  "geometry": {
    "type": "Point",
    "coordinates": [
      -8.5669135,
      40.92147
    ]
  }
},
{
  "type": "Feature",
  "id": "node/8833293782",
  "properties": {
    "access": "yes",
    "addr:city": "prado",
    "addr:country": "PT",
    "authentication:membership_card": "yes",
    "authentication:none": "no",
    "capacity": "2",
    "email": "ajuda@powerdot.pt",
    "fee": "yes",
    "motorcar": "yes",
    "name": "VVD-00008 - Q8",
    "network": "Mobi.E",
    "opening_hours": "24/7",
    "operator": "Powerdot",
    "parking:fee": "no",
    "phone": "+351 800 180 292",
    "planned:amenity": "charging_station",
    "ref": "VVD-00008",
    "socket:chademo": "1",
    "socket:chademo:current": "120",
    "socket:chademo:output": "50kW",
    "socket:chademo:voltage": "500",
    "socket:type2_cable": "1",
    "socket:type2_cable:current": "63",
    "socket:type2_cable:output": "43kW",
    "socket:type2_cable:voltage": "400",
    "socket:type2_combo": "1",
    "socket:type2_combo:current": "125",
    "socket:type2_combo:output": "50kW",
    "socket:type2_combo:voltage": "500",
    "website": "https://www.mobie.pt",
    "id": "node/8833293782"
  },
  "geometry": {
    "type": "Point",
    "coordinates": [
      -8.472132,
      41.61297
    ]
  }
},
{
  "type": "Feature",
  "id": "node/8833322153",
  "properties": {
    "access": "yes",
    "addr:city": "Lourinhã",
    "addr:country": "PT",
    "authentication:membership_card": "yes",
    "authentication:none": "no",
    "capacity": "2",
    "email": "apoio.cliente@kmlowcost.com",
    "fee": "yes",
    "motorcar": "yes",
    "name": "LNH-00002 - Pingo Doce",
    "network": "Mobi.E",
    "opening_hours": "24/7",
    "operator": "KLC",
    "parking:fee": "no",
    "phone": "+351 800 296 929",
    "planned:amenity": "charging_station",
    "ref": "LNH-00002",
    "socket:chademo": "1",
    "socket:chademo:current": "120",
    "socket:chademo:output": "50kW",
    "socket:chademo:voltage": "500",
    "socket:type2_cable": "1",
    "socket:type2_cable:current": "32",
    "socket:type2_cable:output": "22kW",
    "socket:type2_cable:voltage": "400",
    "socket:type2_combo": "1",
    "socket:type2_combo:current": "125",
    "socket:type2_combo:output": "50kW",
    "socket:type2_combo:voltage": "500",
    "website": "https://www.mobie.pt",
    "id": "node/8833322153"
  },
  "geometry": {
    "type": "Point",
    "coordinates": [
      -9.3126578,
      39.2504835
    ]
  }
},
{
  "type": "Feature",
  "id": "node/8833322154",
  "properties": {
    "access": "yes",
    "addr:city": "Mirandela",
    "addr:country": "PT",
    "authentication:membership_card": "yes",
    "authentication:none": "no",
    "capacity": "2",
    "email": "apoio.cliente@kmlowcost.com",
    "fee": "yes",
    "motorcar": "yes",
    "name": "MDL-00003 - Pingo Doce",
    "network": "Mobi.E",
    "opening_hours": "24/7",
    "operator": "KLC",
    "parking:fee": "no",
    "phone": "+351 800 296 929",
    "planned:amenity": "charging_station",
    "ref": "MDL-00003",
    "socket:chademo": "1",
    "socket:chademo:current": "120",
    "socket:chademo:output": "50kW",
    "socket:chademo:voltage": "500",
    "socket:type2_cable": "1",
    "socket:type2_cable:current": "63",
    "socket:type2_cable:output": "43kW",
    "socket:type2_cable:voltage": "400",
    "socket:type2_combo": "1",
    "socket:type2_combo:current": "125",
    "socket:type2_combo:output": "50kW",
    "socket:type2_combo:voltage": "500",
    "website": "https://www.mobie.pt",
    "id": "node/8833322154"
  },
  "geometry": {
    "type": "Point",
    "coordinates": [
      -7.1792841,
      41.4962763
    ]
  }
},
{
  "type": "Feature",
  "id": "node/8833382346",
  "properties": {
    "access": "yes",
    "addr:city": "Bragança",
    "addr:country": "PT",
    "authentication:membership_card": "yes",
    "authentication:none": "no",
    "capacity": "2",
    "email": "apoio.cliente@kmlowcost.com",
    "fee": "yes",
    "motorcar": "yes",
    "name": "BGC-00006 - Pingo Doce",
    "network": "Mobi.E",
    "opening_hours": "24/7",
    "operator": "KLC",
    "parking:fee": "no",
    "phone": "+351 800 296 929",
    "planned:amenity": "charging_station",
    "ref": "BGC-00006",
    "socket:chademo": "1",
    "socket:chademo:current": "120",
    "socket:chademo:output": "50kW",
    "socket:chademo:voltage": "500",
    "socket:type2_cable": "1",
    "socket:type2_cable:current": "63",
    "socket:type2_cable:output": "43kW",
    "socket:type2_cable:voltage": "400",
    "socket:type2_combo": "1",
    "socket:type2_combo:current": "125",
    "socket:type2_combo:output": "50kW",
    "socket:type2_combo:voltage": "500",
    "website": "https://www.mobie.pt",
    "id": "node/8833382346"
  },
  "geometry": {
    "type": "Point",
    "coordinates": [
      -6.7791972,
      41.787988
    ]
  }
},
{
  "type": "Feature",
  "id": "node/8833382347",
  "properties": {
    "access": "yes",
    "addr:city": "Abrantes",
    "addr:country": "PT",
    "authentication:membership_card": "yes",
    "authentication:none": "no",
    "capacity": "2",
    "email": "apoio.cliente@kmlowcost.com",
    "fee": "yes",
    "motorcar": "yes",
    "name": "ABT-00005 - Pingo Doce",
    "network": "Mobi.E",
    "opening_hours": "24/7",
    "operator": "KLC",
    "parking:fee": "no",
    "phone": "+351 800 296 929",
    "planned:amenity": "charging_station",
    "ref": "ABT-00005",
    "socket:chademo": "1",
    "socket:chademo:current": "120",
    "socket:chademo:output": "50kW",
    "socket:chademo:voltage": "500",
    "socket:type2_cable": "1",
    "socket:type2_cable:current": "63",
    "socket:type2_cable:output": "43kW",
    "socket:type2_cable:voltage": "400",
    "socket:type2_combo": "1",
    "socket:type2_combo:current": "125",
    "socket:type2_combo:output": "50kW",
    "socket:type2_combo:voltage": "500",
    "website": "https://www.mobie.pt",
    "id": "node/8833382347"
  },
  "geometry": {
    "type": "Point",
    "coordinates": [
      -8.2049626,
      39.4662574
    ]
  }
},
{
  "type": "Feature",
  "id": "node/8833382349",
  "properties": {
    "access": "yes",
    "addr:city": "Évora",
    "addr:country": "PT",
    "authentication:membership_card": "yes",
    "authentication:none": "no",
    "capacity": "2",
    "email": "apoio.cliente@kmlowcost.com",
    "fee": "yes",
    "motorcar": "yes",
    "name": "EVR-00020 - Pingo Doce",
    "network": "Mobi.E",
    "opening_hours": "24/7",
    "operator": "KLC",
    "parking:fee": "no",
    "phone": "+351 800 296 929",
    "planned:amenity": "charging_station",
    "ref": "EVR-00020",
    "socket:chademo": "1",
    "socket:chademo:current": "120",
    "socket:chademo:output": "50kW",
    "socket:chademo:voltage": "500",
    "socket:type2_cable": "1",
    "socket:type2_cable:current": "32",
    "socket:type2_cable:output": "22kW",
    "socket:type2_cable:voltage": "400",
    "socket:type2_combo": "1",
    "socket:type2_combo:current": "125",
    "socket:type2_combo:output": "50kW",
    "socket:type2_combo:voltage": "500",
    "website": "https://www.mobie.pt",
    "id": "node/8833382349"
  },
  "geometry": {
    "type": "Point",
    "coordinates": [
      -7.941877,
      38.566363
    ]
  }
},
{
  "type": "Feature",
  "id": "node/8833398839",
  "properties": {
    "access": "yes",
    "addr:city": "Gandra",
    "addr:country": "PT",
    "authentication:membership_card": "yes",
    "authentication:none": "no",
    "capacity": "2",
    "email": "apoio.cliente@kmlowcost.com",
    "fee": "yes",
    "motorcar": "yes",
    "name": "MNC-00003 - Pingo Doce",
    "network": "Mobi.E",
    "opening_hours": "24/7",
    "operator": "KLC",
    "parking:fee": "no",
    "phone": "+351 800 296 929",
    "planned:amenity": "charging_station",
    "ref": "MNC-00003",
    "socket:chademo": "1",
    "socket:chademo:current": "120",
    "socket:chademo:output": "50kW",
    "socket:chademo:voltage": "500",
    "socket:type2_cable": "1",
    "socket:type2_cable:current": "63",
    "socket:type2_cable:output": "43kW",
    "socket:type2_cable:voltage": "400",
    "socket:type2_combo": "1",
    "socket:type2_combo:current": "125",
    "socket:type2_combo:output": "50kW",
    "socket:type2_combo:voltage": "500",
    "website": "https://www.mobie.pt",
    "id": "node/8833398839"
  },
  "geometry": {
    "type": "Point",
    "coordinates": [
      -8.5070813,
      42.0633858
    ]
  }
},
{
  "type": "Feature",
  "id": "node/8833416437",
  "properties": {
    "access": "yes",
    "addr:city": "Santarém",
    "addr:country": "PT",
    "authentication:membership_card": "yes",
    "authentication:none": "no",
    "capacity": "2",
    "email": "apoio.cliente@kmlowcost.com",
    "fee": "yes",
    "motorcar": "yes",
    "name": "STR-00020 - Pingo Doce",
    "network": "Mobi.E",
    "opening_hours": "24/7",
    "operator": "KLC",
    "parking:fee": "no",
    "phone": "+351 800 296 929",
    "planned:amenity": "charging_station",
    "ref": "STR-00020",
    "socket:chademo": "1",
    "socket:chademo:current": "120",
    "socket:chademo:output": "50kW",
    "socket:chademo:voltage": "500",
    "socket:type2_cable": "1",
    "socket:type2_cable:current": "63",
    "socket:type2_cable:output": "43kW",
    "socket:type2_cable:voltage": "400",
    "socket:type2_combo": "1",
    "socket:type2_combo:current": "125",
    "socket:type2_combo:output": "50kW",
    "socket:type2_combo:voltage": "500",
    "website": "https://www.mobie.pt",
    "id": "node/8833416437"
  },
  "geometry": {
    "type": "Point",
    "coordinates": [
      -8.7028004,
      39.2390315
    ]
  }
},
{
  "type": "Feature",
  "id": "node/8833416438",
  "properties": {
    "access": "yes",
    "addr:city": "Valongo",
    "addr:country": "PT",
    "authentication:membership_card": "yes",
    "authentication:none": "no",
    "capacity": "2",
    "email": "apoio.cliente@kmlowcost.com",
    "fee": "yes",
    "motorcar": "yes",
    "name": "VLG-00010 - Pingo Doce",
    "network": "Mobi.E",
    "opening_hours": "24/7",
    "operator": "KLC",
    "parking:fee": "no",
    "phone": "+351 800 296 929",
    "planned:amenity": "charging_station",
    "ref": "VLG-00010",
    "socket:chademo": "1",
    "socket:chademo:current": "120",
    "socket:chademo:output": "50kW",
    "socket:chademo:voltage": "500",
    "socket:type2_cable": "1",
    "socket:type2_cable:current": "63",
    "socket:type2_cable:output": "43kW",
    "socket:type2_cable:voltage": "400",
    "socket:type2_combo": "1",
    "socket:type2_combo:current": "125",
    "socket:type2_combo:output": "50kW",
    "socket:type2_combo:voltage": "500",
    "website": "https://www.mobie.pt",
    "id": "node/8833416438"
  },
  "geometry": {
    "type": "Point",
    "coordinates": [
      -8.4983926,
      41.1879449
    ]
  }
},
{
  "type": "Feature",
  "id": "node/8833416440",
  "properties": {
    "access": "yes",
    "addr:city": "Ponte de Sor",
    "addr:country": "PT",
    "authentication:membership_card": "yes",
    "authentication:none": "no",
    "capacity": "2",
    "email": "apoio.cliente@kmlowcost.com",
    "fee": "yes",
    "motorcar": "yes",
    "name": "PSR-00002 - Pingo Doce",
    "network": "Mobi.E",
    "opening_hours": "24/7",
    "operator": "KLC",
    "parking:fee": "no",
    "phone": "+351 800 296 929",
    "planned:amenity": "charging_station",
    "ref": "PSR-00002",
    "socket:chademo": "1",
    "socket:chademo:current": "120",
    "socket:chademo:output": "50kW",
    "socket:chademo:voltage": "500",
    "socket:type2_cable": "1",
    "socket:type2_cable:current": "63",
    "socket:type2_cable:output": "43kW",
    "socket:type2_cable:voltage": "400",
    "socket:type2_combo": "1",
    "socket:type2_combo:current": "125",
    "socket:type2_combo:output": "50kW",
    "socket:type2_combo:voltage": "500",
    "website": "https://www.mobie.pt",
    "id": "node/8833416440"
  },
  "geometry": {
    "type": "Point",
    "coordinates": [
      -8.0129129,
      39.2681083
    ]
  }
},
{
  "type": "Feature",
  "id": "node/8833480189",
  "properties": {
    "access": "yes",
    "addr:city": "Tondela",
    "addr:country": "PT",
    "authentication:membership_card": "yes",
    "authentication:none": "no",
    "capacity": "2",
    "email": "apoio.cliente@kmlowcost.com",
    "fee": "yes",
    "motorcar": "yes",
    "name": "TND-00006 - Pingo Doce",
    "network": "Mobi.E",
    "opening_hours": "24/7",
    "operator": "KLC",
    "parking:fee": "no",
    "phone": "+351 800 296 929",
    "planned:amenity": "charging_station",
    "ref": "TND-00006",
    "socket:chademo": "1",
    "socket:chademo:current": "120",
    "socket:chademo:output": "50kW",
    "socket:chademo:voltage": "500",
    "socket:type2_cable": "1",
    "socket:type2_cable:current": "63",
    "socket:type2_cable:output": "43kW",
    "socket:type2_cable:voltage": "400",
    "socket:type2_combo": "1",
    "socket:type2_combo:current": "125",
    "socket:type2_combo:output": "50kW",
    "socket:type2_combo:voltage": "500",
    "website": "https://www.mobie.pt",
    "id": "node/8833480189"
  },
  "geometry": {
    "type": "Point",
    "coordinates": [
      -8.0888361,
      40.5288405
    ]
  }
},
{
  "type": "Feature",
  "id": "node/8851234254",
  "properties": {
    "access": "yes",
    "addr:country": "PT",
    "authentication:membership_card": "yes",
    "authentication:none": "no",
    "capacity": "2",
    "email": "apoio.cliente@kmlowcost.com",
    "fee": "yes",
    "motorcar": "yes",
    "name": "OER-XXXXX - Pingo Doce",
    "network": "Mobi.E",
    "opening_hours": "24/7",
    "operator": "KLC",
    "parking:fee": "no",
    "phone": "+351 800 296 929",
    "planned:amenity": "charging_station",
    "ref": "OER-XXXXX",
    "socket:chademo": "1",
    "socket:chademo:current": "120",
    "socket:chademo:output": "50kW",
    "socket:chademo:voltage": "500",
    "socket:type2_cable": "1",
    "socket:type2_cable:current": "63",
    "socket:type2_cable:output": "43kW",
    "socket:type2_cable:voltage": "400",
    "socket:type2_combo": "1",
    "socket:type2_combo:current": "125",
    "socket:type2_combo:output": "50kW",
    "socket:type2_combo:voltage": "500",
    "website": "https://www.mobie.pt",
    "id": "node/8851234254"
  },
  "geometry": {
    "type": "Point",
    "coordinates": [
      -9.2929526,
      38.6958693
    ]
  }
},
{
  "type": "Feature",
  "id": "node/8851234255",
  "properties": {
    "access": "yes",
    "addr:country": "PT",
    "authentication:membership_card": "yes",
    "authentication:none": "no",
    "capacity": "2",
    "email": "apoio.cliente@kmlowcost.com",
    "fee": "yes",
    "motorcar": "yes",
    "name": "LSB-00330 - Pingo Doce",
    "network": "Mobi.E",
    "opening_hours": "24/7",
    "operator": "KLC",
    "parking:fee": "no",
    "phone": "+351 800 296 929",
    "planned:amenity": "charging_station",
    "ref": "LSB-00330",
    "socket:chademo": "1",
    "socket:chademo:current": "120",
    "socket:chademo:output": "50kW",
    "socket:chademo:voltage": "500",
    "socket:type2_cable": "1",
    "socket:type2_cable:current": "63",
    "socket:type2_cable:output": "43kW",
    "socket:type2_cable:voltage": "400",
    "socket:type2_combo": "1",
    "socket:type2_combo:current": "125",
    "socket:type2_combo:output": "50kW",
    "socket:type2_combo:voltage": "500",
    "website": "https://www.mobie.pt",
    "id": "node/8851234255"
  },
  "geometry": {
    "type": "Point",
    "coordinates": [
      -9.215176,
      38.6955015
    ]
  }
},
{
  "type": "Feature",
  "id": "node/8888875830",
  "properties": {
    "access": "yes",
    "addr:country": "PT",
    "authentication:membership_card": "yes",
    "authentication:none": "no",
    "capacity": "8",
    "email": "opc@emel.pt",
    "fee": "yes",
    "motorcar": "yes",
    "name": "LSB-00422/423/424/425 - Parque Estacionamento Lumiar",
    "network": "Mobi.E",
    "opening_hours": "24/7",
    "operator": "EMEL",
    "parking:fee": "yes",
    "phone": "+351 800 910 255",
    "planned:amenity": "charging_station",
    "ref": "LSB-00422;LSB-00423;LSB-00424;LSB-00425",
    "socket:type2": "8",
    "socket:type2:current": "32",
    "socket:type2:output": "7.4kW",
    "socket:type2:voltage": "230",
    "website": "https://www.mobie.pt",
    "id": "node/8888875830"
  },
  "geometry": {
    "type": "Point",
    "coordinates": [
      -9.1597271,
      38.7735433
    ]
  }
},
{
  "type": "Feature",
  "id": "node/8888875831",
  "properties": {
    "access": "yes",
    "addr:country": "PT",
    "authentication:membership_card": "yes",
    "authentication:none": "no",
    "capacity": "8",
    "email": "opc@emel.pt",
    "fee": "yes",
    "motorcar": "yes",
    "name": "LSB-00418/419/420/421 - Parque Estacionamento Lumiar",
    "network": "Mobi.E",
    "opening_hours": "24/7",
    "operator": "EMEL",
    "parking:fee": "yes",
    "phone": "+351 800 910 255",
    "planned:amenity": "charging_station",
    "ref": "LSB-00418;LSB-00419;LSB-00420;LSB-00421",
    "socket:type2": "8",
    "socket:type2:current": "32",
    "socket:type2:output": "22kW",
    "socket:type2:voltage": "400",
    "website": "https://www.mobie.pt",
    "id": "node/8888875831"
  },
  "geometry": {
    "type": "Point",
    "coordinates": [
      -9.1596644,
      38.7734372
    ]
  }
},
{
  "type": "Feature",
  "id": "node/8958089017",
  "properties": {
    "access": "yes",
    "addr:country": "PT",
    "authentication:membership_card": "yes",
    "authentication:none": "no",
    "capacity": "2",
    "fee": "yes",
    "motorcar": "yes",
    "name": "ABF-00018",
    "network": "Mobi.E",
    "opening_hours": "24/7",
    "operator": "CME",
    "parking:fee": "no",
    "planned:amenity": "charging_station",
    "ref": "ABF-00018",
    "socket:type2": "2",
    "socket:type2:current": "32",
    "socket:type2:output": "22kW",
    "socket:type2:voltage": "400",
    "website": "https://www.mobie.pt",
    "id": "node/8958089017"
  },
  "geometry": {
    "type": "Point",
    "coordinates": [
      -8.241889,
      37.086372
    ]
  }
},
{
  "type": "Feature",
  "id": "node/8958089021",
  "properties": {
    "access": "yes",
    "addr:country": "PT",
    "authentication:membership_card": "yes",
    "authentication:none": "no",
    "capacity": "1",
    "email": "geral@eplug.pt",
    "fee": "yes",
    "motorcar": "yes",
    "name": "STC-00006 - Hospital do Litoral Alentejano",
    "network": "Mobi.E",
    "opening_hours": "24/7",
    "operator": "E-Plug",
    "parking:fee": "no",
    "phone": "+351 211 648 577",
    "planned:amenity": "charging_station",
    "ref": "STC-00006",
    "socket:chademo": "1",
    "socket:chademo:current": "120",
    "socket:chademo:output": "50kW",
    "socket:chademo:voltage": "500",
    "socket:type2_combo": "1",
    "socket:type2_combo:current": "125",
    "socket:type2_combo:output": "50kW",
    "socket:type2_combo:voltage": "500",
    "website": "https://www.mobie.pt",
    "id": "node/8958089021"
  },
  "geometry": {
    "type": "Point",
    "coordinates": [
      -8.7314635,
      38.0397937
    ]
  }
},
{
  "type": "Feature",
  "id": "node/9018342466",
  "properties": {
    "access": "yes",
    "addr:country": "PT",
    "authentication:membership_card": "yes",
    "authentication:none": "no",
    "capacity": "2",
    "fee": "yes",
    "motorcar": "yes",
    "name": "TMC-XXXXX",
    "network": "Mobi.E",
    "opening_hours": "24/7",
    "operator": "unknown",
    "parking:fee": "no",
    "planned:amenity": "charging_station",
    "ref": "TMC-XXXXX",
    "socket:type2": "2",
    "socket:type2:current": "32",
    "socket:type2:output": "22kW",
    "socket:type2:voltage": "400",
    "website": "https://www.mobie.pt",
    "id": "node/9018342466"
  },
  "geometry": {
    "type": "Point",
    "coordinates": [
      -7.0535721,
      41.1758097
    ]
  }
},
{
  "type": "Feature",
  "id": "node/9043918677",
  "properties": {
    "access": "yes",
    "addr:country": "PT",
    "authentication:membership_card": "yes",
    "authentication:none": "no",
    "capacity": "2",
    "fee": "yes",
    "motorcar": "yes",
    "name": "VNG-XXXXX",
    "network": "Mobi.E",
    "opening_hours": "24/7",
    "operator": "EDP Comercial",
    "parking:fee": "no",
    "planned:amenity": "charging_station",
    "ref": "VNG-XXXXX",
    "socket:chademo": "1",
    "socket:chademo:current": "120",
    "socket:chademo:output": "50kW",
    "socket:chademo:voltage": "500",
    "socket:type2_cable": "1",
    "socket:type2_cable:current": "63",
    "socket:type2_cable:output": "43kW",
    "socket:type2_cable:voltage": "400",
    "socket:type2_combo": "1",
    "socket:type2_combo:current": "125",
    "socket:type2_combo:output": "50kW",
    "socket:type2_combo:voltage": "500",
    "website": "https://www.mobie.pt",
    "id": "node/9043918677"
  },
  "geometry": {
    "type": "Point",
    "coordinates": [
      -8.5982174,
      41.1014631
    ]
  }
},
{
  "type": "Feature",
  "id": "node/9043918684",
  "properties": {
    "access": "yes",
    "addr:country": "PT",
    "authentication:membership_card": "yes",
    "authentication:none": "no",
    "capacity": "1",
    "fee": "yes",
    "motorcar": "yes",
    "name": "PBL-XXXXX",
    "network": "Mobi.E",
    "opening_hours": "24/7",
    "operator": "Galp Geste",
    "parking:fee": "no",
    "planned:amenity": "charging_station",
    "ref": "PBL-XXXXX",
    "socket:chademo": "1",
    "socket:chademo:current": "120",
    "socket:chademo:output": "50kW",
    "socket:chademo:voltage": "500",
    "socket:type2_combo": "1",
    "socket:type2_combo:current": "350",
    "socket:type2_combo:output": "160kW",
    "socket:type2_combo:voltage": "920",
    "website": "https://www.mobie.pt",
    "id": "node/9043918684"
  },
  "geometry": {
    "type": "Point",
    "coordinates": [
      -8.5997695,
      40.0118973
    ]
  }
},
{
  "type": "Feature",
  "id": "node/9045571735",
  "properties": {
    "access": "yes",
    "addr:country": "PT",
    "authentication:membership_card": "yes",
    "authentication:none": "no",
    "capacity": "2",
    "fee": "yes",
    "motorcar": "yes",
    "name": "STB-XXXXX",
    "network": "Mobi.E",
    "opening_hours": "24/7",
    "operator": "unknown",
    "parking:fee": "no",
    "planned:amenity": "charging_station",
    "ref": "STB-XXXXX",
    "socket:chademo": "1",
    "socket:chademo:current": "120",
    "socket:chademo:output": "50kW",
    "socket:chademo:voltage": "500",
    "socket:type2_cable": "1",
    "socket:type2_cable:current": "63",
    "socket:type2_cable:output": "43kW",
    "socket:type2_cable:voltage": "400",
    "socket:type2_combo": "1",
    "socket:type2_combo:current": "125",
    "socket:type2_combo:output": "50kW",
    "socket:type2_combo:voltage": "500",
    "website": "https://www.mobie.pt",
    "id": "node/9045571735"
  },
  "geometry": {
    "type": "Point",
    "coordinates": [
      -8.871857,
      38.527836
    ]
  }
},
{
  "type": "Feature",
  "id": "node/9045571738",
  "properties": {
    "access": "yes",
    "addr:country": "PT",
    "authentication:membership_card": "yes",
    "authentication:none": "no",
    "capacity": "2",
    "email": "apoio.cliente@kmlowcost.com",
    "fee": "yes",
    "motorcar": "yes",
    "name": "VIS-00011 - Lidl",
    "network": "Mobi.E",
    "opening_hours": "24/7",
    "operator": "KLC",
    "parking:fee": "no",
    "phone": "+351 800 296 929",
    "planned:amenity": "charging_station",
    "ref": "VIS-00011",
    "socket:chademo": "1",
    "socket:chademo:current": "120",
    "socket:chademo:output": "50kW",
    "socket:chademo:voltage": "500",
    "socket:type2_cable": "1",
    "socket:type2_cable:current": "63",
    "socket:type2_cable:output": "43kW",
    "socket:type2_cable:voltage": "400",
    "socket:type2_combo": "1",
    "socket:type2_combo:current": "125",
    "socket:type2_combo:output": "50kW",
    "socket:type2_combo:voltage": "500",
    "website": "https://www.mobie.pt",
    "id": "node/9045571738"
  },
  "geometry": {
    "type": "Point",
    "coordinates": [
      -7.8982485,
      40.6638457
    ]
  }
},
{
  "type": "Feature",
  "id": "node/9045571741",
  "properties": {
    "access": "yes",
    "addr:country": "PT",
    "authentication:membership_card": "yes",
    "authentication:none": "no",
    "capacity": "2",
    "email": "apoio.cliente@kmlowcost.com",
    "fee": "yes",
    "motorcar": "yes",
    "name": "CTX-00002 - Lidl",
    "network": "Mobi.E",
    "opening_hours": "24/7",
    "operator": "KLC",
    "parking:fee": "no",
    "phone": "+351 800 296 929",
    "planned:amenity": "charging_station",
    "ref": "CTX-00002",
    "socket:chademo": "1",
    "socket:chademo:current": "120",
    "socket:chademo:output": "50kW",
    "socket:chademo:voltage": "500",
    "socket:type2_cable": "1",
    "socket:type2_cable:current": "63",
    "socket:type2_cable:output": "43kW",
    "socket:type2_cable:voltage": "400",
    "socket:type2_combo": "1",
    "socket:type2_combo:current": "125",
    "socket:type2_combo:output": "50kW",
    "socket:type2_combo:voltage": "500",
    "website": "https://www.mobie.pt",
    "id": "node/9045571741"
  },
  "geometry": {
    "type": "Point",
    "coordinates": [
      -8.783339,
      39.165326
    ]
  }
},
{
  "type": "Feature",
  "id": "node/9046134366",
  "properties": {
    "access": "yes",
    "addr:country": "PT",
    "authentication:membership_card": "yes",
    "authentication:none": "no",
    "capacity": "2",
    "email": "apoio.cliente@kmlowcost.com",
    "fee": "yes",
    "motorcar": "yes",
    "name": "MCN-00003 - Lidl",
    "network": "Mobi.E",
    "opening_hours": "24/7",
    "operator": "KLC",
    "parking:fee": "no",
    "phone": "+351 800 296 929",
    "planned:amenity": "charging_station",
    "ref": "MCN-00003",
    "socket:chademo": "1",
    "socket:chademo:current": "120",
    "socket:chademo:output": "50kW",
    "socket:chademo:voltage": "500",
    "socket:type2_cable": "1",
    "socket:type2_cable:current": "63",
    "socket:type2_cable:output": "43kW",
    "socket:type2_cable:voltage": "400",
    "socket:type2_combo": "1",
    "socket:type2_combo:current": "125",
    "socket:type2_combo:output": "50kW",
    "socket:type2_combo:voltage": "500",
    "website": "https://www.mobie.pt",
    "id": "node/9046134366"
  },
  "geometry": {
    "type": "Point",
    "coordinates": [
      -8.154203,
      41.180671
    ]
  }
},
{
  "type": "Feature",
  "id": "node/9108791145",
  "properties": {
    "access": "yes",
    "addr:country": "PT",
    "authentication:membership_card": "yes",
    "authentication:none": "no",
    "capacity": "2",
    "fee": "yes",
    "motorcar": "yes",
    "name": "ABF-00028",
    "network": "Mobi.E",
    "opening_hours": "24/7",
    "operator": "KLC",
    "parking:fee": "no",
    "planned:amenity": "charging_station",
    "ref": "ABF-00028",
    "socket:type2": "2",
    "socket:type2:current": "32",
    "socket:type2:output": "22kW",
    "socket:type2:voltage": "400",
    "website": "https://www.mobie.pt",
    "id": "node/9108791145"
  },
  "geometry": {
    "type": "Point",
    "coordinates": [
      -8.232821,
      37.088523
    ]
  }
},
{
  "type": "Feature",
  "id": "node/9289779711",
  "properties": {
    "access": "yes",
    "addr:country": "PT",
    "authentication:membership_card": "yes",
    "authentication:none": "no",
    "capacity": "6",
    "fee": "yes",
    "motorcar": "yes",
    "name": "PRT-XXXXX - Mercadona",
    "network": "Mobi.E",
    "opening_hours": "09:00-21:30",
    "operator": "Iberdrola",
    "parking:fee": "no",
    "planned:amenity": "charging_station",
    "ref": "PRT-XXXXX",
    "socket:type2": "6",
    "socket:type2:current": "32",
    "socket:type2:output": "22kW",
    "socket:type2:voltage": "400",
    "website": "https://www.mobie.pt/",
    "id": "node/9289779711"
  },
  "geometry": {
    "type": "Point",
    "coordinates": [
      -8.653568,
      41.152607
    ]
  }
},
{
  "type": "Feature",
  "id": "node/9289929524",
  "properties": {
    "access": "yes",
    "addr:country": "PT",
    "authentication:membership_card": "yes",
    "authentication:none": "no",
    "capacity": "2",
    "fee": "yes",
    "motorcar": "yes",
    "name": "ODM-XXXXX - Intermarché",
    "network": "Mobi.E",
    "opening_hours": "24/7",
    "operator": "unknown",
    "parking:fee": "no",
    "planned:amenity": "charging_station",
    "ref": "ODM-XXXXX",
    "socket:type2": "2",
    "socket:type2:current": "32",
    "socket:type2:output": "22kW",
    "socket:type2:voltage": "400",
    "website": "https://www.mobie.pt/",
    "id": "node/9289929524"
  },
  "geometry": {
    "type": "Point",
    "coordinates": [
      -8.6310204,
      37.5999144
    ]
  }
},
{
  "type": "Feature",
  "id": "node/9309416861",
  "properties": {
    "access": "yes",
    "addr:country": "PT",
    "authentication:membership_card": "yes",
    "authentication:none": "no",
    "capacity": "2",
    "fee": "yes",
    "motorcar": "yes",
    "name": "MMN-00007 - Repsol",
    "network": "Mobi.E",
    "opening_hours": "24/7",
    "operator": "Repsol",
    "parking:fee": "no",
    "planned:amenity": "charging_station",
    "ref": "MMN-00007",
    "socket:chademo": "1",
    "socket:chademo:current": "120",
    "socket:chademo:output": "50kW",
    "socket:chademo:voltage": "500",
    "socket:type2_cable": "1",
    "socket:type2_cable:current": "63",
    "socket:type2_cable:output": "43kW",
    "socket:type2_cable:voltage": "400",
    "socket:type2_combo": "1",
    "socket:type2_combo:current": "125",
    "socket:type2_combo:output": "50kW",
    "socket:type2_combo:voltage": "500",
    "website": "https://www.mobie.pt",
    "id": "node/9309416861"
  },
  "geometry": {
    "type": "Point",
    "coordinates": [
      -8.2193683,
      38.6503
    ]
  }
},
{
  "type": "Feature",
  "id": "node/9316451536",
  "properties": {
    "access": "yes",
    "addr:country": "PT",
    "authentication:membership_card": "yes",
    "authentication:none": "no",
    "capacity": "2",
    "fee": "yes",
    "motorcar": "yes",
    "name": "PRT-00110/111/112/113 - Retail Park",
    "network": "Mobi.E",
    "opening_hours": "24/7",
    "operator": "Mobiletric",
    "parking:fee": "no",
    "planned:amenity": "charging_station",
    "ref": "PRT-00110;PRT-00111;PRT-00112;PRT-00113",
    "socket:type2": "2",
    "socket:type2:current": "32",
    "socket:type2:output": "22kW",
    "socket:type2:voltage": "400",
    "website": "https://www.mobie.pt/",
    "id": "node/9316451536"
  },
  "geometry": {
    "type": "Point",
    "coordinates": [
      -8.6538459,
      41.1535565
    ]
  }
},
{
  "type": "Feature",
  "id": "node/9384511626",
  "properties": {
    "access": "yes",
    "addr:city": "Sesimbra",
    "addr:country": "PT",
    "addr:street": "Rua da Charneca",
    "authentication:membership_card": "yes",
    "authentication:none": "no",
    "capacity": "3",
    "fee": "yes",
    "name": "SSB-XXXXX - McDonald's",
    "network": "Mobi.E",
    "opening_hours": "24/7",
    "operator": "EDP Comercial",
    "parking:fee": "no",
    "planned:amenity": "charging_station",
    "ref": "SSB-XXXXX",
    "socket:chademo": "1",
    "socket:chademo:current": "125",
    "socket:chademo:output": "60kW",
    "socket:chademo:voltage": "500",
    "socket:type2": "1",
    "socket:type2:current": "32",
    "socket:type2:output": "22kW",
    "socket:type2:voltage": "400",
    "socket:type2_combo": "1",
    "socket:type2_combo:current": "250",
    "socket:type2_combo:output": "90kW",
    "socket:type2_combo:voltage": "920",
    "website": "https://www.mobie.pt/",
    "id": "node/9384511626"
  },
  "geometry": {
    "type": "Point",
    "coordinates": [
      -9.1034059,
      38.4787987
    ]
  }
},
{
  "type": "Feature",
  "id": "node/9426410190",
  "properties": {
    "access": "yes",
    "addr:country": "PT",
    "authentication:membership_card": "yes",
    "authentication:none": "no",
    "capacity": "2",
    "fee": "yes",
    "motorcar": "yes",
    "name": "PBL-XXXXX - BP",
    "network": "Mobi.E",
    "opening_hours": "24/7",
    "operator": "EDP Comercial",
    "parking:fee": "no",
    "planned:amenity": "charging_station",
    "ref": "PBL-XXXXX",
    "socket:chademo": "1",
    "socket:chademo:current": "120",
    "socket:chademo:output": "50kW",
    "socket:chademo:voltage": "500",
    "socket:type2_cable": "1",
    "socket:type2_cable:current": "63",
    "socket:type2_cable:output": "43kW",
    "socket:type2_cable:voltage": "400",
    "socket:type2_combo": "1",
    "socket:type2_combo:current": "125",
    "socket:type2_combo:output": "50kW",
    "socket:type2_combo:voltage": "500",
    "website": "https://www.mobie.pt/",
    "id": "node/9426410190"
  },
  "geometry": {
    "type": "Point",
    "coordinates": [
      -8.632961,
      39.908667
    ]
  }
},
{
  "type": "Feature",
  "id": "node/9440272700",
  "properties": {
    "access": "yes",
    "addr:country": "PT",
    "authentication:membership_card": "yes",
    "authentication:none": "no",
    "capacity": "2",
    "fee": "yes",
    "motorcar": "yes",
    "name": "SXL-00020",
    "network": "Mobi.E",
    "opening_hours": "24/7",
    "operator": "Powerdot",
    "parking:fee": "no",
    "planned:amenity": "charging_station",
    "ref": "SXL-00020",
    "socket:chademo": "1",
    "socket:chademo:current": "120",
    "socket:chademo:output": "50kW",
    "socket:chademo:voltage": "500",
    "socket:type2_cable": "1",
    "socket:type2_cable:current": "63",
    "socket:type2_cable:output": "43kW",
    "socket:type2_cable:voltage": "400",
    "socket:type2_combo": "1",
    "socket:type2_combo:current": "125",
    "socket:type2_combo:output": "50kW",
    "socket:type2_combo:voltage": "500",
    "website": "https://www.mobie.pt/",
    "id": "node/9440272700"
  },
  "geometry": {
    "type": "Point",
    "coordinates": [
      -9.13102,
      38.622972
    ]
  }
},
{
  "type": "Feature",
  "id": "node/9440272701",
  "properties": {
    "access": "yes",
    "addr:country": "PT",
    "authentication:membership_card": "yes",
    "authentication:none": "no",
    "capacity": "1",
    "fee": "yes",
    "motorcar": "yes",
    "name": "MTJ-00019 - Prio",
    "network": "Mobi.E",
    "opening_hours": "24/7",
    "operator": "Prio.E",
    "parking:fee": "no",
    "planned:amenity": "charging_station",
    "ref": "MTJ-00019",
    "socket:chademo": "1",
    "socket:chademo:current": "120",
    "socket:chademo:output": "50kW",
    "socket:chademo:voltage": "500",
    "socket:type2_combo": "1",
    "socket:type2_combo:current": "125",
    "socket:type2_combo:output": "50kW",
    "socket:type2_combo:voltage": "500",
    "website": "https://www.mobie.pt/",
    "id": "node/9440272701"
  },
  "geometry": {
    "type": "Point",
    "coordinates": [
      -8.945289,
      38.688302
    ]
  }
},
{
  "type": "Feature",
  "id": "node/9455267553",
  "properties": {
    "access": "yes",
    "addr:city": "Santa Maria da Feira",
    "addr:country": "PT",
    "authentication:membership_card": "yes",
    "authentication:none": "no",
    "capacity": "2",
    "email": "apoio.cliente@kmlowcost.com",
    "fee": "yes",
    "motorcar": "yes",
    "name": "VFR-00012 - Pingo Doce",
    "network": "Mobi.E",
    "opening_hours": "24/7",
    "operator": "KLC",
    "parking:fee": "no",
    "phone": "+351 800 296 929",
    "planned:amenity": "charging_station",
    "ref": "VFR-00012",
    "socket:chademo": "1",
    "socket:chademo:current": "120",
    "socket:chademo:output": "50kW",
    "socket:chademo:voltage": "500",
    "socket:type2_combo": "1",
    "socket:type2_combo:current": "125",
    "socket:type2_combo:output": "50kW",
    "socket:type2_combo:voltage": "500",
    "website": "https://www.mobie.pt",
    "id": "node/9455267553"
  },
  "geometry": {
    "type": "Point",
    "coordinates": [
      -8.5669126,
      40.9214853
    ]
  }
},
{
  "type": "Feature",
  "id": "node/9455267556",
  "properties": {
    "access": "yes",
    "addr:country": "PT",
    "authentication:membership_card": "yes",
    "authentication:none": "no",
    "capacity": "2",
    "fee": "yes",
    "motorcar": "yes",
    "name": "MLG-00003",
    "network": "Mobi.E",
    "opening_hours": "24/7",
    "operator": "Cargga Inteligente",
    "parking:fee": "no",
    "planned:amenity": "charging_station",
    "ref": "MLG-00003",
    "socket:type2": "2",
    "socket:type2:current": "32",
    "socket:type2:output": "22kW",
    "socket:type2:voltage": "400",
    "website": "https://www.mobie.pt/",
    "id": "node/9455267556"
  },
  "geometry": {
    "type": "Point",
    "coordinates": [
      -8.2712272,
      42.117588
    ]
  }
},
{
  "type": "Feature",
  "id": "node/9455303727",
  "properties": {
    "access": "yes",
    "addr:country": "PT",
    "authentication:membership_card": "yes",
    "authentication:none": "no",
    "capacity": "2",
    "email": "ajuda@powerdot.pt",
    "fee": "yes",
    "motorcar": "yes",
    "name": "PTL-00008 - Q8",
    "network": "Mobi.E",
    "opening_hours": "24/7",
    "operator": "Powerdot",
    "parking:fee": "no",
    "phone": "+351 800 180 292",
    "planned:amenity": "charging_station",
    "ref": "PTL-00008",
    "socket:chademo": "1",
    "socket:chademo:current": "120",
    "socket:chademo:output": "50kW",
    "socket:chademo:voltage": "500",
    "socket:type2_cable": "1",
    "socket:type2_cable:current": "63",
    "socket:type2_cable:output": "43kW",
    "socket:type2_cable:voltage": "400",
    "socket:type2_combo": "1",
    "socket:type2_combo:current": "125",
    "socket:type2_combo:output": "50kW",
    "socket:type2_combo:voltage": "500",
    "website": "https://www.mobie.pt",
    "id": "node/9455303727"
  },
  "geometry": {
    "type": "Point",
    "coordinates": [
      -8.6097434,
      41.7442904
    ]
  }
},
{
  "type": "Feature",
  "id": "node/9455582847",
  "properties": {
    "access": "yes",
    "addr:country": "PT",
    "authentication:membership_card": "yes",
    "authentication:none": "no",
    "capacity": "2",
    "fee": "yes",
    "motorcar": "yes",
    "name": "BRG-00046 - Repsol",
    "network": "Mobi.E",
    "opening_hours": "24/7",
    "operator": "Repsol",
    "parking:fee": "no",
    "planned:amenity": "charging_station",
    "ref": "BRG-00046",
    "socket:chademo": "1",
    "socket:chademo:current": "120",
    "socket:chademo:output": "50kW",
    "socket:chademo:voltage": "500",
    "socket:type2_cable": "1",
    "socket:type2_cable:current": "63",
    "socket:type2_cable:output": "43kW",
    "socket:type2_cable:voltage": "400",
    "socket:type2_combo": "1",
    "socket:type2_combo:current": "125",
    "socket:type2_combo:output": "50kW",
    "socket:type2_combo:voltage": "500",
    "website": "https://www.mobie.pt/",
    "id": "node/9455582847"
  },
  "geometry": {
    "type": "Point",
    "coordinates": [
      -8.405858,
      41.5512247
    ]
  }
},
{
  "type": "Feature",
  "id": "node/9455582849",
  "properties": {
    "access": "yes",
    "addr:country": "PT",
    "authentication:membership_card": "yes",
    "authentication:none": "no",
    "capacity": "2",
    "fee": "yes",
    "motorcar": "yes",
    "name": "FLG-00005 - Repsol",
    "network": "Mobi.E",
    "opening_hours": "24/7",
    "operator": "Repsol",
    "parking:fee": "no",
    "planned:amenity": "charging_station",
    "ref": "FLG-00005",
    "socket:chademo": "1",
    "socket:chademo:current": "120",
    "socket:chademo:output": "50kW",
    "socket:chademo:voltage": "500",
    "socket:type2_cable": "1",
    "socket:type2_cable:current": "63",
    "socket:type2_cable:output": "43kW",
    "socket:type2_cable:voltage": "400",
    "socket:type2_combo": "1",
    "socket:type2_combo:current": "125",
    "socket:type2_combo:output": "50kW",
    "socket:type2_combo:voltage": "500",
    "website": "https://www.mobie.pt/",
    "id": "node/9455582849"
  },
  "geometry": {
    "type": "Point",
    "coordinates": [
      -8.203598,
      41.3603468
    ]
  }
},
{
  "type": "Feature",
  "id": "node/9455737718",
  "properties": {
    "access": "yes",
    "addr:country": "PT",
    "authentication:membership_card": "yes",
    "authentication:none": "no",
    "capacity": "2",
    "fee": "yes",
    "motorcar": "yes",
    "name": "PVZ-00012 - Repsol",
    "network": "Mobi.E",
    "opening_hours": "24/7",
    "operator": "Repsol",
    "parking:fee": "no",
    "planned:amenity": "charging_station",
    "ref": "PVZ-00012",
    "socket:chademo": "1",
    "socket:chademo:current": "120",
    "socket:chademo:output": "50kW",
    "socket:chademo:voltage": "500",
    "socket:type2_cable": "1",
    "socket:type2_cable:current": "63",
    "socket:type2_cable:output": "43kW",
    "socket:type2_cable:voltage": "400",
    "socket:type2_combo": "1",
    "socket:type2_combo:current": "125",
    "socket:type2_combo:output": "50kW",
    "socket:type2_combo:voltage": "500",
    "website": "https://www.mobie.pt/",
    "id": "node/9455737718"
  },
  "geometry": {
    "type": "Point",
    "coordinates": [
      -8.7461606,
      41.3747435
    ]
  }
},
{
  "type": "Feature",
  "id": "node/9456618841",
  "properties": {
    "access": "yes",
    "addr:country": "PT",
    "authentication:membership_card": "yes",
    "authentication:none": "no",
    "capacity": "1",
    "fee": "yes",
    "motorcar": "yes",
    "name": "RMR-00002 - Prio",
    "network": "Mobi.E",
    "opening_hours": "24/7",
    "operator": "Prio.E",
    "parking:fee": "no",
    "planned:amenity": "charging_station",
    "ref": "RMR-00002",
    "socket:chademo": "1",
    "socket:chademo:current": "120",
    "socket:chademo:output": "50kW",
    "socket:chademo:voltage": "500",
    "socket:type2_combo": "1",
    "socket:type2_combo:current": "125",
    "socket:type2_combo:output": "50kW",
    "socket:type2_combo:voltage": "500",
    "website": "https://www.mobie.pt/",
    "id": "node/9456618841"
  },
  "geometry": {
    "type": "Point",
    "coordinates": [
      -8.9371875,
      39.3281709
    ]
  }
},
{
  "type": "Feature",
  "id": "node/9456618846",
  "properties": {
    "access": "yes",
    "addr:country": "PT",
    "authentication:membership_card": "yes",
    "authentication:none": "no",
    "capacity": "2",
    "fee": "yes",
    "motorcar": "yes",
    "name": "CNS-XXXXX - Repsol",
    "network": "Mobi.E",
    "opening_hours": "24/7",
    "operator": "Repsol",
    "parking:fee": "no",
    "planned:amenity": "charging_station",
    "ref": "CNS-XXXXX",
    "socket:chademo": "1",
    "socket:chademo:current": "120",
    "socket:chademo:output": "50kW",
    "socket:chademo:voltage": "500",
    "socket:type2_cable": "1",
    "socket:type2_cable:current": "63",
    "socket:type2_cable:output": "43kW",
    "socket:type2_cable:voltage": "400",
    "socket:type2_combo": "1",
    "socket:type2_combo:current": "125",
    "socket:type2_combo:output": "50kW",
    "socket:type2_combo:voltage": "500",
    "website": "https://www.mobie.pt/",
    "id": "node/9456618846"
  },
  "geometry": {
    "type": "Point",
    "coordinates": [
      -8.2881519,
      39.4819428
    ]
  }
},
{
  "type": "Feature",
  "id": "node/9456702137",
  "properties": {
    "access": "yes",
    "addr:country": "PT",
    "authentication:membership_card": "yes",
    "authentication:none": "no",
    "capacity": "2",
    "fee": "yes",
    "motorcar": "yes",
    "name": "PSR-00004 - Mercado Municipal",
    "network": "Mobi.E",
    "opening_hours": "24/7",
    "operator": "J.J.Tomé",
    "parking:fee": "no",
    "planned:amenity": "charging_station",
    "ref": "PSR-00004",
    "socket:type2": "2",
    "socket:type2:current": "32",
    "socket:type2:output": "22kW",
    "socket:type2:voltage": "400",
    "website": "https://www.mobie.pt/",
    "id": "node/9456702137"
  },
  "geometry": {
    "type": "Point",
    "coordinates": [
      -8.007507,
      39.2464584
    ]
  }
},
{
  "type": "Feature",
  "id": "node/9456735230",
  "properties": {
    "access": "yes",
    "addr:country": "PT",
    "authentication:membership_card": "yes",
    "authentication:none": "no",
    "capacity": "1",
    "fee": "yes",
    "motorcar": "yes",
    "name": "BNV-00004 - Prio",
    "network": "Mobi.E",
    "opening_hours": "24/7",
    "operator": "Prio.E",
    "parking:fee": "no",
    "planned:amenity": "charging_station",
    "ref": "BNV-00004",
    "socket:chademo": "1",
    "socket:chademo:current": "120",
    "socket:chademo:output": "50kW",
    "socket:chademo:voltage": "500",
    "socket:type2_combo": "1",
    "socket:type2_combo:current": "125",
    "socket:type2_combo:output": "50kW",
    "socket:type2_combo:voltage": "500",
    "website": "https://www.mobie.pt/",
    "id": "node/9456735230"
  },
  "geometry": {
    "type": "Point",
    "coordinates": [
      -8.8697581,
      38.9179368
    ]
  }
},
{
  "type": "Feature",
  "id": "node/9456735231",
  "properties": {
    "access": "yes",
    "addr:country": "PT",
    "authentication:membership_card": "yes",
    "authentication:none": "no",
    "capacity": "1",
    "fee": "yes",
    "motorcar": "yes",
    "name": "CTX-00003 - Q8",
    "network": "Mobi.E",
    "opening_hours": "24/7",
    "operator": "Powerdot",
    "parking:fee": "no",
    "planned:amenity": "charging_station",
    "ref": "CTX-00003",
    "socket:chademo": "1",
    "socket:chademo:current": "120",
    "socket:chademo:output": "50kW",
    "socket:chademo:voltage": "500",
    "socket:type2_combo": "1",
    "socket:type2_combo:current": "250",
    "socket:type2_combo:output": "100kW",
    "socket:type2_combo:voltage": "500",
    "website": "https://www.mobie.pt/",
    "id": "node/9456735231"
  },
  "geometry": {
    "type": "Point",
    "coordinates": [
      -8.7770033,
      39.1700864
    ]
  }
},
{
  "type": "Feature",
  "id": "node/9456735232",
  "properties": {
    "access": "yes",
    "addr:country": "PT",
    "authentication:membership_card": "yes",
    "authentication:none": "no",
    "capacity": "2",
    "fee": "yes",
    "motorcar": "yes",
    "name": "ETZ-00011 - Galp",
    "network": "Mobi.E",
    "opening_hours": "24/7",
    "operator": "Galp Geste",
    "parking:fee": "no",
    "planned:amenity": "charging_station",
    "ref": "ETZ-00011",
    "socket:chademo": "1",
    "socket:chademo:current": "120",
    "socket:chademo:output": "50kW",
    "socket:chademo:voltage": "500",
    "socket:type2_cable": "1",
    "socket:type2_cable:current": "63",
    "socket:type2_cable:output": "43kW",
    "socket:type2_cable:voltage": "400",
    "socket:type2_combo": "1",
    "socket:type2_combo:current": "125",
    "socket:type2_combo:output": "50kW",
    "socket:type2_combo:voltage": "500",
    "website": "https://www.mobie.pt/",
    "id": "node/9456735232"
  },
  "geometry": {
    "type": "Point",
    "coordinates": [
      -7.6143475,
      38.8451894
    ]
  }
},
{
  "type": "Feature",
  "id": "node/9457675702",
  "properties": {
    "access": "yes",
    "addr:country": "PT",
    "authentication:membership_card": "yes",
    "authentication:none": "no",
    "capacity": "1",
    "fee": "yes",
    "motorcar": "yes",
    "name": "CSC-00082 - Prio",
    "network": "Mobi.E",
    "opening_hours": "24/7",
    "operator": "Prio.E",
    "parking:fee": "no",
    "planned:amenity": "charging_station",
    "ref": "CSC-00082",
    "socket:chademo": "1",
    "socket:chademo:current": "120",
    "socket:chademo:output": "50kW",
    "socket:chademo:voltage": "500",
    "socket:type2_combo": "1",
    "socket:type2_combo:current": "125",
    "socket:type2_combo:output": "50kW",
    "socket:type2_combo:voltage": "500",
    "website": "https://www.mobie.pt/",
    "id": "node/9457675702"
  },
  "geometry": {
    "type": "Point",
    "coordinates": [
      -9.3374965,
      38.6962203
    ]
  }
},
{
  "type": "Feature",
  "id": "node/9457675704",
  "properties": {
    "access": "yes",
    "addr:country": "PT",
    "authentication:membership_card": "yes",
    "authentication:none": "no",
    "capacity": "2",
    "fee": "yes",
    "motorcar": "yes",
    "name": "CSC-00079 - Marina de Cascais",
    "network": "Mobi.E",
    "opening_hours": "24/7",
    "operator": "Iberdrola",
    "parking:fee": "yes",
    "planned:amenity": "charging_station",
    "ref": "CSC-00079",
    "socket:type2": "2",
    "socket:type2:current": "32",
    "socket:type2:output": "22kW",
    "socket:type2:voltage": "400",
    "website": "https://www.mobie.pt/",
    "id": "node/9457675704"
  },
  "geometry": {
    "type": "Point",
    "coordinates": [
      -9.4199422,
      38.6917362
    ]
  }
},
{
  "type": "Feature",
  "id": "node/9458196519",
  "properties": {
    "access": "yes",
    "addr:country": "PT",
    "authentication:membership_card": "yes",
    "authentication:none": "no",
    "capacity": "2",
    "fee": "yes",
    "motorcar": "yes",
    "name": "AMD-00046",
    "network": "Mobi.E",
    "opening_hours": "24/7",
    "operator": "Prio.E",
    "parking:fee": "no",
    "planned:amenity": "charging_station",
    "ref": "AMD-00046",
    "socket:type2": "2",
    "socket:type2:current": "32",
    "socket:type2:output": "22kW",
    "socket:type2:voltage": "400",
    "website": "https://www.mobie.pt/",
    "id": "node/9458196519"
  },
  "geometry": {
    "type": "Point",
    "coordinates": [
      -9.2163679,
      38.7475642
    ]
  }
},
{
  "type": "Feature",
  "id": "node/9458196520",
  "properties": {
    "access": "yes",
    "addr:country": "PT",
    "authentication:membership_card": "yes",
    "authentication:none": "no",
    "capacity": "1",
    "fee": "yes",
    "motorcar": "yes",
    "name": "AMD-00045",
    "network": "Mobi.E",
    "opening_hours": "24/7",
    "operator": "Prio.E",
    "parking:fee": "no",
    "planned:amenity": "charging_station",
    "ref": "AMD-00045",
    "socket:chademo": "1",
    "socket:chademo:current": "120",
    "socket:chademo:output": "50kW",
    "socket:chademo:voltage": "500",
    "socket:type2_combo": "1",
    "socket:type2_combo:current": "125",
    "socket:type2_combo:output": "50kW",
    "socket:type2_combo:voltage": "500",
    "website": "https://www.mobie.pt/",
    "id": "node/9458196520"
  },
  "geometry": {
    "type": "Point",
    "coordinates": [
      -9.2164202,
      38.7475977
    ]
  }
},
{
  "type": "Feature",
  "id": "node/9458196521",
  "properties": {
    "access": "yes",
    "addr:country": "PT",
    "authentication:membership_card": "yes",
    "authentication:none": "no",
    "capacity": "2",
    "fee": "yes",
    "motorcar": "yes",
    "name": "CSC-00084 - Intermarché",
    "network": "Mobi.E",
    "opening_hours": "24/7",
    "operator": "E-Plug",
    "parking:fee": "no",
    "planned:amenity": "charging_station",
    "ref": "CSC-00084",
    "socket:type2": "2",
    "socket:type2:current": "32",
    "socket:type2:output": "22kW",
    "socket:type2:voltage": "400",
    "website": "https://www.mobie.pt/",
    "id": "node/9458196521"
  },
  "geometry": {
    "type": "Point",
    "coordinates": [
      -9.3353923,
      38.7096377
    ]
  }
},
{
  "type": "Feature",
  "id": "node/9458196522",
  "properties": {
    "access": "yes",
    "addr:country": "PT",
    "authentication:membership_card": "yes",
    "authentication:none": "no",
    "capacity": "1",
    "fee": "yes",
    "motorcar": "yes",
    "name": "CSC-00083 - Intermarché",
    "network": "Mobi.E",
    "opening_hours": "24/7",
    "operator": "E-Plug",
    "parking:fee": "no",
    "planned:amenity": "charging_station",
    "ref": "CSC-00083",
    "socket:chademo": "1",
    "socket:chademo:current": "120",
    "socket:chademo:output": "50kW",
    "socket:chademo:voltage": "500",
    "socket:type2_combo": "1",
    "socket:type2_combo:current": "125",
    "socket:type2_combo:output": "60kW",
    "socket:type2_combo:voltage": "950",
    "website": "https://www.mobie.pt/",
    "id": "node/9458196522"
  },
  "geometry": {
    "type": "Point",
    "coordinates": [
      -9.3354633,
      38.7096053
    ]
  }
},
{
  "type": "Feature",
  "id": "node/9458753222",
  "properties": {
    "access": "yes",
    "addr:country": "PT",
    "authentication:membership_card": "yes",
    "authentication:none": "no",
    "capacity": "2",
    "fee": "yes",
    "motorcar": "yes",
    "name": "LGA-00016 - Rocha Brava",
    "network": "Mobi.E",
    "opening_hours": "24/7",
    "operator": "Veimonte",
    "parking:fee": "no",
    "planned:amenity": "charging_station",
    "ref": "LGA-00016",
    "socket:type2": "2",
    "socket:type2:current": "32",
    "socket:type2:output": "22kW",
    "socket:type2:voltage": "400",
    "website": "https://www.mobie.pt/",
    "id": "node/9458753222"
  },
  "geometry": {
    "type": "Point",
    "coordinates": [
      -8.4450491,
      37.0920188
    ]
  }
},
{
  "type": "Feature",
  "id": "node/9458753224",
  "properties": {
    "access": "yes",
    "addr:country": "PT",
    "authentication:membership_card": "yes",
    "authentication:none": "no",
    "capacity": "1",
    "fee": "yes",
    "motorcar": "yes",
    "name": "FAR-00027 - Rolear",
    "network": "Mobi.E",
    "opening_hours": "24/7",
    "operator": "Rolear",
    "parking:fee": "no",
    "planned:amenity": "charging_station",
    "ref": "FAR-00027",
    "socket:type2": "1",
    "socket:type2:current": "32",
    "socket:type2:output": "22kW",
    "socket:type2:voltage": "400",
    "website": "https://www.mobie.pt/",
    "id": "node/9458753224"
  },
  "geometry": {
    "type": "Point",
    "coordinates": [
      -7.8967103,
      37.0403106
    ]
  }
},
{
  "type": "Feature",
  "id": "node/9458801228",
  "properties": {
    "access": "yes",
    "addr:country": "PT",
    "authentication:membership_card": "yes",
    "authentication:none": "no",
    "capacity": "2",
    "fee": "yes",
    "motorcar": "yes",
    "name": "PTS-00001",
    "network": "Mobi.E",
    "opening_hours": "24/7",
    "operator": "Factor Energia",
    "parking:fee": "no",
    "planned:amenity": "charging_station",
    "ref": "PTS-00001",
    "socket:type2": "2",
    "socket:type2:current": "32",
    "socket:type2:output": "22kW",
    "socket:type2:voltage": "400",
    "website": "https://www.mobie.pt/",
    "id": "node/9458801228"
  },
  "geometry": {
    "type": "Point",
    "coordinates": [
      -17.0867537,
      32.679827
    ]
  }
},
{
  "type": "Feature",
  "id": "node/9464421026",
  "properties": {
    "access": "customers",
    "addr:country": "PT",
    "capacity": "1",
    "motorcar": "yes",
    "name": "Hotel Parador Santa Catarina",
    "network": "none",
    "operator": "Hotel Parador Santa Catarina",
    "planned:amenity": "charging_station",
    "socket:chademo": "1",
    "socket:chademo:current": "120",
    "socket:chademo:output": "50kW",
    "socket:chademo:voltage": "500",
    "socket:type2_combo": "1",
    "socket:type2_combo:current": "350",
    "socket:type2_combo:output": "160kW",
    "socket:type2_combo:voltage": "920",
    "id": "node/9464421026"
  },
  "geometry": {
    "type": "Point",
    "coordinates": [
      -6.2718453,
      41.4967413
    ]
  }
},
{
  "type": "Feature",
  "id": "node/9464447965",
  "properties": {
    "access": "yes",
    "addr:country": "PT",
    "authentication:membership_card": "yes",
    "authentication:none": "no",
    "capacity": "4",
    "fee": "yes",
    "location": "underground",
    "motorcar": "yes",
    "name": "LSB-00426/427/428/429 - Empark Saldanha Residence",
    "network": "Mobi.E",
    "opening_hours": "24/7",
    "operator": "Maksu Services",
    "parking:fee": "yes",
    "planned:amenity": "charging_station",
    "ref": "LSB-00426;LSB-00427;LSB-00428;LSB-00429",
    "socket:type2": "4",
    "socket:type2:current": "32",
    "socket:type2:output": "22kW",
    "socket:type2:voltage": "400",
    "website": "https://www.mobie.pt/",
    "id": "node/9464447965"
  },
  "geometry": {
    "type": "Point",
    "coordinates": [
      -9.1453723,
      38.7317112
    ]
  }
},
{
  "type": "Feature",
  "id": "node/9487369497",
  "properties": {
    "access": "yes",
    "addr:country": "PT",
    "authentication:membership_card": "yes",
    "authentication:none": "no",
    "capacity": "2",
    "email": "mobilidade.electricacrc@galp.com",
    "fee": "yes",
    "motorcar": "yes",
    "name": "AZB-XXXXX",
    "network": "Mobi.E",
    "opening_hours": "24/7",
    "operator": "Galp Geste",
    "parking:fee": "no",
    "phone": "+351 800 249 249",
    "planned:amenity": "charging_station",
    "ref": "AZB-XXXXX",
    "socket:chademo": "1",
    "socket:chademo:current": "120",
    "socket:chademo:output": "50kW",
    "socket:chademo:voltage": "500",
    "socket:type2_cable": "1",
    "socket:type2_cable:current": "63",
    "socket:type2_cable:output": "43kW",
    "socket:type2_cable:voltage": "400",
    "socket:type2_combo": "1",
    "socket:type2_combo:current": "125",
    "socket:type2_combo:output": "50kW",
    "socket:type2_combo:voltage": "500",
    "website": "https://www.mobie.pt",
    "id": "node/9487369497"
  },
  "geometry": {
    "type": "Point",
    "coordinates": [
      -8.9082974,
      39.1222533
    ]
  }
},
{
  "type": "Feature",
  "id": "node/9535871518",
  "properties": {
    "access": "yes",
    "addr:country": "PT",
    "authentication:membership_card": "yes",
    "authentication:none": "no",
    "capacity": "2",
    "fee": "yes",
    "motorcar": "yes",
    "name": "AVR-00034 - Repsol",
    "network": "Mobi.E",
    "opening_hours": "24/7",
    "operator": "Repsol",
    "parking:fee": "no",
    "planned:amenity": "charging_station",
    "ref": "AVR-00034",
    "socket:chademo": "1",
    "socket:chademo:current": "120",
    "socket:chademo:output": "50kW",
    "socket:chademo:voltage": "500",
    "socket:type2_cable": "1",
    "socket:type2_cable:current": "63",
    "socket:type2_cable:output": "43kW",
    "socket:type2_cable:voltage": "400",
    "socket:type2_combo": "1",
    "socket:type2_combo:current": "125",
    "socket:type2_combo:output": "50kW",
    "socket:type2_combo:voltage": "500",
    "website": "https://www.mobie.pt/",
    "id": "node/9535871518"
  },
  "geometry": {
    "type": "Point",
    "coordinates": [
      -8.652693,
      40.626676
    ]
  }
},
{
  "type": "Feature",
  "id": "node/9554967233",
  "properties": {
    "access": "yes",
    "addr:country": "PT",
    "authentication:membership_card": "yes",
    "authentication:none": "no",
    "capacity": "2",
    "fee": "yes",
    "motorcar": "yes",
    "name": "SNT-00073 - Repsol",
    "network": "Mobi.E",
    "opening_hours": "24/7",
    "operator": "Repsol",
    "parking:fee": "no",
    "planned:amenity": "charging_station",
    "ref": "SNT-00073",
    "socket:chademo": "1",
    "socket:chademo:current": "120",
    "socket:chademo:output": "50kW",
    "socket:chademo:voltage": "500",
    "socket:type2_cable": "1",
    "socket:type2_cable:current": "32",
    "socket:type2_cable:output": "22kW",
    "socket:type2_cable:voltage": "400",
    "socket:type2_combo": "1",
    "socket:type2_combo:current": "125",
    "socket:type2_combo:output": "50kW",
    "socket:type2_combo:voltage": "500",
    "website": "https://www.mobie.pt/",
    "id": "node/9554967233"
  },
  "geometry": {
    "type": "Point",
    "coordinates": [
      -9.2585376,
      38.7637533
    ]
  }
},
{
  "type": "Feature",
  "id": "node/9554967234",
  "properties": {
    "access": "yes",
    "addr:country": "PT",
    "authentication:membership_card": "yes",
    "authentication:none": "no",
    "capacity": "2",
    "fee": "yes",
    "motorcar": "yes",
    "name": "OBD-00007 - Royal Óbidos Golf",
    "network": "Mobi.E",
    "opening_hours": "24/7",
    "operator": "Veimonte",
    "parking:fee": "no",
    "planned:amenity": "charging_station",
    "ref": "OBD-00007",
    "socket:type2": "2",
    "socket:type2:current": "32",
    "socket:type2:output": "22kW",
    "socket:type2:voltage": "400",
    "website": "https://www.mobie.pt/",
    "id": "node/9554967234"
  },
  "geometry": {
    "type": "Point",
    "coordinates": [
      -9.2429861,
      39.4067575
    ]
  }
},
{
  "type": "Feature",
  "id": "node/9554967235",
  "properties": {
    "access": "yes",
    "addr:country": "PT",
    "authentication:membership_card": "yes",
    "authentication:none": "no",
    "capacity": "2",
    "fee": "yes",
    "motorcar": "yes",
    "name": "STB-00022 - Mr Clean",
    "network": "Mobi.E",
    "opening_hours": "24/7",
    "operator": "Powerdot",
    "parking:fee": "no",
    "planned:amenity": "charging_station",
    "ref": "SXL-XXXXX",
    "socket:chademo": "1",
    "socket:chademo:current": "120",
    "socket:chademo:output": "50kW",
    "socket:chademo:voltage": "500",
    "socket:type2_cable": "1",
    "socket:type2_cable:current": "32",
    "socket:type2_cable:output": "22kW",
    "socket:type2_cable:voltage": "400",
    "socket:type2_combo": "1",
    "socket:type2_combo:current": "125",
    "socket:type2_combo:output": "50kW",
    "socket:type2_combo:voltage": "500",
    "website": "https://www.mobie.pt/",
    "id": "node/9554967235"
  },
  "geometry": {
    "type": "Point",
    "coordinates": [
      -9.1537375,
      38.6364497
    ]
  }
},
{
  "type": "Feature",
  "id": "node/9572465510",
  "properties": {
    "access": "yes",
    "addr:country": "PT",
    "authentication:membership_card": "yes",
    "authentication:none": "no",
    "capacity": "1",
    "fee": "yes",
    "motorcar": "yes",
    "name": "AND-XXXXX - Agriloja",
    "network": "Mobi.E",
    "opening_hours": "24/7",
    "operator": "unknown",
    "parking:fee": "no",
    "planned:amenity": "charging_station",
    "ref": "AND-XXXXX",
    "socket:type2_combo": "1",
    "socket:type2_combo:current": "250",
    "socket:type2_combo:output": "180kW",
    "socket:type2_combo:voltage": "920",
    "website": "https://www.mobie.pt/",
    "id": "node/9572465510"
  },
  "geometry": {
    "type": "Point",
    "coordinates": [
      -8.4536813,
      40.4052055
    ]
  }
},
{
  "type": "Feature",
  "id": "node/9572465511",
  "properties": {
    "access": "yes",
    "addr:country": "PT",
    "authentication:membership_card": "yes",
    "authentication:none": "no",
    "capacity": "1",
    "fee": "yes",
    "motorcar": "yes",
    "name": "MFR-XXXXX - Agriloja",
    "network": "Mobi.E",
    "opening_hours": "24/7",
    "operator": "unknown",
    "parking:fee": "no",
    "planned:amenity": "charging_station",
    "ref": "MFR-XXXXX",
    "socket:type2_combo": "1",
    "socket:type2_combo:current": "200",
    "socket:type2_combo:output": "80kW",
    "socket:type2_combo:voltage": "920",
    "website": "https://www.mobie.pt/",
    "id": "node/9572465511"
  },
  "geometry": {
    "type": "Point",
    "coordinates": [
      -9.337497,
      38.94387
    ]
  }
},
{
  "type": "Feature",
  "id": "node/9572465512",
  "properties": {
    "access": "yes",
    "addr:country": "PT",
    "authentication:membership_card": "yes",
    "authentication:none": "no",
    "capacity": "1",
    "fee": "yes",
    "motorcar": "yes",
    "name": "TNV-XXXXX - Agriloja",
    "network": "Mobi.E",
    "opening_hours": "24/7",
    "operator": "unknown",
    "parking:fee": "no",
    "planned:amenity": "charging_station",
    "ref": "TNV-XXXXX",
    "socket:type2_combo": "1",
    "socket:type2_combo:current": "250",
    "socket:type2_combo:output": "180kW",
    "socket:type2_combo:voltage": "920",
    "website": "https://www.mobie.pt/",
    "id": "node/9572465512"
  },
  "geometry": {
    "type": "Point",
    "coordinates": [
      -8.524662,
      39.4681007
    ]
  }
},
{
  "type": "Feature",
  "id": "node/9572465513",
  "properties": {
    "access": "yes",
    "addr:country": "PT",
    "authentication:membership_card": "yes",
    "authentication:none": "no",
    "capacity": "1",
    "fee": "yes",
    "motorcar": "yes",
    "name": "PTG-XXXXX - Agriloja",
    "network": "Mobi.E",
    "opening_hours": "24/7",
    "operator": "unknown",
    "parking:fee": "no",
    "planned:amenity": "charging_station",
    "ref": "PTG-XXXXX",
    "socket:type2_combo": "1",
    "socket:type2_combo:current": "200",
    "socket:type2_combo:output": "80kW",
    "socket:type2_combo:voltage": "920",
    "website": "https://www.mobie.pt/",
    "id": "node/9572465513"
  },
  "geometry": {
    "type": "Point",
    "coordinates": [
      -7.4328078,
      39.2769535
    ]
  }
},
{
  "type": "Feature",
  "id": "node/9572465514",
  "properties": {
    "access": "yes",
    "addr:country": "PT",
    "authentication:membership_card": "yes",
    "authentication:none": "no",
    "capacity": "1",
    "fee": "yes",
    "motorcar": "yes",
    "name": "SNT-XXXXX - The Bike Shop",
    "network": "Mobi.E",
    "opening_hours": "24/7",
    "operator": "unknown",
    "parking:fee": "no",
    "planned:amenity": "charging_station",
    "ref": "SNT-XXXXX",
    "socket:type2_combo": "1",
    "socket:type2_combo:current": "200",
    "socket:type2_combo:output": "80kW",
    "socket:type2_combo:voltage": "920",
    "website": "https://www.mobie.pt/",
    "id": "node/9572465514"
  },
  "geometry": {
    "type": "Point",
    "coordinates": [
      -9.3744399,
      38.8673294
    ]
  }
},
{
  "type": "Feature",
  "id": "node/9572465515",
  "properties": {
    "access": "private",
    "addr:country": "PT",
    "authentication:membership_card": "yes",
    "authentication:none": "no",
    "capacity": "1",
    "motorcar": "yes",
    "name": "Vila Rosa",
    "operator": "unknown",
    "parking:fee": "no",
    "planned:amenity": "charging_station",
    "socket:type2_combo": "1",
    "socket:type2_combo:current": "200",
    "socket:type2_combo:output": "80kW",
    "socket:type2_combo:voltage": "920",
    "id": "node/9572465515"
  },
  "geometry": {
    "type": "Point",
    "coordinates": [
      -8.5396168,
      37.1249273
    ]
  }
},
{
  "type": "Feature",
  "id": "node/9572465516",
  "properties": {
    "access": "private",
    "addr:country": "PT",
    "authentication:membership_card": "yes",
    "authentication:none": "no",
    "capacity": "1",
    "motorcar": "yes",
    "name": "Evolution",
    "operator": "unknown",
    "parking:fee": "no",
    "planned:amenity": "charging_station",
    "socket:type2_combo": "1",
    "socket:type2_combo:current": "250",
    "socket:type2_combo:output": "180kW",
    "socket:type2_combo:voltage": "920",
    "id": "node/9572465516"
  },
  "geometry": {
    "type": "Point",
    "coordinates": [
      -8.8350435,
      39.6683202
    ]
  }
},
{
  "type": "Feature",
  "id": "node/9572688517",
  "properties": {
    "access": "customers",
    "addr:country": "PT",
    "authentication:membership_card": "yes",
    "authentication:none": "no",
    "capacity": "1",
    "fee": "yes",
    "motorcar": "yes",
    "name": "AGD-XXXXX",
    "network": "Mobi.E",
    "opening_hours": "24/7",
    "operator": "unknown",
    "parking:fee": "no",
    "planned:amenity": "charging_station",
    "ref": "AGD-XXXXX",
    "socket:type2_combo": "1",
    "socket:type2_combo:current": "200",
    "socket:type2_combo:output": "80kW",
    "socket:type2_combo:voltage": "920",
    "website": "https://www.mobie.pt/",
    "id": "node/9572688517"
  },
  "geometry": {
    "type": "Point",
    "coordinates": [
      -8.4616333,
      40.5939964
    ]
  }
},
{
  "type": "Feature",
  "id": "node/9572688518",
  "properties": {
    "access": "customers",
    "addr:country": "PT",
    "authentication:membership_card": "yes",
    "authentication:none": "no",
    "capacity": "1",
    "fee": "yes",
    "motorcar": "yes",
    "name": "SSB-XXXXX",
    "network": "Mobi.E",
    "opening_hours": "24/7",
    "operator": "unknown",
    "parking:fee": "no",
    "planned:amenity": "charging_station",
    "ref": "SSB-XXXXX",
    "socket:type2_combo": "1",
    "socket:type2_combo:current": "200",
    "socket:type2_combo:output": "80kW",
    "socket:type2_combo:voltage": "920",
    "website": "https://www.mobie.pt/",
    "id": "node/9572688518"
  },
  "geometry": {
    "type": "Point",
    "coordinates": [
      -9.1129732,
      38.4415158
    ]
  }
},
{
  "type": "Feature",
  "id": "node/9572688519",
  "properties": {
    "access": "yes",
    "addr:country": "PT",
    "authentication:membership_card": "yes",
    "authentication:none": "no",
    "capacity": "1",
    "fee": "yes",
    "motorcar": "yes",
    "name": "SRP-XXXXX",
    "network": "Mobi.E",
    "opening_hours": "24/7",
    "operator": "unknown",
    "parking:fee": "no",
    "planned:amenity": "charging_station",
    "ref": "SRP-XXXXX",
    "socket:type2_combo": "1",
    "socket:type2_combo:current": "350",
    "socket:type2_combo:output": "180kW",
    "socket:type2_combo:voltage": "920",
    "website": "https://www.mobie.pt/",
    "id": "node/9572688519"
  },
  "geometry": {
    "type": "Point",
    "coordinates": [
      -7.598336,
      37.942107
    ]
  }
},
{
  "type": "Feature",
  "id": "node/9572688521",
  "properties": {
    "access": "yes",
    "addr:country": "PT",
    "authentication:membership_card": "yes",
    "authentication:none": "no",
    "capacity": "1",
    "fee": "yes",
    "motorcar": "yes",
    "name": "LRS-XXXXX - ENAT",
    "network": "Mobi.E",
    "opening_hours": "24/7",
    "operator": "unknown",
    "parking:fee": "no",
    "planned:amenity": "charging_station",
    "ref": "LRS-XXXXX",
    "socket:type2_combo": "1",
    "socket:type2_combo:current": "250",
    "socket:type2_combo:output": "180kW",
    "socket:type2_combo:voltage": "920",
    "website": "https://www.mobie.pt/",
    "id": "node/9572688521"
  },
  "geometry": {
    "type": "Point",
    "coordinates": [
      -9.086775,
      38.830232
    ]
  }
},
{
  "type": "Feature",
  "id": "node/9572688522",
  "properties": {
    "access": "yes",
    "addr:country": "PT",
    "authentication:membership_card": "yes",
    "authentication:none": "no",
    "capacity": "2",
    "fee": "yes",
    "motorcar": "yes",
    "name": "SJM-XXXXX - KFC",
    "network": "Mobi.E",
    "opening_hours": "24/7",
    "operator": "EDP Comercial",
    "parking:fee": "no",
    "planned:amenity": "charging_station",
    "ref": "SJM-XXXXX",
    "socket:type2": "2",
    "socket:type2:current": "32",
    "socket:type2:output": "22kW",
    "socket:type2:voltage": "400",
    "website": "https://www.mobie.pt/",
    "id": "node/9572688522"
  },
  "geometry": {
    "type": "Point",
    "coordinates": [
      -8.490798,
      40.888095
    ]
  }
},
{
  "type": "Feature",
  "id": "node/9588654389",
  "properties": {
    "access": "yes",
    "addr:country": "PT",
    "authentication:membership_card": "yes",
    "authentication:none": "no",
    "capacity": "2",
    "fee": "yes",
    "name": "GMR-00040 - Repsol",
    "network": "Mobi.E",
    "opening_hours": "24/7",
    "operator": "Repsol",
    "parking:fee": "no",
    "planned:amenity": "charging_station",
    "ref": "GMR-00040",
    "socket:chademo": "1",
    "socket:chademo:current": "125",
    "socket:chademo:output": "60kW",
    "socket:chademo:voltage": "500",
    "socket:type2": "1",
    "socket:type2:current": "32",
    "socket:type2:output": "22kW",
    "socket:type2:voltage": "400",
    "socket:type2_combo": "1",
    "socket:type2_combo:current": "125",
    "socket:type2_combo:output": "60kW",
    "socket:type2_combo:voltage": "920",
    "website": "https://www.mobie.pt/",
    "id": "node/9588654389"
  },
  "geometry": {
    "type": "Point",
    "coordinates": [
      -8.3278067,
      41.4692791
    ]
  }
},
{
  "type": "Feature",
  "id": "node/9608967073",
  "properties": {
    "access": "yes",
    "addr:country": "PT",
    "authentication:membership_card": "yes",
    "authentication:none": "no",
    "capacity": "2",
    "fee": "yes",
    "motorcar": "yes",
    "name": "STN-XXXXX",
    "network": "Mobi.E",
    "opening_hours": "24/7",
    "operator": "unknown",
    "parking:fee": "no",
    "planned:amenity": "charging_station",
    "ref": "STN-XXXXX",
    "socket:type2": "2",
    "socket:type2:current": "32",
    "socket:type2:output": "22kW",
    "socket:type2:voltage": "400",
    "website": "https://www.mobie.pt/",
    "id": "node/9608967073"
  },
  "geometry": {
    "type": "Point",
    "coordinates": [
      -16.9071268,
      32.826852
    ]
  }
},
{
  "type": "Feature",
  "id": "node/9618866658",
  "properties": {
    "access": "yes",
    "addr:country": "PT",
    "authentication:membership_card": "yes",
    "authentication:none": "no",
    "capacity": "1",
    "fee": "yes",
    "motorcar": "yes",
    "name": "LSB-00446",
    "network": "Mobi.E",
    "opening_hours": "24/7",
    "operator": "GRCAPP",
    "parking:fee": "yes",
    "planned:amenity": "charging_station",
    "ref": "LSB-00446",
    "socket:type2_combo": "1",
    "socket:type2_combo:current": "375",
    "socket:type2_combo:output": "160kW",
    "socket:type2_combo:voltage": "920",
    "website": "https://www.mobie.pt/",
    "id": "node/9618866658"
  },
  "geometry": {
    "type": "Point",
    "coordinates": [
      -9.1466331,
      38.7138931
    ]
  }
}
]
}
