{
  "version": 0.6,
  "generator": "Overpass API 0.7.58.5 b0c4acbb",
  "osm3s": {
    "copyright": "The data included in this document is from www.openstreetmap.org. The data is made available under ODbL."
  },
  "elements": [

{
  "type": "node",
  "id": 5378152458,
  "lat": 39.6355995,
  "lon": -8.6883482,
  "tags": {
    "access": "customers",
    "addr:country": "PT",
    "amenity": "charging_station",
    "amenity:wikipedia": "en:Tesla Supercharger",
    "authentication:none": "no",
    "brand": "Tesla Supercharger",
    "brand:wikidata": "Q17089620",
    "brand:wikipedia": "en:Tesla Supercharger",
    "capacity": "14",
    "fee": "yes",
    "motorcar": "yes",
    "name": "Fátima Supercharger",
    "network": "Tesla",
    "opening_hours": "24/7",
    "operator": "Tesla",
    "parking:fee": "no",
    "socket:tesla_supercharger": "14",
    "socket:tesla_supercharger:output": "150 kW",
    "socket:tesla_supercharger_ccs": "14",
    "socket:tesla_supercharger_ccs:output": "150 kW",
    "website": "https://www.tesla.com/findus/location/supercharger/fatimasupercharger"
  }
},
{
  "type": "node",
  "id": 5378178475,
  "lat": 38.6455361,
  "lon": -8.2477994,
  "tags": {
    "access": "customers",
    "addr:country": "PT",
    "amenity": "charging_station",
    "amenity:wikipedia": "en:Tesla Supercharger",
    "authentication:none": "no",
    "brand": "Tesla Supercharger",
    "brand:wikidata": "Q17089620",
    "brand:wikipedia": "en:Tesla Supercharger",
    "capacity": "8",
    "fee": "yes",
    "motorcar": "yes",
    "name": "Montemor-o-Novo Supercharger",
    "network": "Tesla",
    "opening_hours": "24/7",
    "operator": "Tesla",
    "socket:tesla_supercharger": "8",
    "socket:tesla_supercharger:output": "150 kW",
    "socket:tesla_supercharger_ccs": "8",
    "socket:tesla_supercharger_ccs:output": "150 kW",
    "website": "https://www.tesla.com/findus/location/supercharger/montemoronovosupercharger"
  }
},
{
  "type": "node",
  "id": 5617743685,
  "lat": 41.5035275,
  "lon": -7.8017521,
  "tags": {
    "access": "customers",
    "addr:country": "PT",
    "amenity": "charging_station",
    "amenity:wikipedia": "en:Tesla Supercharger",
    "authentication:none": "no",
    "brand": "Tesla Supercharger",
    "brand:wikidata": "Q17089620",
    "brand:wikipedia": "en:Tesla Supercharger",
    "capacity": "10",
    "fee": "yes",
    "motorcar": "yes",
    "name": "Ribeira de Pena Supercharger",
    "network": "Tesla",
    "opening_hours": "24/7",
    "operator": "Tesla",
    "parking:fee": "no",
    "socket:tesla_supercharger": "10",
    "socket:tesla_supercharger:output": "150 kW",
    "socket:tesla_supercharger_ccs": "10",
    "socket:tesla_supercharger_ccs:output": "150 kW",
    "website": "https://www.tesla.com/findus/location/supercharger/vilarealsupercharger"
  }
},
{
  "type": "node",
  "id": 5624728860,
  "lat": 40.5589461,
  "lon": -7.2310010,
  "tags": {
    "access": "customers",
    "addr:city": "Guarda",
    "addr:country": "PT",
    "addr:postcode": "6300-389",
    "amenity": "charging_station",
    "amenity:wikipedia": "en:Tesla Supercharger",
    "authentication:none": "no",
    "brand": "Tesla Supercharger",
    "brand:wikidata": "Q17089620",
    "brand:wikipedia": "en:Tesla Supercharger",
    "capacity": "8",
    "fee": "yes",
    "motorcar": "yes",
    "name": "Guarda Supercharger",
    "network": "Tesla",
    "opening_hours": "24/7",
    "operator": "Tesla",
    "parking:fee": "no",
    "socket:tesla_supercharger": "8",
    "socket:tesla_supercharger:output": "150 kW",
    "socket:tesla_supercharger_ccs": "8",
    "socket:tesla_supercharger_ccs:output": "150 kW",
    "website": "https://www.tesla.com/findus/location/supercharger/guardaptsupercharger"
  }
},
{
  "type": "node",
  "id": 5746376269,
  "lat": 38.3918484,
  "lon": -8.5138424,
  "tags": {
    "access": "customers",
    "addr:country": "PT",
    "amenity": "charging_station",
    "amenity:wikipedia": "en:Tesla Supercharger",
    "authentication:none": "no",
    "brand": "Tesla Supercharger",
    "brand:wikidata": "Q17089620",
    "brand:wikipedia": "en:Tesla Supercharger",
    "capacity": "10",
    "fee": "yes",
    "motorcar": "yes",
    "name": "Alcácer do Sal Supercharger",
    "network": "Tesla",
    "opening_hours": "24/7",
    "operator": "Tesla",
    "parking:fee": "no",
    "socket:tesla_supercharger": "10",
    "socket:tesla_supercharger:output": "150 kW",
    "socket:tesla_supercharger_ccs": "10",
    "socket:tesla_supercharger_ccs:output": "150 kW",
    "website": "https://www.tesla.com/findus/location/supercharger/alcacerdosalsupercharger"
  }
},
{
  "type": "node",
  "id": 6231042967,
  "lat": 37.1506236,
  "lon": -8.3644433,
  "tags": {
    "access": "customers",
    "addr:country": "PT",
    "amenity": "charging_station",
    "amenity:wikipedia": "en:Tesla Supercharger",
    "authentication:none": "no",
    "brand": "Tesla Supercharger",
    "brand:wikidata": "Q17089620",
    "brand:wikipedia": "en:Tesla Supercharger",
    "capacity": "8",
    "fee": "yes",
    "motorcar": "yes",
    "name": "Alcantarilha Supercharger",
    "network": "Tesla",
    "opening_hours": "24/7",
    "operator": "Tesla",
    "parking:fee": "no",
    "socket:tesla_supercharger": "8",
    "socket:tesla_supercharger:output": "150 kW",
    "socket:tesla_supercharger_ccs": "8",
    "socket:tesla_supercharger_ccs:output": "150 kW",
    "website": "https://www.tesla.com/findus/location/supercharger/alcantarilhasupercharger"
  }
},
{
  "type": "node",
  "id": 8085492053,
  "lat": 37.0976520,
  "lon": -7.9978886,
  "tags": {
    "access": "customers",
    "addr:country": "PT",
    "amenity": "charging_station",
    "amenity:wikipedia": "en:Tesla Supercharger",
    "authentication:none": "no",
    "brand": "Tesla Supercharger",
    "brand:wikidata": "Q17089620",
    "brand:wikipedia": "en:Tesla Supercharger",
    "capacity": "8",
    "description": "V3",
    "fee": "yes",
    "motorcar": "yes",
    "name": "Loulé Supercharger",
    "network": "Tesla",
    "opening_hours": "24/7",
    "operator": "Tesla",
    "parking:fee": "no",
    "socket:tesla_supercharger_ccs": "8",
    "socket:tesla_supercharger_ccs:output": "250 kW",
    "website": "https://www.tesla.com/findus/location/supercharger/loulesupercharger"
  }
},
{
  "type": "node",
  "id": 8132694667,
  "lat": 40.3730537,
  "lon": -8.4804161,
  "tags": {
    "access": "customers",
    "addr:country": "PT",
    "amenity": "charging_station",
    "amenity:wikipedia": "en:Tesla Supercharger",
    "authentication:none": "no",
    "brand": "Tesla Supercharger",
    "brand:wikidata": "Q17089620",
    "brand:wikipedia": "en:Tesla Supercharger",
    "capacity": "20",
    "fee": "yes",
    "motorcar": "yes",
    "name": "Mealhada Supercharger",
    "network": "Tesla",
    "opening_hours": "24/7",
    "operator": "Tesla",
    "parking:fee": "no",
    "socket:tesla_supercharger": "20",
    "socket:tesla_supercharger:output": "150 kW",
    "socket:tesla_supercharger_ccs": "20",
    "socket:tesla_supercharger_ccs:output": "150 kW",
    "website": "https://www.tesla.com/findus/location/supercharger/Mealhadasupercharger"
  }
},
{
  "type": "node",
  "id": 8513200747,
  "lat": 39.8064962,
  "lon": -7.5155403,
  "tags": {
    "access": "customers",
    "addr:country": "PT",
    "amenity": "charging_station",
    "amenity:wikipedia": "en:Tesla Supercharger",
    "authentication:none": "no",
    "brand": "Tesla Supercharger",
    "brand:wikidata": "Q17089620",
    "brand:wikipedia": "en:Tesla Supercharger",
    "capacity": "8",
    "construction:amenity": "charging_station",
    "fee": "yes",
    "motorcar": "yes",
    "name": "Castelo Branco Supercharger",
    "network": "Tesla",
    "note": "V3",
    "opening_hours": "24/7",
    "operator": "Tesla, Inc.",
    "operator:wikidata": "Q478214",
    "parking:fee": "no",
    "short_name": "Tesla",
    "socket:tesla_supercharger_ccs": "8",
    "socket:tesla_supercharger_ccs:output": "250 kW"
  }
}

  ]
}
