{
"type": "FeatureCollection",
"features": [
{
  "type": "Feature",
  "id": "node/5378152458",
  "properties": {
    "access": "customers",
    "addr:country": "PT",
    "amenity": "charging_station",
    "amenity:wikipedia": "en:Tesla Supercharger",
    "authentication:none": "no",
    "brand": "Tesla Supercharger",
    "brand:wikidata": "Q17089620",
    "brand:wikipedia": "en:Tesla Supercharger",
    "capacity": "14",
    "fee": "yes",
    "motorcar": "yes",
    "name": "Fátima Supercharger",
    "network": "Tesla",
    "opening_hours": "24/7",
    "operator": "Tesla",
    "parking:fee": "no",
    "socket:tesla_supercharger": "14",
    "socket:tesla_supercharger:output": "150 kW",
    "socket:tesla_supercharger_ccs": "14",
    "socket:tesla_supercharger_ccs:output": "150 kW",
    "website": "https://www.tesla.com/findus/location/supercharger/fatimasupercharger",
    "id": "node/5378152458"
  },
  "geometry": {
    "type": "Point",
    "coordinates": [
      -8.6883482,
      39.6355995
    ]
  }
},
{
  "type": "Feature",
  "id": "node/5378178475",
  "properties": {
    "access": "customers",
    "addr:country": "PT",
    "amenity": "charging_station",
    "amenity:wikipedia": "en:Tesla Supercharger",
    "authentication:none": "no",
    "brand": "Tesla Supercharger",
    "brand:wikidata": "Q17089620",
    "brand:wikipedia": "en:Tesla Supercharger",
    "capacity": "8",
    "fee": "yes",
    "motorcar": "yes",
    "name": "Montemor-o-Novo Supercharger",
    "network": "Tesla",
    "opening_hours": "24/7",
    "operator": "Tesla",
    "socket:tesla_supercharger": "8",
    "socket:tesla_supercharger:output": "150 kW",
    "socket:tesla_supercharger_ccs": "8",
    "socket:tesla_supercharger_ccs:output": "150 kW",
    "website": "https://www.tesla.com/findus/location/supercharger/montemoronovosupercharger",
    "id": "node/5378178475"
  },
  "geometry": {
    "type": "Point",
    "coordinates": [
      -8.2477994,
      38.6455361
    ]
  }
},
{
  "type": "Feature",
  "id": "node/5617743685",
  "properties": {
    "access": "customers",
    "addr:country": "PT",
    "amenity": "charging_station",
    "amenity:wikipedia": "en:Tesla Supercharger",
    "authentication:none": "no",
    "brand": "Tesla Supercharger",
    "brand:wikidata": "Q17089620",
    "brand:wikipedia": "en:Tesla Supercharger",
    "capacity": "10",
    "fee": "yes",
    "motorcar": "yes",
    "name": "Ribeira de Pena Supercharger",
    "network": "Tesla",
    "opening_hours": "24/7",
    "operator": "Tesla",
    "parking:fee": "no",
    "socket:tesla_supercharger": "10",
    "socket:tesla_supercharger:output": "150 kW",
    "socket:tesla_supercharger_ccs": "10",
    "socket:tesla_supercharger_ccs:output": "150 kW",
    "website": "https://www.tesla.com/findus/location/supercharger/vilarealsupercharger",
    "id": "node/5617743685"
  },
  "geometry": {
    "type": "Point",
    "coordinates": [
      -7.8017521,
      41.5035275
    ]
  }
},
{
  "type": "Feature",
  "id": "node/5624728860",
  "properties": {
    "access": "customers",
    "addr:city": "Guarda",
    "addr:country": "PT",
    "addr:postcode": "6300-389",
    "amenity": "charging_station",
    "amenity:wikipedia": "en:Tesla Supercharger",
    "authentication:none": "no",
    "brand": "Tesla Supercharger",
    "brand:wikidata": "Q17089620",
    "brand:wikipedia": "en:Tesla Supercharger",
    "capacity": "8",
    "fee": "yes",
    "motorcar": "yes",
    "name": "Guarda Supercharger",
    "network": "Tesla",
    "opening_hours": "24/7",
    "operator": "Tesla",
    "parking:fee": "no",
    "socket:tesla_supercharger": "8",
    "socket:tesla_supercharger:output": "150 kW",
    "socket:tesla_supercharger_ccs": "8",
    "socket:tesla_supercharger_ccs:output": "150 kW",
    "website": "https://www.tesla.com/findus/location/supercharger/guardaptsupercharger",
    "id": "node/5624728860"
  },
  "geometry": {
    "type": "Point",
    "coordinates": [
      -7.231001,
      40.5589461
    ]
  }
},
{
  "type": "Feature",
  "id": "node/5746376269",
  "properties": {
    "access": "customers",
    "addr:country": "PT",
    "amenity": "charging_station",
    "amenity:wikipedia": "en:Tesla Supercharger",
    "authentication:none": "no",
    "brand": "Tesla Supercharger",
    "brand:wikidata": "Q17089620",
    "brand:wikipedia": "en:Tesla Supercharger",
    "capacity": "10",
    "fee": "yes",
    "motorcar": "yes",
    "name": "Alcácer do Sal Supercharger",
    "network": "Tesla",
    "opening_hours": "24/7",
    "operator": "Tesla",
    "parking:fee": "no",
    "socket:tesla_supercharger": "10",
    "socket:tesla_supercharger:output": "150 kW",
    "socket:tesla_supercharger_ccs": "10",
    "socket:tesla_supercharger_ccs:output": "150 kW",
    "website": "https://www.tesla.com/findus/location/supercharger/alcacerdosalsupercharger",
    "id": "node/5746376269"
  },
  "geometry": {
    "type": "Point",
    "coordinates": [
      -8.5138424,
      38.3918484
    ]
  }
},
{
  "type": "Feature",
  "id": "node/6231042967",
  "properties": {
    "access": "customers",
    "addr:country": "PT",
    "amenity": "charging_station",
    "amenity:wikipedia": "en:Tesla Supercharger",
    "authentication:none": "no",
    "brand": "Tesla Supercharger",
    "brand:wikidata": "Q17089620",
    "brand:wikipedia": "en:Tesla Supercharger",
    "capacity": "8",
    "fee": "yes",
    "motorcar": "yes",
    "name": "Alcantarilha Supercharger",
    "network": "Tesla",
    "opening_hours": "24/7",
    "operator": "Tesla",
    "parking:fee": "no",
    "socket:tesla_supercharger": "8",
    "socket:tesla_supercharger:output": "150 kW",
    "socket:tesla_supercharger_ccs": "8",
    "socket:tesla_supercharger_ccs:output": "150 kW",
    "website": "https://www.tesla.com/findus/location/supercharger/alcantarilhasupercharger",
    "id": "node/6231042967"
  },
  "geometry": {
    "type": "Point",
    "coordinates": [
      -8.3644433,
      37.1506236
    ]
  }
},
{
  "type": "Feature",
  "id": "node/8085492053",
  "properties": {
    "access": "customers",
    "addr:country": "PT",
    "amenity": "charging_station",
    "amenity:wikipedia": "en:Tesla Supercharger",
    "authentication:none": "no",
    "brand": "Tesla Supercharger",
    "brand:wikidata": "Q17089620",
    "brand:wikipedia": "en:Tesla Supercharger",
    "capacity": "8",
    "description": "V3",
    "fee": "yes",
    "motorcar": "yes",
    "name": "Loulé Supercharger",
    "network": "Tesla",
    "opening_hours": "24/7",
    "operator": "Tesla",
    "parking:fee": "no",
    "socket:tesla_supercharger_ccs": "8",
    "socket:tesla_supercharger_ccs:output": "250 kW",
    "website": "https://www.tesla.com/findus/location/supercharger/loulesupercharger",
    "id": "node/8085492053"
  },
  "geometry": {
    "type": "Point",
    "coordinates": [
      -7.9978886,
      37.097652
    ]
  }
},
{
  "type": "Feature",
  "id": "node/8132694667",
  "properties": {
    "access": "customers",
    "addr:country": "PT",
    "amenity": "charging_station",
    "amenity:wikipedia": "en:Tesla Supercharger",
    "authentication:none": "no",
    "brand": "Tesla Supercharger",
    "brand:wikidata": "Q17089620",
    "brand:wikipedia": "en:Tesla Supercharger",
    "capacity": "20",
    "fee": "yes",
    "motorcar": "yes",
    "name": "Mealhada Supercharger",
    "network": "Tesla",
    "opening_hours": "24/7",
    "operator": "Tesla",
    "parking:fee": "no",
    "socket:tesla_supercharger": "20",
    "socket:tesla_supercharger:output": "150 kW",
    "socket:tesla_supercharger_ccs": "20",
    "socket:tesla_supercharger_ccs:output": "150 kW",
    "website": "https://www.tesla.com/findus/location/supercharger/Mealhadasupercharger",
    "id": "node/8132694667"
  },
  "geometry": {
    "type": "Point",
    "coordinates": [
      -8.4804161,
      40.3730537
    ]
  }
}
]
}
